<?xml version="1.0" encoding="UTF-8"?>
<gpx version="1.1" creator="Garmisch 2026" xmlns="http://www.topografix.com/GPX/1/1">
<metadata><name>Otrdiena 6. oktobris - Zugspitze un Eibsee</name></metadata>
<wpt lat="47.45637" lon="10.99387"><name>Eibsee stacija / Zugspitze Seilbahn</name></wpt>
<wpt lat="47.47336" lon="11.01635"><name>Badersee</name></wpt>
<wpt lat="47.471821" lon="11.023778"><name>Grainau stacija (Zugspitzbahn vilciens uz Garmisch)</name></wpt>
<wpt lat="47.48962" lon="11.09672"><name>Zugspitzbahnhof Garmisch (08:15)</name></wpt>
<wpt lat="47.42113" lon="10.98533"><name>Zugspitze 2962 m</name></wpt>
<wpt lat="47.41347" lon="10.97999"><name>Zugspitzplatt - ledājs, vilciens lejā</name></wpt>
<wpt lat="47.4914" lon="11.09759"><name>Garmisch stacija - RB6 uz lidostu</name></wpt>
<trk><name>Otrdiena - Garais (11 km)</name><trkseg><trkpt lat="47.457414" lon="10.991821"><ele>975</ele></trkpt><trkpt lat="47.457398" lon="10.991684"><ele>975</ele></trkpt><trkpt lat="47.457381" lon="10.991533"><ele>975</ele></trkpt><trkpt lat="47.457340" lon="10.991179"><ele>975</ele></trkpt><trkpt lat="47.457325" lon="10.991048"><ele>975</ele></trkpt><trkpt lat="47.457318" lon="10.990993"><ele>975</ele></trkpt><trkpt lat="47.457290" lon="10.990780"><ele>975</ele></trkpt><trkpt lat="47.457280" lon="10.990736"><ele>975</ele></trkpt><trkpt lat="47.457270" lon="10.990711"><ele>975</ele></trkpt><trkpt lat="47.457255" lon="10.990684"><ele>975</ele></trkpt><trkpt lat="47.457238" lon="10.990664"><ele>975</ele></trkpt><trkpt lat="47.457255" lon="10.990505"><ele>975</ele></trkpt><trkpt lat="47.457265" lon="10.990355"><ele>975</ele></trkpt><trkpt lat="47.457259" lon="10.990293"><ele>975</ele></trkpt><trkpt lat="47.457247" lon="10.990172"><ele>975</ele></trkpt><trkpt lat="47.457237" lon="10.990123"><ele>975</ele></trkpt><trkpt lat="47.457229" lon="10.990080"><ele>975</ele></trkpt><trkpt lat="47.457194" lon="10.989987"><ele>975</ele></trkpt><trkpt lat="47.457117" lon="10.989790"><ele>975</ele></trkpt><trkpt lat="47.457070" lon="10.989697"><ele>975</ele></trkpt><trkpt lat="47.456995" lon="10.989520"><ele>975</ele></trkpt><trkpt lat="47.456956" lon="10.989445"><ele>975</ele></trkpt><trkpt lat="47.456768" lon="10.989191"><ele>975</ele></trkpt><trkpt lat="47.456754" lon="10.989162"><ele>975</ele></trkpt><trkpt lat="47.456694" lon="10.989041"><ele>975</ele></trkpt><trkpt lat="47.456617" lon="10.988867"><ele>975</ele></trkpt><trkpt lat="47.456563" lon="10.988749"><ele>975</ele></trkpt><trkpt lat="47.456442" lon="10.988508"><ele>975</ele></trkpt><trkpt lat="47.456381" lon="10.988388"><ele>975</ele></trkpt><trkpt lat="47.456256" lon="10.988128"><ele>975</ele></trkpt><trkpt lat="47.456088" lon="10.987699"><ele>975</ele></trkpt><trkpt lat="47.456072" lon="10.987635"><ele>975</ele></trkpt><trkpt lat="47.455971" lon="10.987430"><ele>975</ele></trkpt><trkpt lat="47.455907" lon="10.987299"><ele>975</ele></trkpt><trkpt lat="47.455757" lon="10.987023"><ele>975</ele></trkpt><trkpt lat="47.455697" lon="10.986891"><ele>975</ele></trkpt><trkpt lat="47.455678" lon="10.986830"><ele>975</ele></trkpt><trkpt lat="47.455659" lon="10.986693"><ele>975</ele></trkpt><trkpt lat="47.455679" lon="10.986527"><ele>975</ele></trkpt><trkpt lat="47.455712" lon="10.986394"><ele>975</ele></trkpt><trkpt lat="47.455756" lon="10.986251"><ele>975</ele></trkpt><trkpt lat="47.455834" lon="10.986033"><ele>975</ele></trkpt><trkpt lat="47.455894" lon="10.985866"><ele>975</ele></trkpt><trkpt lat="47.455916" lon="10.985746"><ele>975</ele></trkpt><trkpt lat="47.455914" lon="10.985629"><ele>975</ele></trkpt><trkpt lat="47.455899" lon="10.985512"><ele>975</ele></trkpt><trkpt lat="47.455808" lon="10.985141"><ele>975</ele></trkpt><trkpt lat="47.455836" lon="10.984776"><ele>975</ele></trkpt><trkpt lat="47.455848" lon="10.984415"><ele>975</ele></trkpt><trkpt lat="47.455805" lon="10.984228"><ele>975</ele></trkpt><trkpt lat="47.455700" lon="10.984031"><ele>975</ele></trkpt><trkpt lat="47.455499" lon="10.983825"><ele>975</ele></trkpt><trkpt lat="47.455276" lon="10.983676"><ele>975</ele></trkpt><trkpt lat="47.455056" lon="10.983658"><ele>975</ele></trkpt><trkpt lat="47.454862" lon="10.983573"><ele>975</ele></trkpt><trkpt lat="47.454647" lon="10.983479"><ele>975</ele></trkpt><trkpt lat="47.454520" lon="10.983397"><ele>975</ele></trkpt><trkpt lat="47.454398" lon="10.983149"><ele>975</ele></trkpt><trkpt lat="47.454300" lon="10.982796"><ele>975</ele></trkpt><trkpt lat="47.454133" lon="10.982415"><ele>975</ele></trkpt><trkpt lat="47.454027" lon="10.982025"><ele>975</ele></trkpt><trkpt lat="47.453998" lon="10.981782"><ele>975</ele></trkpt><trkpt lat="47.453994" lon="10.981700"><ele>975</ele></trkpt><trkpt lat="47.454064" lon="10.981460"><ele>975</ele></trkpt><trkpt lat="47.454087" lon="10.981284"><ele>975</ele></trkpt><trkpt lat="47.454125" lon="10.981075"><ele>975</ele></trkpt><trkpt lat="47.454113" lon="10.980910"><ele>975</ele></trkpt><trkpt lat="47.454106" lon="10.980740"><ele>975</ele></trkpt><trkpt lat="47.454012" lon="10.980506"><ele>975</ele></trkpt><trkpt lat="47.453836" lon="10.980217"><ele>975</ele></trkpt><trkpt lat="47.453764" lon="10.980115"><ele>975</ele></trkpt><trkpt lat="47.453628" lon="10.979972"><ele>975</ele></trkpt><trkpt lat="47.453372" lon="10.979786"><ele>975</ele></trkpt><trkpt lat="47.453156" lon="10.979611"><ele>975</ele></trkpt><trkpt lat="47.452999" lon="10.979544"><ele>975</ele></trkpt><trkpt lat="47.452856" lon="10.979508"><ele>975</ele></trkpt><trkpt lat="47.452739" lon="10.979492"><ele>975</ele></trkpt><trkpt lat="47.452683" lon="10.979493"><ele>975</ele></trkpt><trkpt lat="47.452622" lon="10.979487"><ele>975</ele></trkpt><trkpt lat="47.452558" lon="10.979503"><ele>975</ele></trkpt><trkpt lat="47.452464" lon="10.979526"><ele>975</ele></trkpt><trkpt lat="47.452408" lon="10.979527"><ele>975</ele></trkpt><trkpt lat="47.452312" lon="10.979529"><ele>975</ele></trkpt><trkpt lat="47.452148" lon="10.979473"><ele>975</ele></trkpt><trkpt lat="47.451977" lon="10.979323"><ele>975</ele></trkpt><trkpt lat="47.451893" lon="10.979119"><ele>975</ele></trkpt><trkpt lat="47.451871" lon="10.978846"><ele>975</ele></trkpt><trkpt lat="47.451863" lon="10.978540"><ele>975</ele></trkpt><trkpt lat="47.451820" lon="10.978129"><ele>975</ele></trkpt><trkpt lat="47.451849" lon="10.977646"><ele>975</ele></trkpt><trkpt lat="47.451905" lon="10.977241"><ele>975</ele></trkpt><trkpt lat="47.451928" lon="10.976963"><ele>975</ele></trkpt><trkpt lat="47.451883" lon="10.976773"><ele>975</ele></trkpt><trkpt lat="47.451802" lon="10.976567"><ele>975</ele></trkpt><trkpt lat="47.451489" lon="10.975776"><ele>975</ele></trkpt><trkpt lat="47.451389" lon="10.975518"><ele>975</ele></trkpt><trkpt lat="47.451251" lon="10.975022"><ele>975</ele></trkpt><trkpt lat="47.451169" lon="10.974469"><ele>975</ele></trkpt><trkpt lat="47.451183" lon="10.974207"><ele>975</ele></trkpt><trkpt lat="47.451249" lon="10.973897"><ele>975</ele></trkpt><trkpt lat="47.451300" lon="10.973616"><ele>975</ele></trkpt><trkpt lat="47.451340" lon="10.973264"><ele>975</ele></trkpt><trkpt lat="47.451364" lon="10.973028"><ele>975</ele></trkpt><trkpt lat="47.451368" lon="10.972949"><ele>975</ele></trkpt><trkpt lat="47.451366" lon="10.972889"><ele>975</ele></trkpt><trkpt lat="47.451331" lon="10.972765"><ele>975</ele></trkpt><trkpt lat="47.451305" lon="10.972735"><ele>975</ele></trkpt><trkpt lat="47.451208" lon="10.972694"><ele>975</ele></trkpt><trkpt lat="47.451125" lon="10.972664"><ele>975</ele></trkpt><trkpt lat="47.451029" lon="10.972655"><ele>975</ele></trkpt><trkpt lat="47.450898" lon="10.972602"><ele>975</ele></trkpt><trkpt lat="47.450804" lon="10.972466"><ele>975</ele></trkpt><trkpt lat="47.450735" lon="10.972289"><ele>975</ele></trkpt><trkpt lat="47.450675" lon="10.972069"><ele>975</ele></trkpt><trkpt lat="47.450623" lon="10.971843"><ele>975</ele></trkpt><trkpt lat="47.450615" lon="10.971748"><ele>975</ele></trkpt><trkpt lat="47.450630" lon="10.971677"><ele>975</ele></trkpt><trkpt lat="47.450684" lon="10.971566"><ele>975</ele></trkpt><trkpt lat="47.450775" lon="10.971412"><ele>975</ele></trkpt><trkpt lat="47.450798" lon="10.971172"><ele>975</ele></trkpt><trkpt lat="47.450729" lon="10.971010"><ele>975</ele></trkpt><trkpt lat="47.450658" lon="10.970898"><ele>975</ele></trkpt><trkpt lat="47.450634" lon="10.970805"><ele>975</ele></trkpt><trkpt lat="47.450646" lon="10.970685"><ele>975</ele></trkpt><trkpt lat="47.450714" lon="10.970528"><ele>975</ele></trkpt><trkpt lat="47.450797" lon="10.970398"><ele>975</ele></trkpt><trkpt lat="47.450906" lon="10.970292"><ele>975</ele></trkpt><trkpt lat="47.451044" lon="10.970221"><ele>975</ele></trkpt><trkpt lat="47.451205" lon="10.970156"><ele>975</ele></trkpt><trkpt lat="47.451325" lon="10.970080"><ele>975</ele></trkpt><trkpt lat="47.451399" lon="10.970043"><ele>975</ele></trkpt><trkpt lat="47.451475" lon="10.970029"><ele>975</ele></trkpt><trkpt lat="47.451575" lon="10.970026"><ele>975</ele></trkpt><trkpt lat="47.451716" lon="10.970058"><ele>975</ele></trkpt><trkpt lat="47.451806" lon="10.969986"><ele>975</ele></trkpt><trkpt lat="47.451869" lon="10.969897"><ele>975</ele></trkpt><trkpt lat="47.451880" lon="10.969839"><ele>975</ele></trkpt><trkpt lat="47.451870" lon="10.969668"><ele>975</ele></trkpt><trkpt lat="47.451813" lon="10.969123"><ele>975</ele></trkpt><trkpt lat="47.451723" lon="10.968744"><ele>975</ele></trkpt><trkpt lat="47.451650" lon="10.968579"><ele>975</ele></trkpt><trkpt lat="47.451578" lon="10.968457"><ele>975</ele></trkpt><trkpt lat="47.451556" lon="10.968362"><ele>975</ele></trkpt><trkpt lat="47.451573" lon="10.968222"><ele>975</ele></trkpt><trkpt lat="47.451616" lon="10.968113"><ele>975</ele></trkpt><trkpt lat="47.451779" lon="10.967799"><ele>975</ele></trkpt><trkpt lat="47.451858" lon="10.967672"><ele>975</ele></trkpt><trkpt lat="47.451966" lon="10.967548"><ele>975</ele></trkpt><trkpt lat="47.452023" lon="10.967452"><ele>975</ele></trkpt><trkpt lat="47.452108" lon="10.967194"><ele>975</ele></trkpt><trkpt lat="47.452130" lon="10.967032"><ele>975</ele></trkpt><trkpt lat="47.452142" lon="10.966996"><ele>975</ele></trkpt><trkpt lat="47.452167" lon="10.966954"><ele>975</ele></trkpt><trkpt lat="47.452268" lon="10.966870"><ele>975</ele></trkpt><trkpt lat="47.452307" lon="10.966841"><ele>975</ele></trkpt><trkpt lat="47.452343" lon="10.966806"><ele>975</ele></trkpt><trkpt lat="47.452365" lon="10.966775"><ele>975</ele></trkpt><trkpt lat="47.452380" lon="10.966742"><ele>975</ele></trkpt><trkpt lat="47.452400" lon="10.966676"><ele>975</ele></trkpt><trkpt lat="47.452432" lon="10.966517"><ele>975</ele></trkpt><trkpt lat="47.452453" lon="10.966345"><ele>975</ele></trkpt><trkpt lat="47.452469" lon="10.966288"><ele>975</ele></trkpt><trkpt lat="47.452495" lon="10.966216"><ele>975</ele></trkpt><trkpt lat="47.452580" lon="10.966095"><ele>975</ele></trkpt><trkpt lat="47.452662" lon="10.965991"><ele>975</ele></trkpt><trkpt lat="47.452873" lon="10.965760"><ele>975</ele></trkpt><trkpt lat="47.452943" lon="10.965684"><ele>975</ele></trkpt><trkpt lat="47.453012" lon="10.965637"><ele>975</ele></trkpt><trkpt lat="47.453088" lon="10.965599"><ele>975</ele></trkpt><trkpt lat="47.453136" lon="10.965580"><ele>975</ele></trkpt><trkpt lat="47.453182" lon="10.965560"><ele>975</ele></trkpt><trkpt lat="47.453216" lon="10.965538"><ele>975</ele></trkpt><trkpt lat="47.453235" lon="10.965526"><ele>975</ele></trkpt><trkpt lat="47.453271" lon="10.965517"><ele>975</ele></trkpt><trkpt lat="47.453290" lon="10.965504"><ele>975</ele></trkpt><trkpt lat="47.453326" lon="10.965470"><ele>975</ele></trkpt><trkpt lat="47.453407" lon="10.965384"><ele>975</ele></trkpt><trkpt lat="47.453474" lon="10.965306"><ele>975</ele></trkpt><trkpt lat="47.453521" lon="10.965239"><ele>975</ele></trkpt><trkpt lat="47.453544" lon="10.965192"><ele>975</ele></trkpt><trkpt lat="47.453554" lon="10.965140"><ele>975</ele></trkpt><trkpt lat="47.453584" lon="10.965033"><ele>975</ele></trkpt><trkpt lat="47.453686" lon="10.964785"><ele>975</ele></trkpt><trkpt lat="47.453739" lon="10.964671"><ele>975</ele></trkpt><trkpt lat="47.453830" lon="10.964541"><ele>975</ele></trkpt><trkpt lat="47.453889" lon="10.964425"><ele>975</ele></trkpt><trkpt lat="47.453939" lon="10.964343"><ele>975</ele></trkpt><trkpt lat="47.454082" lon="10.964185"><ele>975</ele></trkpt><trkpt lat="47.454132" lon="10.964125"><ele>975</ele></trkpt><trkpt lat="47.454231" lon="10.964045"><ele>975</ele></trkpt><trkpt lat="47.454321" lon="10.963976"><ele>975</ele></trkpt><trkpt lat="47.454597" lon="10.963802"><ele>975</ele></trkpt><trkpt lat="47.454653" lon="10.963758"><ele>975</ele></trkpt><trkpt lat="47.454708" lon="10.963696"><ele>975</ele></trkpt><trkpt lat="47.454789" lon="10.963547"><ele>975</ele></trkpt><trkpt lat="47.454865" lon="10.963418"><ele>975</ele></trkpt><trkpt lat="47.454949" lon="10.963300"><ele>975</ele></trkpt><trkpt lat="47.455011" lon="10.963237"><ele>975</ele></trkpt><trkpt lat="47.455069" lon="10.963214"><ele>975</ele></trkpt><trkpt lat="47.455121" lon="10.963205"><ele>975</ele></trkpt><trkpt lat="47.455175" lon="10.963180"><ele>975</ele></trkpt><trkpt lat="47.455294" lon="10.963065"><ele>975</ele></trkpt><trkpt lat="47.455401" lon="10.962923"><ele>975</ele></trkpt><trkpt lat="47.455619" lon="10.962807"><ele>975</ele></trkpt><trkpt lat="47.455859" lon="10.962723"><ele>975</ele></trkpt><trkpt lat="47.455985" lon="10.962728"><ele>975</ele></trkpt><trkpt lat="47.456008" lon="10.962729"><ele>975</ele></trkpt><trkpt lat="47.456029" lon="10.962716"><ele>975</ele></trkpt><trkpt lat="47.456089" lon="10.962625"><ele>975</ele></trkpt><trkpt lat="47.456143" lon="10.962501"><ele>975</ele></trkpt><trkpt lat="47.456208" lon="10.962435"><ele>975</ele></trkpt><trkpt lat="47.456312" lon="10.962376"><ele>975</ele></trkpt><trkpt lat="47.456370" lon="10.962279"><ele>975</ele></trkpt><trkpt lat="47.456452" lon="10.962122"><ele>975</ele></trkpt><trkpt lat="47.456515" lon="10.961958"><ele>975</ele></trkpt><trkpt lat="47.456563" lon="10.961755"><ele>975</ele></trkpt><trkpt lat="47.456609" lon="10.961601"><ele>975</ele></trkpt><trkpt lat="47.456709" lon="10.961523"><ele>975</ele></trkpt><trkpt lat="47.456815" lon="10.961471"><ele>975</ele></trkpt><trkpt lat="47.456936" lon="10.961371"><ele>975</ele></trkpt><trkpt lat="47.457013" lon="10.961260"><ele>975</ele></trkpt><trkpt lat="47.457109" lon="10.961152"><ele>975</ele></trkpt><trkpt lat="47.457214" lon="10.961106"><ele>975</ele></trkpt><trkpt lat="47.457401" lon="10.961055"><ele>975</ele></trkpt><trkpt lat="47.457603" lon="10.960960"><ele>975</ele></trkpt><trkpt lat="47.457754" lon="10.960896"><ele>975</ele></trkpt><trkpt lat="47.457821" lon="10.960896"><ele>975</ele></trkpt><trkpt lat="47.457892" lon="10.960926"><ele>975</ele></trkpt><trkpt lat="47.458155" lon="10.961029"><ele>975</ele></trkpt><trkpt lat="47.458219" lon="10.961006"><ele>975</ele></trkpt><trkpt lat="47.458357" lon="10.960910"><ele>975</ele></trkpt><trkpt lat="47.458527" lon="10.960610"><ele>975</ele></trkpt><trkpt lat="47.458745" lon="10.960262"><ele>975</ele></trkpt><trkpt lat="47.459039" lon="10.959912"><ele>975</ele></trkpt><trkpt lat="47.459189" lon="10.959764"><ele>975</ele></trkpt><trkpt lat="47.459307" lon="10.959609"><ele>975</ele></trkpt><trkpt lat="47.459416" lon="10.959462"><ele>975</ele></trkpt><trkpt lat="47.459584" lon="10.959193"><ele>975</ele></trkpt><trkpt lat="47.459727" lon="10.959065"><ele>975</ele></trkpt><trkpt lat="47.460032" lon="10.958428"><ele>975</ele></trkpt><trkpt lat="47.460131" lon="10.958243"><ele>975</ele></trkpt><trkpt lat="47.460299" lon="10.957845"><ele>975</ele></trkpt><trkpt lat="47.460389" lon="10.957739"><ele>975</ele></trkpt><trkpt lat="47.460525" lon="10.957667"><ele>975</ele></trkpt><trkpt lat="47.460598" lon="10.957606"><ele>975</ele></trkpt><trkpt lat="47.460658" lon="10.957581"><ele>975</ele></trkpt><trkpt lat="47.460813" lon="10.957519"><ele>975</ele></trkpt><trkpt lat="47.460880" lon="10.957459"><ele>975</ele></trkpt><trkpt lat="47.460925" lon="10.957396"><ele>975</ele></trkpt><trkpt lat="47.460972" lon="10.957314"><ele>975</ele></trkpt><trkpt lat="47.461037" lon="10.957139"><ele>975</ele></trkpt><trkpt lat="47.461081" lon="10.956991"><ele>975</ele></trkpt><trkpt lat="47.461120" lon="10.956888"><ele>975</ele></trkpt><trkpt lat="47.461205" lon="10.956815"><ele>975</ele></trkpt><trkpt lat="47.461314" lon="10.956812"><ele>975</ele></trkpt><trkpt lat="47.461392" lon="10.956837"><ele>975</ele></trkpt><trkpt lat="47.461429" lon="10.956881"><ele>975</ele></trkpt><trkpt lat="47.461526" lon="10.957140"><ele>975</ele></trkpt><trkpt lat="47.461529" lon="10.957432"><ele>975</ele></trkpt><trkpt lat="47.461521" lon="10.957855"><ele>975</ele></trkpt><trkpt lat="47.461554" lon="10.958286"><ele>975</ele></trkpt><trkpt lat="47.461577" lon="10.959048"><ele>975</ele></trkpt><trkpt lat="47.461561" lon="10.959348"><ele>975</ele></trkpt><trkpt lat="47.461506" lon="10.959773"><ele>975</ele></trkpt><trkpt lat="47.461442" lon="10.960131"><ele>975</ele></trkpt><trkpt lat="47.461328" lon="10.960413"><ele>975</ele></trkpt><trkpt lat="47.461249" lon="10.960586"><ele>975</ele></trkpt><trkpt lat="47.461173" lon="10.960872"><ele>975</ele></trkpt><trkpt lat="47.461176" lon="10.961090"><ele>975</ele></trkpt><trkpt lat="47.461220" lon="10.961217"><ele>975</ele></trkpt><trkpt lat="47.461296" lon="10.961342"><ele>975</ele></trkpt><trkpt lat="47.461451" lon="10.961511"><ele>975</ele></trkpt><trkpt lat="47.461640" lon="10.961623"><ele>975</ele></trkpt><trkpt lat="47.461755" lon="10.961693"><ele>975</ele></trkpt><trkpt lat="47.461935" lon="10.961830"><ele>975</ele></trkpt><trkpt lat="47.462090" lon="10.961904"><ele>975</ele></trkpt><trkpt lat="47.462216" lon="10.962013"><ele>975</ele></trkpt><trkpt lat="47.462286" lon="10.962204"><ele>975</ele></trkpt><trkpt lat="47.462350" lon="10.962550"><ele>975</ele></trkpt><trkpt lat="47.462370" lon="10.962845"><ele>975</ele></trkpt><trkpt lat="47.462400" lon="10.963214"><ele>975</ele></trkpt><trkpt lat="47.462433" lon="10.963495"><ele>975</ele></trkpt><trkpt lat="47.462485" lon="10.963624"><ele>975</ele></trkpt><trkpt lat="47.462577" lon="10.963783"><ele>975</ele></trkpt><trkpt lat="47.462676" lon="10.963955"><ele>975</ele></trkpt><trkpt lat="47.462768" lon="10.964104"><ele>975</ele></trkpt><trkpt lat="47.462873" lon="10.964209"><ele>975</ele></trkpt><trkpt lat="47.463018" lon="10.964286"><ele>975</ele></trkpt><trkpt lat="47.463096" lon="10.964386"><ele>975</ele></trkpt><trkpt lat="47.463137" lon="10.964580"><ele>975</ele></trkpt><trkpt lat="47.463113" lon="10.964814"><ele>975</ele></trkpt><trkpt lat="47.463079" lon="10.965053"><ele>975</ele></trkpt><trkpt lat="47.462967" lon="10.965592"><ele>975</ele></trkpt><trkpt lat="47.462813" lon="10.966169"><ele>975</ele></trkpt><trkpt lat="47.462700" lon="10.966632"><ele>975</ele></trkpt><trkpt lat="47.462632" lon="10.966835"><ele>975</ele></trkpt><trkpt lat="47.462597" lon="10.967221"><ele>975</ele></trkpt><trkpt lat="47.462575" lon="10.967592"><ele>975</ele></trkpt><trkpt lat="47.462530" lon="10.967760"><ele>975</ele></trkpt><trkpt lat="47.462524" lon="10.968066"><ele>975</ele></trkpt><trkpt lat="47.462501" lon="10.968348"><ele>975</ele></trkpt><trkpt lat="47.462428" lon="10.968604"><ele>975</ele></trkpt><trkpt lat="47.462326" lon="10.968911"><ele>975</ele></trkpt><trkpt lat="47.462186" lon="10.969242"><ele>975</ele></trkpt><trkpt lat="47.462066" lon="10.969486"><ele>975</ele></trkpt><trkpt lat="47.461990" lon="10.969700"><ele>975</ele></trkpt><trkpt lat="47.461947" lon="10.969978"><ele>975</ele></trkpt><trkpt lat="47.461946" lon="10.970169"><ele>975</ele></trkpt><trkpt lat="47.461982" lon="10.970278"><ele>975</ele></trkpt><trkpt lat="47.462025" lon="10.970415"><ele>975</ele></trkpt><trkpt lat="47.462076" lon="10.970575"><ele>975</ele></trkpt><trkpt lat="47.462104" lon="10.970723"><ele>975</ele></trkpt><trkpt lat="47.462126" lon="10.970902"><ele>975</ele></trkpt><trkpt lat="47.462128" lon="10.971078"><ele>975</ele></trkpt><trkpt lat="47.462107" lon="10.971269"><ele>975</ele></trkpt><trkpt lat="47.462054" lon="10.971388"><ele>975</ele></trkpt><trkpt lat="47.461982" lon="10.971553"><ele>975</ele></trkpt><trkpt lat="47.461905" lon="10.971702"><ele>975</ele></trkpt><trkpt lat="47.461858" lon="10.971839"><ele>975</ele></trkpt><trkpt lat="47.461825" lon="10.971958"><ele>975</ele></trkpt><trkpt lat="47.461809" lon="10.972124"><ele>975</ele></trkpt><trkpt lat="47.461785" lon="10.972265"><ele>975</ele></trkpt><trkpt lat="47.461779" lon="10.972476"><ele>975</ele></trkpt><trkpt lat="47.461794" lon="10.972598"><ele>975</ele></trkpt><trkpt lat="47.461829" lon="10.972744"><ele>975</ele></trkpt><trkpt lat="47.461878" lon="10.972905"><ele>975</ele></trkpt><trkpt lat="47.461967" lon="10.973118"><ele>975</ele></trkpt><trkpt lat="47.462042" lon="10.973233"><ele>975</ele></trkpt><trkpt lat="47.462149" lon="10.973298"><ele>975</ele></trkpt><trkpt lat="47.462268" lon="10.973428"><ele>975</ele></trkpt><trkpt lat="47.462312" lon="10.973529"><ele>975</ele></trkpt><trkpt lat="47.462335" lon="10.973680"><ele>975</ele></trkpt><trkpt lat="47.462328" lon="10.973787"><ele>975</ele></trkpt><trkpt lat="47.462224" lon="10.974248"><ele>975</ele></trkpt><trkpt lat="47.462212" lon="10.974586"><ele>975</ele></trkpt><trkpt lat="47.462227" lon="10.974809"><ele>975</ele></trkpt><trkpt lat="47.462255" lon="10.975262"><ele>975</ele></trkpt><trkpt lat="47.462254" lon="10.975481"><ele>975</ele></trkpt><trkpt lat="47.462252" lon="10.975790"><ele>975</ele></trkpt><trkpt lat="47.462246" lon="10.976067"><ele>975</ele></trkpt><trkpt lat="47.462090" lon="10.976651"><ele>975</ele></trkpt><trkpt lat="47.462064" lon="10.976833"><ele>975</ele></trkpt><trkpt lat="47.462066" lon="10.976978"><ele>975</ele></trkpt><trkpt lat="47.462058" lon="10.977122"><ele>975</ele></trkpt><trkpt lat="47.461901" lon="10.977407"><ele>975</ele></trkpt><trkpt lat="47.461805" lon="10.977649"><ele>975</ele></trkpt><trkpt lat="47.461756" lon="10.977878"><ele>975</ele></trkpt><trkpt lat="47.461725" lon="10.978100"><ele>975</ele></trkpt><trkpt lat="47.461719" lon="10.978476"><ele>975</ele></trkpt><trkpt lat="47.461775" lon="10.978926"><ele>975</ele></trkpt><trkpt lat="47.461803" lon="10.979327"><ele>975</ele></trkpt><trkpt lat="47.461816" lon="10.979614"><ele>975</ele></trkpt><trkpt lat="47.461808" lon="10.979864"><ele>975</ele></trkpt><trkpt lat="47.461773" lon="10.980032"><ele>975</ele></trkpt><trkpt lat="47.461517" lon="10.980705"><ele>975</ele></trkpt><trkpt lat="47.461496" lon="10.980841"><ele>975</ele></trkpt><trkpt lat="47.461496" lon="10.981179"><ele>975</ele></trkpt><trkpt lat="47.461487" lon="10.981279"><ele>975</ele></trkpt><trkpt lat="47.461451" lon="10.981360"><ele>975</ele></trkpt><trkpt lat="47.461388" lon="10.981458"><ele>975</ele></trkpt><trkpt lat="47.461276" lon="10.981611"><ele>975</ele></trkpt><trkpt lat="47.461144" lon="10.981827"><ele>975</ele></trkpt><trkpt lat="47.461034" lon="10.982050"><ele>975</ele></trkpt><trkpt lat="47.460931" lon="10.982329"><ele>975</ele></trkpt><trkpt lat="47.460766" lon="10.982671"><ele>975</ele></trkpt><trkpt lat="47.460620" lon="10.982960"><ele>975</ele></trkpt><trkpt lat="47.460502" lon="10.983227"><ele>975</ele></trkpt><trkpt lat="47.460444" lon="10.983397"><ele>975</ele></trkpt><trkpt lat="47.460422" lon="10.983552"><ele>975</ele></trkpt><trkpt lat="47.460419" lon="10.983647"><ele>975</ele></trkpt><trkpt lat="47.460454" lon="10.983826"><ele>975</ele></trkpt><trkpt lat="47.460495" lon="10.984182"><ele>975</ele></trkpt><trkpt lat="47.460534" lon="10.984306"><ele>975</ele></trkpt><trkpt lat="47.460615" lon="10.984392"><ele>975</ele></trkpt><trkpt lat="47.460807" lon="10.984516"><ele>975</ele></trkpt><trkpt lat="47.460884" lon="10.984613"><ele>975</ele></trkpt><trkpt lat="47.460925" lon="10.984735"><ele>975</ele></trkpt><trkpt lat="47.460944" lon="10.984857"><ele>975</ele></trkpt><trkpt lat="47.460941" lon="10.984994"><ele>975</ele></trkpt><trkpt lat="47.460889" lon="10.985221"><ele>975</ele></trkpt><trkpt lat="47.460736" lon="10.985653"><ele>975</ele></trkpt><trkpt lat="47.460696" lon="10.985912"><ele>975</ele></trkpt><trkpt lat="47.460627" lon="10.986287"><ele>975</ele></trkpt><trkpt lat="47.460611" lon="10.986510"><ele>975</ele></trkpt><trkpt lat="47.460628" lon="10.986927"><ele>975</ele></trkpt><trkpt lat="47.460689" lon="10.987142"><ele>975</ele></trkpt><trkpt lat="47.460721" lon="10.987299"><ele>975</ele></trkpt><trkpt lat="47.460769" lon="10.987488"><ele>975</ele></trkpt><trkpt lat="47.460917" lon="10.987987"><ele>975</ele></trkpt><trkpt lat="47.460937" lon="10.988036"><ele>975</ele></trkpt><trkpt lat="47.460963" lon="10.988074"><ele>975</ele></trkpt><trkpt lat="47.460973" lon="10.988094"><ele>975</ele></trkpt><trkpt lat="47.460981" lon="10.988119"><ele>975</ele></trkpt><trkpt lat="47.460981" lon="10.988144"><ele>975</ele></trkpt><trkpt lat="47.460975" lon="10.988166"><ele>975</ele></trkpt><trkpt lat="47.460954" lon="10.988216"><ele>975</ele></trkpt><trkpt lat="47.460859" lon="10.988276"><ele>975</ele></trkpt><trkpt lat="47.460691" lon="10.988330"><ele>975</ele></trkpt><trkpt lat="47.460579" lon="10.988376"><ele>975</ele></trkpt><trkpt lat="47.460418" lon="10.988507"><ele>975</ele></trkpt><trkpt lat="47.460288" lon="10.988664"><ele>975</ele></trkpt><trkpt lat="47.459910" lon="10.989245"><ele>975</ele></trkpt><trkpt lat="47.459590" lon="10.989431"><ele>975</ele></trkpt><trkpt lat="47.459497" lon="10.989536"><ele>975</ele></trkpt><trkpt lat="47.459334" lon="10.989740"><ele>975</ele></trkpt><trkpt lat="47.459266" lon="10.989795"><ele>975</ele></trkpt><trkpt lat="47.459160" lon="10.989822"><ele>975</ele></trkpt><trkpt lat="47.458951" lon="10.989828"><ele>975</ele></trkpt><trkpt lat="47.458665" lon="10.989801"><ele>975</ele></trkpt><trkpt lat="47.458596" lon="10.989832"><ele>975</ele></trkpt><trkpt lat="47.458513" lon="10.989929"><ele>975</ele></trkpt><trkpt lat="47.458309" lon="10.990318"><ele>975</ele></trkpt><trkpt lat="47.458185" lon="10.990638"><ele>975</ele></trkpt><trkpt lat="47.458021" lon="10.991238"><ele>975</ele></trkpt><trkpt lat="47.457966" lon="10.991546"><ele>975</ele></trkpt><trkpt lat="47.457864" lon="10.991705"><ele>975</ele></trkpt><trkpt lat="47.457804" lon="10.991722"><ele>975</ele></trkpt><trkpt lat="47.457569" lon="10.991783"><ele>975</ele></trkpt><trkpt lat="47.457547" lon="10.991772"><ele>975</ele></trkpt><trkpt lat="47.457515" lon="10.991795"><ele>975</ele></trkpt><trkpt lat="47.457414" lon="10.991821"><ele>975</ele></trkpt><trkpt lat="47.457414" lon="10.991821"><ele>988</ele></trkpt><trkpt lat="47.457515" lon="10.991795"><ele>988</ele></trkpt><trkpt lat="47.457547" lon="10.991772"><ele>988</ele></trkpt><trkpt lat="47.457569" lon="10.991783"><ele>988</ele></trkpt><trkpt lat="47.457804" lon="10.991722"><ele>988</ele></trkpt><trkpt lat="47.457830" lon="10.991914"><ele>989</ele></trkpt><trkpt lat="47.457856" lon="10.992117"><ele>991</ele></trkpt><trkpt lat="47.457885" lon="10.992109"><ele>991</ele></trkpt><trkpt lat="47.457924" lon="10.992098"><ele>992</ele></trkpt><trkpt lat="47.457927" lon="10.992275"><ele>993</ele></trkpt><trkpt lat="47.458000" lon="10.992545"><ele>993</ele></trkpt><trkpt lat="47.458108" lon="10.992770"><ele>995</ele></trkpt><trkpt lat="47.458163" lon="10.992949"><ele>999</ele></trkpt><trkpt lat="47.458172" lon="10.993092"><ele>1001</ele></trkpt><trkpt lat="47.458163" lon="10.993265"><ele>1002</ele></trkpt><trkpt lat="47.458195" lon="10.993572"><ele>1004</ele></trkpt><trkpt lat="47.458215" lon="10.993708"><ele>1004</ele></trkpt><trkpt lat="47.458124" lon="10.993950"><ele>1004</ele></trkpt><trkpt lat="47.458189" lon="10.994225"><ele>1006</ele></trkpt><trkpt lat="47.458254" lon="10.994411"><ele>1004</ele></trkpt><trkpt lat="47.458317" lon="10.994867"><ele>1006</ele></trkpt><trkpt lat="47.458352" lon="10.994968"><ele>1004</ele></trkpt><trkpt lat="47.458319" lon="10.995236"><ele>1002</ele></trkpt><trkpt lat="47.458342" lon="10.995480"><ele>999</ele></trkpt><trkpt lat="47.458219" lon="10.995644"><ele>996</ele></trkpt><trkpt lat="47.458389" lon="10.995807"><ele>991</ele></trkpt><trkpt lat="47.458704" lon="10.995888"><ele>984</ele></trkpt><trkpt lat="47.458870" lon="10.995759"><ele>983</ele></trkpt><trkpt lat="47.458947" lon="10.995919"><ele>978</ele></trkpt><trkpt lat="47.458885" lon="10.996101"><ele>976</ele></trkpt><trkpt lat="47.458891" lon="10.996238"><ele>974</ele></trkpt><trkpt lat="47.458965" lon="10.996261"><ele>973</ele></trkpt><trkpt lat="47.459100" lon="10.996188"><ele>971</ele></trkpt><trkpt lat="47.459184" lon="10.996175"><ele>970</ele></trkpt><trkpt lat="47.459283" lon="10.996285"><ele>969</ele></trkpt><trkpt lat="47.459415" lon="10.996510"><ele>964</ele></trkpt><trkpt lat="47.459650" lon="10.996849"><ele>958</ele></trkpt><trkpt lat="47.459793" lon="10.997003"><ele>956</ele></trkpt><trkpt lat="47.460351" lon="10.997223"><ele>949</ele></trkpt><trkpt lat="47.460532" lon="10.997266"><ele>947</ele></trkpt><trkpt lat="47.460792" lon="10.997473"><ele>945</ele></trkpt><trkpt lat="47.460915" lon="10.997854"><ele>944</ele></trkpt><trkpt lat="47.461049" lon="10.998095"><ele>943</ele></trkpt><trkpt lat="47.461537" lon="10.998597"><ele>936</ele></trkpt><trkpt lat="47.461651" lon="10.998827"><ele>932</ele></trkpt><trkpt lat="47.461847" lon="10.999028"><ele>929</ele></trkpt><trkpt lat="47.461947" lon="10.999176"><ele>927</ele></trkpt><trkpt lat="47.461990" lon="10.999426"><ele>924</ele></trkpt><trkpt lat="47.462015" lon="10.999849"><ele>920</ele></trkpt><trkpt lat="47.462110" lon="11.000128"><ele>914</ele></trkpt><trkpt lat="47.462189" lon="11.000274"><ele>910</ele></trkpt><trkpt lat="47.462199" lon="11.000354"><ele>909</ele></trkpt><trkpt lat="47.462244" lon="11.000398"><ele>908</ele></trkpt><trkpt lat="47.462305" lon="11.000311"><ele>906</ele></trkpt><trkpt lat="47.462504" lon="10.999990"><ele>901</ele></trkpt><trkpt lat="47.462657" lon="11.000136"><ele>891</ele></trkpt><trkpt lat="47.462748" lon="11.000290"><ele>884</ele></trkpt><trkpt lat="47.462895" lon="11.000332"><ele>881</ele></trkpt><trkpt lat="47.463098" lon="11.000214"><ele>880</ele></trkpt><trkpt lat="47.463348" lon="11.000116"><ele>878</ele></trkpt><trkpt lat="47.463574" lon="11.000311"><ele>873</ele></trkpt><trkpt lat="47.463894" lon="11.000520"><ele>870</ele></trkpt><trkpt lat="47.464230" lon="11.000562"><ele>870</ele></trkpt><trkpt lat="47.464636" lon="11.000464"><ele>871</ele></trkpt><trkpt lat="47.464765" lon="11.000590"><ele>869</ele></trkpt><trkpt lat="47.464900" lon="11.000916"><ele>868</ele></trkpt><trkpt lat="47.465004" lon="11.000921"><ele>868</ele></trkpt><trkpt lat="47.465411" lon="11.001041"><ele>869</ele></trkpt><trkpt lat="47.465643" lon="11.001203"><ele>868</ele></trkpt><trkpt lat="47.466043" lon="11.001462"><ele>865</ele></trkpt><trkpt lat="47.466017" lon="11.001729"><ele>864</ele></trkpt><trkpt lat="47.465988" lon="11.002138"><ele>863</ele></trkpt><trkpt lat="47.465919" lon="11.002593"><ele>860</ele></trkpt><trkpt lat="47.465897" lon="11.002786"><ele>859</ele></trkpt><trkpt lat="47.465901" lon="11.003125"><ele>857</ele></trkpt><trkpt lat="47.465920" lon="11.003328"><ele>857</ele></trkpt><trkpt lat="47.465999" lon="11.003613"><ele>855</ele></trkpt><trkpt lat="47.466021" lon="11.003772"><ele>855</ele></trkpt><trkpt lat="47.466067" lon="11.003933"><ele>854</ele></trkpt><trkpt lat="47.466124" lon="11.004281"><ele>851</ele></trkpt><trkpt lat="47.466209" lon="11.004540"><ele>850</ele></trkpt><trkpt lat="47.466417" lon="11.004860"><ele>846</ele></trkpt><trkpt lat="47.466496" lon="11.005003"><ele>843</ele></trkpt><trkpt lat="47.466559" lon="11.005243"><ele>842</ele></trkpt><trkpt lat="47.466574" lon="11.005424"><ele>841</ele></trkpt><trkpt lat="47.466549" lon="11.005537"><ele>840</ele></trkpt><trkpt lat="47.466541" lon="11.005574"><ele>840</ele></trkpt><trkpt lat="47.466487" lon="11.005742"><ele>840</ele></trkpt><trkpt lat="47.466315" lon="11.006112"><ele>842</ele></trkpt><trkpt lat="47.466311" lon="11.006250"><ele>842</ele></trkpt><trkpt lat="47.466324" lon="11.006369"><ele>841</ele></trkpt><trkpt lat="47.466328" lon="11.006414"><ele>841</ele></trkpt><trkpt lat="47.466611" lon="11.006820"><ele>837</ele></trkpt><trkpt lat="47.466815" lon="11.007331"><ele>832</ele></trkpt><trkpt lat="47.466977" lon="11.007882"><ele>828</ele></trkpt><trkpt lat="47.467049" lon="11.008201"><ele>826</ele></trkpt><trkpt lat="47.467112" lon="11.008357"><ele>824</ele></trkpt><trkpt lat="47.467313" lon="11.008733"><ele>822</ele></trkpt><trkpt lat="47.467381" lon="11.008918"><ele>820</ele></trkpt><trkpt lat="47.467410" lon="11.009037"><ele>820</ele></trkpt><trkpt lat="47.467652" lon="11.009011"><ele>819</ele></trkpt><trkpt lat="47.467736" lon="11.009086"><ele>819</ele></trkpt><trkpt lat="47.468005" lon="11.009493"><ele>818</ele></trkpt><trkpt lat="47.468188" lon="11.009860"><ele>820</ele></trkpt><trkpt lat="47.468245" lon="11.010222"><ele>817</ele></trkpt><trkpt lat="47.468491" lon="11.010894"><ele>812</ele></trkpt><trkpt lat="47.468570" lon="11.011278"><ele>808</ele></trkpt><trkpt lat="47.468704" lon="11.011433"><ele>806</ele></trkpt><trkpt lat="47.468878" lon="11.011511"><ele>807</ele></trkpt><trkpt lat="47.469006" lon="11.011541"><ele>809</ele></trkpt><trkpt lat="47.469167" lon="11.011503"><ele>810</ele></trkpt><trkpt lat="47.469346" lon="11.011497"><ele>810</ele></trkpt><trkpt lat="47.469554" lon="11.011342"><ele>810</ele></trkpt><trkpt lat="47.469913" lon="11.010906"><ele>815</ele></trkpt><trkpt lat="47.470017" lon="11.010722"><ele>816</ele></trkpt><trkpt lat="47.470100" lon="11.010652"><ele>817</ele></trkpt><trkpt lat="47.470180" lon="11.010653"><ele>817</ele></trkpt><trkpt lat="47.470331" lon="11.010698"><ele>817</ele></trkpt><trkpt lat="47.470443" lon="11.010845"><ele>817</ele></trkpt><trkpt lat="47.470490" lon="11.011317"><ele>816</ele></trkpt><trkpt lat="47.470573" lon="11.011504"><ele>814</ele></trkpt><trkpt lat="47.470651" lon="11.011564"><ele>812</ele></trkpt><trkpt lat="47.470797" lon="11.011620"><ele>810</ele></trkpt><trkpt lat="47.470878" lon="11.011662"><ele>808</ele></trkpt><trkpt lat="47.470927" lon="11.011729"><ele>806</ele></trkpt><trkpt lat="47.471120" lon="11.012205"><ele>801</ele></trkpt><trkpt lat="47.471180" lon="11.012388"><ele>800</ele></trkpt><trkpt lat="47.471211" lon="11.012530"><ele>800</ele></trkpt><trkpt lat="47.471277" lon="11.012585"><ele>799</ele></trkpt><trkpt lat="47.471443" lon="11.012548"><ele>797</ele></trkpt><trkpt lat="47.471501" lon="11.012565"><ele>796</ele></trkpt><trkpt lat="47.471633" lon="11.012728"><ele>793</ele></trkpt><trkpt lat="47.471817" lon="11.012977"><ele>790</ele></trkpt><trkpt lat="47.471874" lon="11.013036"><ele>789</ele></trkpt><trkpt lat="47.472031" lon="11.013131"><ele>786</ele></trkpt><trkpt lat="47.472067" lon="11.013359"><ele>785</ele></trkpt><trkpt lat="47.472103" lon="11.013468"><ele>784</ele></trkpt><trkpt lat="47.472206" lon="11.013559"><ele>783</ele></trkpt><trkpt lat="47.472293" lon="11.013707"><ele>780</ele></trkpt><trkpt lat="47.472351" lon="11.013885"><ele>778</ele></trkpt><trkpt lat="47.472443" lon="11.014114"><ele>775</ele></trkpt><trkpt lat="47.472484" lon="11.014270"><ele>773</ele></trkpt><trkpt lat="47.472587" lon="11.014557"><ele>770</ele></trkpt><trkpt lat="47.472778" lon="11.014558"><ele>771</ele></trkpt><trkpt lat="47.472927" lon="11.014590"><ele>770</ele></trkpt><trkpt lat="47.472986" lon="11.014658"><ele>769</ele></trkpt><trkpt lat="47.473141" lon="11.014760"><ele>768</ele></trkpt><trkpt lat="47.472842" lon="11.015193"><ele>768</ele></trkpt><trkpt lat="47.472779" lon="11.015483"><ele>768</ele></trkpt><trkpt lat="47.472908" lon="11.015656"><ele>768</ele></trkpt><trkpt lat="47.472967" lon="11.015792"><ele>768</ele></trkpt><trkpt lat="47.473009" lon="11.016132"><ele>768</ele></trkpt><trkpt lat="47.473000" lon="11.016170"><ele>768</ele></trkpt><trkpt lat="47.472938" lon="11.016441"><ele>768</ele></trkpt><trkpt lat="47.472940" lon="11.016644"><ele>768</ele></trkpt><trkpt lat="47.472962" lon="11.016720"><ele>768</ele></trkpt><trkpt lat="47.472910" lon="11.016704"><ele>769</ele></trkpt><trkpt lat="47.472844" lon="11.016708"><ele>770</ele></trkpt><trkpt lat="47.472771" lon="11.016779"><ele>773</ele></trkpt><trkpt lat="47.472563" lon="11.016826"><ele>778</ele></trkpt><trkpt lat="47.472382" lon="11.016845"><ele>780</ele></trkpt><trkpt lat="47.472187" lon="11.016946"><ele>779</ele></trkpt><trkpt lat="47.472117" lon="11.017072"><ele>779</ele></trkpt><trkpt lat="47.472088" lon="11.017300"><ele>778</ele></trkpt><trkpt lat="47.472058" lon="11.017667"><ele>776</ele></trkpt><trkpt lat="47.471989" lon="11.018031"><ele>770</ele></trkpt><trkpt lat="47.471926" lon="11.018249"><ele>766</ele></trkpt><trkpt lat="47.471922" lon="11.018436"><ele>764</ele></trkpt><trkpt lat="47.471866" lon="11.018631"><ele>766</ele></trkpt><trkpt lat="47.471741" lon="11.019132"><ele>768</ele></trkpt><trkpt lat="47.471749" lon="11.019670"><ele>760</ele></trkpt><trkpt lat="47.471735" lon="11.019744"><ele>759</ele></trkpt><trkpt lat="47.471666" lon="11.019789"><ele>758</ele></trkpt><trkpt lat="47.471684" lon="11.020497"><ele>757</ele></trkpt><trkpt lat="47.471621" lon="11.020566"><ele>757</ele></trkpt><trkpt lat="47.471699" lon="11.021044"><ele>755</ele></trkpt><trkpt lat="47.471774" lon="11.021933"><ele>754</ele></trkpt><trkpt lat="47.471848" lon="11.022544"><ele>753</ele></trkpt><trkpt lat="47.471910" lon="11.023133"><ele>752</ele></trkpt><trkpt lat="47.471913" lon="11.023262"><ele>752</ele></trkpt><trkpt lat="47.471995" lon="11.024178"><ele>752</ele></trkpt><trkpt lat="47.471987" lon="11.024606"><ele>750</ele></trkpt><trkpt lat="47.471905" lon="11.024588"><ele>750</ele></trkpt><trkpt lat="47.471934" lon="11.024271"><ele>750</ele></trkpt><trkpt lat="47.471931" lon="11.024252"><ele>751</ele></trkpt><trkpt lat="47.471911" lon="11.024252"><ele>751</ele></trkpt><trkpt lat="47.471896" lon="11.024467"><ele>750</ele></trkpt><trkpt lat="47.471881" lon="11.024463"><ele>750</ele></trkpt><trkpt lat="47.471850" lon="11.024456"><ele>750</ele></trkpt><trkpt lat="47.471862" lon="11.024421"><ele>750</ele></trkpt><trkpt lat="47.471852" lon="11.024408"><ele>750</ele></trkpt><trkpt lat="47.471812" lon="11.024413"><ele>750</ele></trkpt><trkpt lat="47.471788" lon="11.024386"><ele>750</ele></trkpt><trkpt lat="47.471771" lon="11.024163"><ele>753</ele></trkpt><trkpt lat="47.471765" lon="11.023938"><ele>754</ele></trkpt><trkpt lat="47.471750" lon="11.023792"><ele>753</ele></trkpt></trkseg></trk>
<trk><name>Otrdiena - Īsais (7 km)</name><trkseg><trkpt lat="47.457414" lon="10.991821"><ele>975</ele></trkpt><trkpt lat="47.457398" lon="10.991684"><ele>975</ele></trkpt><trkpt lat="47.457381" lon="10.991533"><ele>975</ele></trkpt><trkpt lat="47.457340" lon="10.991179"><ele>975</ele></trkpt><trkpt lat="47.457325" lon="10.991048"><ele>975</ele></trkpt><trkpt lat="47.457318" lon="10.990993"><ele>975</ele></trkpt><trkpt lat="47.457290" lon="10.990780"><ele>975</ele></trkpt><trkpt lat="47.457280" lon="10.990736"><ele>975</ele></trkpt><trkpt lat="47.457270" lon="10.990711"><ele>975</ele></trkpt><trkpt lat="47.457255" lon="10.990684"><ele>975</ele></trkpt><trkpt lat="47.457238" lon="10.990664"><ele>975</ele></trkpt><trkpt lat="47.457255" lon="10.990505"><ele>975</ele></trkpt><trkpt lat="47.457265" lon="10.990355"><ele>975</ele></trkpt><trkpt lat="47.457259" lon="10.990293"><ele>975</ele></trkpt><trkpt lat="47.457247" lon="10.990172"><ele>975</ele></trkpt><trkpt lat="47.457237" lon="10.990123"><ele>975</ele></trkpt><trkpt lat="47.457229" lon="10.990080"><ele>975</ele></trkpt><trkpt lat="47.457194" lon="10.989987"><ele>975</ele></trkpt><trkpt lat="47.457117" lon="10.989790"><ele>975</ele></trkpt><trkpt lat="47.457070" lon="10.989697"><ele>975</ele></trkpt><trkpt lat="47.456995" lon="10.989520"><ele>975</ele></trkpt><trkpt lat="47.456956" lon="10.989445"><ele>975</ele></trkpt><trkpt lat="47.456768" lon="10.989191"><ele>975</ele></trkpt><trkpt lat="47.456754" lon="10.989162"><ele>975</ele></trkpt><trkpt lat="47.456694" lon="10.989041"><ele>975</ele></trkpt><trkpt lat="47.456617" lon="10.988867"><ele>975</ele></trkpt><trkpt lat="47.456563" lon="10.988749"><ele>975</ele></trkpt><trkpt lat="47.456442" lon="10.988508"><ele>975</ele></trkpt><trkpt lat="47.456381" lon="10.988388"><ele>975</ele></trkpt><trkpt lat="47.456256" lon="10.988128"><ele>975</ele></trkpt><trkpt lat="47.456088" lon="10.987699"><ele>975</ele></trkpt><trkpt lat="47.456072" lon="10.987635"><ele>975</ele></trkpt><trkpt lat="47.455971" lon="10.987430"><ele>975</ele></trkpt><trkpt lat="47.455907" lon="10.987299"><ele>975</ele></trkpt><trkpt lat="47.455757" lon="10.987023"><ele>975</ele></trkpt><trkpt lat="47.455697" lon="10.986891"><ele>975</ele></trkpt><trkpt lat="47.455678" lon="10.986830"><ele>975</ele></trkpt><trkpt lat="47.455659" lon="10.986693"><ele>975</ele></trkpt><trkpt lat="47.455679" lon="10.986527"><ele>975</ele></trkpt><trkpt lat="47.455712" lon="10.986394"><ele>975</ele></trkpt><trkpt lat="47.455756" lon="10.986251"><ele>975</ele></trkpt><trkpt lat="47.455834" lon="10.986033"><ele>975</ele></trkpt><trkpt lat="47.455894" lon="10.985866"><ele>975</ele></trkpt><trkpt lat="47.455916" lon="10.985746"><ele>975</ele></trkpt><trkpt lat="47.455914" lon="10.985629"><ele>975</ele></trkpt><trkpt lat="47.455899" lon="10.985512"><ele>975</ele></trkpt><trkpt lat="47.455808" lon="10.985141"><ele>975</ele></trkpt><trkpt lat="47.455836" lon="10.984776"><ele>975</ele></trkpt><trkpt lat="47.455848" lon="10.984415"><ele>975</ele></trkpt><trkpt lat="47.455805" lon="10.984228"><ele>975</ele></trkpt><trkpt lat="47.455700" lon="10.984031"><ele>975</ele></trkpt><trkpt lat="47.455499" lon="10.983825"><ele>975</ele></trkpt><trkpt lat="47.455276" lon="10.983676"><ele>975</ele></trkpt><trkpt lat="47.455056" lon="10.983658"><ele>975</ele></trkpt><trkpt lat="47.454862" lon="10.983573"><ele>975</ele></trkpt><trkpt lat="47.454647" lon="10.983479"><ele>975</ele></trkpt><trkpt lat="47.454520" lon="10.983397"><ele>975</ele></trkpt><trkpt lat="47.454398" lon="10.983149"><ele>975</ele></trkpt><trkpt lat="47.454300" lon="10.982796"><ele>975</ele></trkpt><trkpt lat="47.454133" lon="10.982415"><ele>975</ele></trkpt><trkpt lat="47.454027" lon="10.982025"><ele>975</ele></trkpt><trkpt lat="47.453998" lon="10.981782"><ele>975</ele></trkpt><trkpt lat="47.453994" lon="10.981700"><ele>975</ele></trkpt><trkpt lat="47.454064" lon="10.981460"><ele>975</ele></trkpt><trkpt lat="47.454087" lon="10.981284"><ele>975</ele></trkpt><trkpt lat="47.454125" lon="10.981075"><ele>975</ele></trkpt><trkpt lat="47.454113" lon="10.980910"><ele>975</ele></trkpt><trkpt lat="47.454106" lon="10.980740"><ele>975</ele></trkpt><trkpt lat="47.454012" lon="10.980506"><ele>975</ele></trkpt><trkpt lat="47.453836" lon="10.980217"><ele>975</ele></trkpt><trkpt lat="47.453764" lon="10.980115"><ele>975</ele></trkpt><trkpt lat="47.453628" lon="10.979972"><ele>975</ele></trkpt><trkpt lat="47.453372" lon="10.979786"><ele>975</ele></trkpt><trkpt lat="47.453156" lon="10.979611"><ele>975</ele></trkpt><trkpt lat="47.452999" lon="10.979544"><ele>975</ele></trkpt><trkpt lat="47.452856" lon="10.979508"><ele>975</ele></trkpt><trkpt lat="47.452739" lon="10.979492"><ele>975</ele></trkpt><trkpt lat="47.452683" lon="10.979493"><ele>975</ele></trkpt><trkpt lat="47.452622" lon="10.979487"><ele>975</ele></trkpt><trkpt lat="47.452558" lon="10.979503"><ele>975</ele></trkpt><trkpt lat="47.452464" lon="10.979526"><ele>975</ele></trkpt><trkpt lat="47.452408" lon="10.979527"><ele>975</ele></trkpt><trkpt lat="47.452312" lon="10.979529"><ele>975</ele></trkpt><trkpt lat="47.452148" lon="10.979473"><ele>975</ele></trkpt><trkpt lat="47.451977" lon="10.979323"><ele>975</ele></trkpt><trkpt lat="47.451893" lon="10.979119"><ele>975</ele></trkpt><trkpt lat="47.451871" lon="10.978846"><ele>975</ele></trkpt><trkpt lat="47.451863" lon="10.978540"><ele>975</ele></trkpt><trkpt lat="47.451820" lon="10.978129"><ele>975</ele></trkpt><trkpt lat="47.451849" lon="10.977646"><ele>975</ele></trkpt><trkpt lat="47.451905" lon="10.977241"><ele>975</ele></trkpt><trkpt lat="47.451928" lon="10.976963"><ele>975</ele></trkpt><trkpt lat="47.451883" lon="10.976773"><ele>975</ele></trkpt><trkpt lat="47.451802" lon="10.976567"><ele>975</ele></trkpt><trkpt lat="47.451489" lon="10.975776"><ele>975</ele></trkpt><trkpt lat="47.451389" lon="10.975518"><ele>975</ele></trkpt><trkpt lat="47.451251" lon="10.975022"><ele>975</ele></trkpt><trkpt lat="47.451169" lon="10.974469"><ele>975</ele></trkpt><trkpt lat="47.451183" lon="10.974207"><ele>975</ele></trkpt><trkpt lat="47.451249" lon="10.973897"><ele>975</ele></trkpt><trkpt lat="47.451300" lon="10.973616"><ele>975</ele></trkpt><trkpt lat="47.451340" lon="10.973264"><ele>975</ele></trkpt><trkpt lat="47.451364" lon="10.973028"><ele>975</ele></trkpt><trkpt lat="47.451368" lon="10.972949"><ele>975</ele></trkpt><trkpt lat="47.451366" lon="10.972889"><ele>975</ele></trkpt><trkpt lat="47.451331" lon="10.972765"><ele>975</ele></trkpt><trkpt lat="47.451305" lon="10.972735"><ele>975</ele></trkpt><trkpt lat="47.451208" lon="10.972694"><ele>975</ele></trkpt><trkpt lat="47.451125" lon="10.972664"><ele>975</ele></trkpt><trkpt lat="47.451029" lon="10.972655"><ele>975</ele></trkpt><trkpt lat="47.450898" lon="10.972602"><ele>975</ele></trkpt><trkpt lat="47.450804" lon="10.972466"><ele>975</ele></trkpt><trkpt lat="47.450735" lon="10.972289"><ele>975</ele></trkpt><trkpt lat="47.450675" lon="10.972069"><ele>975</ele></trkpt><trkpt lat="47.450623" lon="10.971843"><ele>975</ele></trkpt><trkpt lat="47.450615" lon="10.971748"><ele>975</ele></trkpt><trkpt lat="47.450630" lon="10.971677"><ele>975</ele></trkpt><trkpt lat="47.450684" lon="10.971566"><ele>975</ele></trkpt><trkpt lat="47.450775" lon="10.971412"><ele>975</ele></trkpt><trkpt lat="47.450798" lon="10.971172"><ele>975</ele></trkpt><trkpt lat="47.450729" lon="10.971010"><ele>975</ele></trkpt><trkpt lat="47.450658" lon="10.970898"><ele>975</ele></trkpt><trkpt lat="47.450634" lon="10.970805"><ele>975</ele></trkpt><trkpt lat="47.450646" lon="10.970685"><ele>975</ele></trkpt><trkpt lat="47.450714" lon="10.970528"><ele>975</ele></trkpt><trkpt lat="47.450797" lon="10.970398"><ele>975</ele></trkpt><trkpt lat="47.450906" lon="10.970292"><ele>975</ele></trkpt><trkpt lat="47.451044" lon="10.970221"><ele>975</ele></trkpt><trkpt lat="47.451205" lon="10.970156"><ele>975</ele></trkpt><trkpt lat="47.451325" lon="10.970080"><ele>975</ele></trkpt><trkpt lat="47.451399" lon="10.970043"><ele>975</ele></trkpt><trkpt lat="47.451475" lon="10.970029"><ele>975</ele></trkpt><trkpt lat="47.451575" lon="10.970026"><ele>975</ele></trkpt><trkpt lat="47.451716" lon="10.970058"><ele>975</ele></trkpt><trkpt lat="47.451806" lon="10.969986"><ele>975</ele></trkpt><trkpt lat="47.451869" lon="10.969897"><ele>975</ele></trkpt><trkpt lat="47.451880" lon="10.969839"><ele>975</ele></trkpt><trkpt lat="47.451870" lon="10.969668"><ele>975</ele></trkpt><trkpt lat="47.451813" lon="10.969123"><ele>975</ele></trkpt><trkpt lat="47.451723" lon="10.968744"><ele>975</ele></trkpt><trkpt lat="47.451650" lon="10.968579"><ele>975</ele></trkpt><trkpt lat="47.451578" lon="10.968457"><ele>975</ele></trkpt><trkpt lat="47.451556" lon="10.968362"><ele>975</ele></trkpt><trkpt lat="47.451573" lon="10.968222"><ele>975</ele></trkpt><trkpt lat="47.451616" lon="10.968113"><ele>975</ele></trkpt><trkpt lat="47.451779" lon="10.967799"><ele>975</ele></trkpt><trkpt lat="47.451858" lon="10.967672"><ele>975</ele></trkpt><trkpt lat="47.451966" lon="10.967548"><ele>975</ele></trkpt><trkpt lat="47.452023" lon="10.967452"><ele>975</ele></trkpt><trkpt lat="47.452108" lon="10.967194"><ele>975</ele></trkpt><trkpt lat="47.452130" lon="10.967032"><ele>975</ele></trkpt><trkpt lat="47.452142" lon="10.966996"><ele>975</ele></trkpt><trkpt lat="47.452167" lon="10.966954"><ele>975</ele></trkpt><trkpt lat="47.452268" lon="10.966870"><ele>975</ele></trkpt><trkpt lat="47.452307" lon="10.966841"><ele>975</ele></trkpt><trkpt lat="47.452343" lon="10.966806"><ele>975</ele></trkpt><trkpt lat="47.452365" lon="10.966775"><ele>975</ele></trkpt><trkpt lat="47.452380" lon="10.966742"><ele>975</ele></trkpt><trkpt lat="47.452400" lon="10.966676"><ele>975</ele></trkpt><trkpt lat="47.452432" lon="10.966517"><ele>975</ele></trkpt><trkpt lat="47.452453" lon="10.966345"><ele>975</ele></trkpt><trkpt lat="47.452469" lon="10.966288"><ele>975</ele></trkpt><trkpt lat="47.452495" lon="10.966216"><ele>975</ele></trkpt><trkpt lat="47.452580" lon="10.966095"><ele>975</ele></trkpt><trkpt lat="47.452662" lon="10.965991"><ele>975</ele></trkpt><trkpt lat="47.452873" lon="10.965760"><ele>975</ele></trkpt><trkpt lat="47.452943" lon="10.965684"><ele>975</ele></trkpt><trkpt lat="47.453012" lon="10.965637"><ele>975</ele></trkpt><trkpt lat="47.453088" lon="10.965599"><ele>975</ele></trkpt><trkpt lat="47.453136" lon="10.965580"><ele>975</ele></trkpt><trkpt lat="47.453182" lon="10.965560"><ele>975</ele></trkpt><trkpt lat="47.453216" lon="10.965538"><ele>975</ele></trkpt><trkpt lat="47.453235" lon="10.965526"><ele>975</ele></trkpt><trkpt lat="47.453271" lon="10.965517"><ele>975</ele></trkpt><trkpt lat="47.453290" lon="10.965504"><ele>975</ele></trkpt><trkpt lat="47.453326" lon="10.965470"><ele>975</ele></trkpt><trkpt lat="47.453407" lon="10.965384"><ele>975</ele></trkpt><trkpt lat="47.453474" lon="10.965306"><ele>975</ele></trkpt><trkpt lat="47.453521" lon="10.965239"><ele>975</ele></trkpt><trkpt lat="47.453544" lon="10.965192"><ele>975</ele></trkpt><trkpt lat="47.453554" lon="10.965140"><ele>975</ele></trkpt><trkpt lat="47.453584" lon="10.965033"><ele>975</ele></trkpt><trkpt lat="47.453686" lon="10.964785"><ele>975</ele></trkpt><trkpt lat="47.453739" lon="10.964671"><ele>975</ele></trkpt><trkpt lat="47.453830" lon="10.964541"><ele>975</ele></trkpt><trkpt lat="47.453889" lon="10.964425"><ele>975</ele></trkpt><trkpt lat="47.453939" lon="10.964343"><ele>975</ele></trkpt><trkpt lat="47.454082" lon="10.964185"><ele>975</ele></trkpt><trkpt lat="47.454132" lon="10.964125"><ele>975</ele></trkpt><trkpt lat="47.454231" lon="10.964045"><ele>975</ele></trkpt><trkpt lat="47.454321" lon="10.963976"><ele>975</ele></trkpt><trkpt lat="47.454597" lon="10.963802"><ele>975</ele></trkpt><trkpt lat="47.454653" lon="10.963758"><ele>975</ele></trkpt><trkpt lat="47.454708" lon="10.963696"><ele>975</ele></trkpt><trkpt lat="47.454789" lon="10.963547"><ele>975</ele></trkpt><trkpt lat="47.454865" lon="10.963418"><ele>975</ele></trkpt><trkpt lat="47.454949" lon="10.963300"><ele>975</ele></trkpt><trkpt lat="47.455011" lon="10.963237"><ele>975</ele></trkpt><trkpt lat="47.455069" lon="10.963214"><ele>975</ele></trkpt><trkpt lat="47.455121" lon="10.963205"><ele>975</ele></trkpt><trkpt lat="47.455175" lon="10.963180"><ele>975</ele></trkpt><trkpt lat="47.455294" lon="10.963065"><ele>975</ele></trkpt><trkpt lat="47.455401" lon="10.962923"><ele>975</ele></trkpt><trkpt lat="47.455619" lon="10.962807"><ele>975</ele></trkpt><trkpt lat="47.455859" lon="10.962723"><ele>975</ele></trkpt><trkpt lat="47.455985" lon="10.962728"><ele>975</ele></trkpt><trkpt lat="47.456008" lon="10.962729"><ele>975</ele></trkpt><trkpt lat="47.456029" lon="10.962716"><ele>975</ele></trkpt><trkpt lat="47.456089" lon="10.962625"><ele>975</ele></trkpt><trkpt lat="47.456143" lon="10.962501"><ele>975</ele></trkpt><trkpt lat="47.456208" lon="10.962435"><ele>975</ele></trkpt><trkpt lat="47.456312" lon="10.962376"><ele>975</ele></trkpt><trkpt lat="47.456370" lon="10.962279"><ele>975</ele></trkpt><trkpt lat="47.456452" lon="10.962122"><ele>975</ele></trkpt><trkpt lat="47.456515" lon="10.961958"><ele>975</ele></trkpt><trkpt lat="47.456563" lon="10.961755"><ele>975</ele></trkpt><trkpt lat="47.456609" lon="10.961601"><ele>975</ele></trkpt><trkpt lat="47.456709" lon="10.961523"><ele>975</ele></trkpt><trkpt lat="47.456815" lon="10.961471"><ele>975</ele></trkpt><trkpt lat="47.456936" lon="10.961371"><ele>975</ele></trkpt><trkpt lat="47.457013" lon="10.961260"><ele>975</ele></trkpt><trkpt lat="47.457109" lon="10.961152"><ele>975</ele></trkpt><trkpt lat="47.457214" lon="10.961106"><ele>975</ele></trkpt><trkpt lat="47.457401" lon="10.961055"><ele>975</ele></trkpt><trkpt lat="47.457603" lon="10.960960"><ele>975</ele></trkpt><trkpt lat="47.457754" lon="10.960896"><ele>975</ele></trkpt><trkpt lat="47.457821" lon="10.960896"><ele>975</ele></trkpt><trkpt lat="47.457892" lon="10.960926"><ele>975</ele></trkpt><trkpt lat="47.458155" lon="10.961029"><ele>975</ele></trkpt><trkpt lat="47.458219" lon="10.961006"><ele>975</ele></trkpt><trkpt lat="47.458357" lon="10.960910"><ele>975</ele></trkpt><trkpt lat="47.458527" lon="10.960610"><ele>975</ele></trkpt><trkpt lat="47.458745" lon="10.960262"><ele>975</ele></trkpt><trkpt lat="47.459039" lon="10.959912"><ele>975</ele></trkpt><trkpt lat="47.459189" lon="10.959764"><ele>975</ele></trkpt><trkpt lat="47.459307" lon="10.959609"><ele>975</ele></trkpt><trkpt lat="47.459416" lon="10.959462"><ele>975</ele></trkpt><trkpt lat="47.459584" lon="10.959193"><ele>975</ele></trkpt><trkpt lat="47.459727" lon="10.959065"><ele>975</ele></trkpt><trkpt lat="47.460032" lon="10.958428"><ele>975</ele></trkpt><trkpt lat="47.460131" lon="10.958243"><ele>975</ele></trkpt><trkpt lat="47.460299" lon="10.957845"><ele>975</ele></trkpt><trkpt lat="47.460389" lon="10.957739"><ele>975</ele></trkpt><trkpt lat="47.460525" lon="10.957667"><ele>975</ele></trkpt><trkpt lat="47.460598" lon="10.957606"><ele>975</ele></trkpt><trkpt lat="47.460658" lon="10.957581"><ele>975</ele></trkpt><trkpt lat="47.460813" lon="10.957519"><ele>975</ele></trkpt><trkpt lat="47.460880" lon="10.957459"><ele>975</ele></trkpt><trkpt lat="47.460925" lon="10.957396"><ele>975</ele></trkpt><trkpt lat="47.460972" lon="10.957314"><ele>975</ele></trkpt><trkpt lat="47.461037" lon="10.957139"><ele>975</ele></trkpt><trkpt lat="47.461081" lon="10.956991"><ele>975</ele></trkpt><trkpt lat="47.461120" lon="10.956888"><ele>975</ele></trkpt><trkpt lat="47.461205" lon="10.956815"><ele>975</ele></trkpt><trkpt lat="47.461314" lon="10.956812"><ele>975</ele></trkpt><trkpt lat="47.461392" lon="10.956837"><ele>975</ele></trkpt><trkpt lat="47.461429" lon="10.956881"><ele>975</ele></trkpt><trkpt lat="47.461526" lon="10.957140"><ele>975</ele></trkpt><trkpt lat="47.461529" lon="10.957432"><ele>975</ele></trkpt><trkpt lat="47.461521" lon="10.957855"><ele>975</ele></trkpt><trkpt lat="47.461554" lon="10.958286"><ele>975</ele></trkpt><trkpt lat="47.461577" lon="10.959048"><ele>975</ele></trkpt><trkpt lat="47.461561" lon="10.959348"><ele>975</ele></trkpt><trkpt lat="47.461506" lon="10.959773"><ele>975</ele></trkpt><trkpt lat="47.461442" lon="10.960131"><ele>975</ele></trkpt><trkpt lat="47.461328" lon="10.960413"><ele>975</ele></trkpt><trkpt lat="47.461249" lon="10.960586"><ele>975</ele></trkpt><trkpt lat="47.461173" lon="10.960872"><ele>975</ele></trkpt><trkpt lat="47.461176" lon="10.961090"><ele>975</ele></trkpt><trkpt lat="47.461220" lon="10.961217"><ele>975</ele></trkpt><trkpt lat="47.461296" lon="10.961342"><ele>975</ele></trkpt><trkpt lat="47.461451" lon="10.961511"><ele>975</ele></trkpt><trkpt lat="47.461640" lon="10.961623"><ele>975</ele></trkpt><trkpt lat="47.461755" lon="10.961693"><ele>975</ele></trkpt><trkpt lat="47.461935" lon="10.961830"><ele>975</ele></trkpt><trkpt lat="47.462090" lon="10.961904"><ele>975</ele></trkpt><trkpt lat="47.462216" lon="10.962013"><ele>975</ele></trkpt><trkpt lat="47.462286" lon="10.962204"><ele>975</ele></trkpt><trkpt lat="47.462350" lon="10.962550"><ele>975</ele></trkpt><trkpt lat="47.462370" lon="10.962845"><ele>975</ele></trkpt><trkpt lat="47.462400" lon="10.963214"><ele>975</ele></trkpt><trkpt lat="47.462433" lon="10.963495"><ele>975</ele></trkpt><trkpt lat="47.462485" lon="10.963624"><ele>975</ele></trkpt><trkpt lat="47.462577" lon="10.963783"><ele>975</ele></trkpt><trkpt lat="47.462676" lon="10.963955"><ele>975</ele></trkpt><trkpt lat="47.462768" lon="10.964104"><ele>975</ele></trkpt><trkpt lat="47.462873" lon="10.964209"><ele>975</ele></trkpt><trkpt lat="47.463018" lon="10.964286"><ele>975</ele></trkpt><trkpt lat="47.463096" lon="10.964386"><ele>975</ele></trkpt><trkpt lat="47.463137" lon="10.964580"><ele>975</ele></trkpt><trkpt lat="47.463113" lon="10.964814"><ele>975</ele></trkpt><trkpt lat="47.463079" lon="10.965053"><ele>975</ele></trkpt><trkpt lat="47.462967" lon="10.965592"><ele>975</ele></trkpt><trkpt lat="47.462813" lon="10.966169"><ele>975</ele></trkpt><trkpt lat="47.462700" lon="10.966632"><ele>975</ele></trkpt><trkpt lat="47.462632" lon="10.966835"><ele>975</ele></trkpt><trkpt lat="47.462597" lon="10.967221"><ele>975</ele></trkpt><trkpt lat="47.462575" lon="10.967592"><ele>975</ele></trkpt><trkpt lat="47.462530" lon="10.967760"><ele>975</ele></trkpt><trkpt lat="47.462524" lon="10.968066"><ele>975</ele></trkpt><trkpt lat="47.462501" lon="10.968348"><ele>975</ele></trkpt><trkpt lat="47.462428" lon="10.968604"><ele>975</ele></trkpt><trkpt lat="47.462326" lon="10.968911"><ele>975</ele></trkpt><trkpt lat="47.462186" lon="10.969242"><ele>975</ele></trkpt><trkpt lat="47.462066" lon="10.969486"><ele>975</ele></trkpt><trkpt lat="47.461990" lon="10.969700"><ele>975</ele></trkpt><trkpt lat="47.461947" lon="10.969978"><ele>975</ele></trkpt><trkpt lat="47.461946" lon="10.970169"><ele>975</ele></trkpt><trkpt lat="47.461982" lon="10.970278"><ele>975</ele></trkpt><trkpt lat="47.462025" lon="10.970415"><ele>975</ele></trkpt><trkpt lat="47.462076" lon="10.970575"><ele>975</ele></trkpt><trkpt lat="47.462104" lon="10.970723"><ele>975</ele></trkpt><trkpt lat="47.462126" lon="10.970902"><ele>975</ele></trkpt><trkpt lat="47.462128" lon="10.971078"><ele>975</ele></trkpt><trkpt lat="47.462107" lon="10.971269"><ele>975</ele></trkpt><trkpt lat="47.462054" lon="10.971388"><ele>975</ele></trkpt><trkpt lat="47.461982" lon="10.971553"><ele>975</ele></trkpt><trkpt lat="47.461905" lon="10.971702"><ele>975</ele></trkpt><trkpt lat="47.461858" lon="10.971839"><ele>975</ele></trkpt><trkpt lat="47.461825" lon="10.971958"><ele>975</ele></trkpt><trkpt lat="47.461809" lon="10.972124"><ele>975</ele></trkpt><trkpt lat="47.461785" lon="10.972265"><ele>975</ele></trkpt><trkpt lat="47.461779" lon="10.972476"><ele>975</ele></trkpt><trkpt lat="47.461794" lon="10.972598"><ele>975</ele></trkpt><trkpt lat="47.461829" lon="10.972744"><ele>975</ele></trkpt><trkpt lat="47.461878" lon="10.972905"><ele>975</ele></trkpt><trkpt lat="47.461967" lon="10.973118"><ele>975</ele></trkpt><trkpt lat="47.462042" lon="10.973233"><ele>975</ele></trkpt><trkpt lat="47.462149" lon="10.973298"><ele>975</ele></trkpt><trkpt lat="47.462268" lon="10.973428"><ele>975</ele></trkpt><trkpt lat="47.462312" lon="10.973529"><ele>975</ele></trkpt><trkpt lat="47.462335" lon="10.973680"><ele>975</ele></trkpt><trkpt lat="47.462328" lon="10.973787"><ele>975</ele></trkpt><trkpt lat="47.462224" lon="10.974248"><ele>975</ele></trkpt><trkpt lat="47.462212" lon="10.974586"><ele>975</ele></trkpt><trkpt lat="47.462227" lon="10.974809"><ele>975</ele></trkpt><trkpt lat="47.462255" lon="10.975262"><ele>975</ele></trkpt><trkpt lat="47.462254" lon="10.975481"><ele>975</ele></trkpt><trkpt lat="47.462252" lon="10.975790"><ele>975</ele></trkpt><trkpt lat="47.462246" lon="10.976067"><ele>975</ele></trkpt><trkpt lat="47.462090" lon="10.976651"><ele>975</ele></trkpt><trkpt lat="47.462064" lon="10.976833"><ele>975</ele></trkpt><trkpt lat="47.462066" lon="10.976978"><ele>975</ele></trkpt><trkpt lat="47.462058" lon="10.977122"><ele>975</ele></trkpt><trkpt lat="47.461901" lon="10.977407"><ele>975</ele></trkpt><trkpt lat="47.461805" lon="10.977649"><ele>975</ele></trkpt><trkpt lat="47.461756" lon="10.977878"><ele>975</ele></trkpt><trkpt lat="47.461725" lon="10.978100"><ele>975</ele></trkpt><trkpt lat="47.461719" lon="10.978476"><ele>975</ele></trkpt><trkpt lat="47.461775" lon="10.978926"><ele>975</ele></trkpt><trkpt lat="47.461803" lon="10.979327"><ele>975</ele></trkpt><trkpt lat="47.461816" lon="10.979614"><ele>975</ele></trkpt><trkpt lat="47.461808" lon="10.979864"><ele>975</ele></trkpt><trkpt lat="47.461773" lon="10.980032"><ele>975</ele></trkpt><trkpt lat="47.461517" lon="10.980705"><ele>975</ele></trkpt><trkpt lat="47.461496" lon="10.980841"><ele>975</ele></trkpt><trkpt lat="47.461496" lon="10.981179"><ele>975</ele></trkpt><trkpt lat="47.461487" lon="10.981279"><ele>975</ele></trkpt><trkpt lat="47.461451" lon="10.981360"><ele>975</ele></trkpt><trkpt lat="47.461388" lon="10.981458"><ele>975</ele></trkpt><trkpt lat="47.461276" lon="10.981611"><ele>975</ele></trkpt><trkpt lat="47.461144" lon="10.981827"><ele>975</ele></trkpt><trkpt lat="47.461034" lon="10.982050"><ele>975</ele></trkpt><trkpt lat="47.460931" lon="10.982329"><ele>975</ele></trkpt><trkpt lat="47.460766" lon="10.982671"><ele>975</ele></trkpt><trkpt lat="47.460620" lon="10.982960"><ele>975</ele></trkpt><trkpt lat="47.460502" lon="10.983227"><ele>975</ele></trkpt><trkpt lat="47.460444" lon="10.983397"><ele>975</ele></trkpt><trkpt lat="47.460422" lon="10.983552"><ele>975</ele></trkpt><trkpt lat="47.460419" lon="10.983647"><ele>975</ele></trkpt><trkpt lat="47.460454" lon="10.983826"><ele>975</ele></trkpt><trkpt lat="47.460495" lon="10.984182"><ele>975</ele></trkpt><trkpt lat="47.460534" lon="10.984306"><ele>975</ele></trkpt><trkpt lat="47.460615" lon="10.984392"><ele>975</ele></trkpt><trkpt lat="47.460807" lon="10.984516"><ele>975</ele></trkpt><trkpt lat="47.460884" lon="10.984613"><ele>975</ele></trkpt><trkpt lat="47.460925" lon="10.984735"><ele>975</ele></trkpt><trkpt lat="47.460944" lon="10.984857"><ele>975</ele></trkpt><trkpt lat="47.460941" lon="10.984994"><ele>975</ele></trkpt><trkpt lat="47.460889" lon="10.985221"><ele>975</ele></trkpt><trkpt lat="47.460736" lon="10.985653"><ele>975</ele></trkpt><trkpt lat="47.460696" lon="10.985912"><ele>975</ele></trkpt><trkpt lat="47.460627" lon="10.986287"><ele>975</ele></trkpt><trkpt lat="47.460611" lon="10.986510"><ele>975</ele></trkpt><trkpt lat="47.460628" lon="10.986927"><ele>975</ele></trkpt><trkpt lat="47.460689" lon="10.987142"><ele>975</ele></trkpt><trkpt lat="47.460721" lon="10.987299"><ele>975</ele></trkpt><trkpt lat="47.460769" lon="10.987488"><ele>975</ele></trkpt><trkpt lat="47.460917" lon="10.987987"><ele>975</ele></trkpt><trkpt lat="47.460937" lon="10.988036"><ele>975</ele></trkpt><trkpt lat="47.460963" lon="10.988074"><ele>975</ele></trkpt><trkpt lat="47.460973" lon="10.988094"><ele>975</ele></trkpt><trkpt lat="47.460981" lon="10.988119"><ele>975</ele></trkpt><trkpt lat="47.460981" lon="10.988144"><ele>975</ele></trkpt><trkpt lat="47.460975" lon="10.988166"><ele>975</ele></trkpt><trkpt lat="47.460954" lon="10.988216"><ele>975</ele></trkpt><trkpt lat="47.460859" lon="10.988276"><ele>975</ele></trkpt><trkpt lat="47.460691" lon="10.988330"><ele>975</ele></trkpt><trkpt lat="47.460579" lon="10.988376"><ele>975</ele></trkpt><trkpt lat="47.460418" lon="10.988507"><ele>975</ele></trkpt><trkpt lat="47.460288" lon="10.988664"><ele>975</ele></trkpt><trkpt lat="47.459910" lon="10.989245"><ele>975</ele></trkpt><trkpt lat="47.459590" lon="10.989431"><ele>975</ele></trkpt><trkpt lat="47.459497" lon="10.989536"><ele>975</ele></trkpt><trkpt lat="47.459334" lon="10.989740"><ele>975</ele></trkpt><trkpt lat="47.459266" lon="10.989795"><ele>975</ele></trkpt><trkpt lat="47.459160" lon="10.989822"><ele>975</ele></trkpt><trkpt lat="47.458951" lon="10.989828"><ele>975</ele></trkpt><trkpt lat="47.458665" lon="10.989801"><ele>975</ele></trkpt><trkpt lat="47.458596" lon="10.989832"><ele>975</ele></trkpt><trkpt lat="47.458513" lon="10.989929"><ele>975</ele></trkpt><trkpt lat="47.458309" lon="10.990318"><ele>975</ele></trkpt><trkpt lat="47.458185" lon="10.990638"><ele>975</ele></trkpt><trkpt lat="47.458021" lon="10.991238"><ele>975</ele></trkpt><trkpt lat="47.457966" lon="10.991546"><ele>975</ele></trkpt><trkpt lat="47.457864" lon="10.991705"><ele>975</ele></trkpt><trkpt lat="47.457804" lon="10.991722"><ele>975</ele></trkpt><trkpt lat="47.457569" lon="10.991783"><ele>975</ele></trkpt><trkpt lat="47.457547" lon="10.991772"><ele>975</ele></trkpt><trkpt lat="47.457515" lon="10.991795"><ele>975</ele></trkpt><trkpt lat="47.457414" lon="10.991821"><ele>975</ele></trkpt></trkseg></trk>
</gpx>
