<?xml version="1.0" encoding="UTF-8"?>
<gpx version="1.1" creator="Garmisch 2026" xmlns="http://www.topografix.com/GPX/1/1">
<metadata><name>Otrdiena - Zugspitzplatt (2,1 km)</name></metadata>
<wpt lat="47.45637" lon="10.99387"><name>Eibsee stacija / Zugspitze Seilbahn</name></wpt>
<wpt lat="47.47336" lon="11.01635"><name>Badersee</name></wpt>
<wpt lat="47.471821" lon="11.023778"><name>Grainau stacija (Zugspitzbahn vilciens uz Garmisch)</name></wpt>
<wpt lat="47.4566" lon="10.9898"><name>Eibsee - busiņa stāvvieta, Seilbahn</name></wpt>
<wpt lat="47.42113" lon="10.98533"><name>Zugspitze 2962 m</name></wpt>
<wpt lat="47.41347" lon="10.97999"><name>Zugspitzplatt - SonnAlpin, Gletscherbahn, vilciens lejā</name></wpt>
<wpt lat="47.41287" lon="10.97852"><name>Kapela Mariä Heimsuchung</name></wpt>
<wpt lat="47.41316" lon="10.9701"><name>Windloch - skatu punkts</name></wpt>
<trk><name>Otrdiena - Zugspitzplatt (2,1 km)</name><trkseg><trkpt lat="47.4130227" lon="10.9794962"><ele>2583.0</ele></trkpt><trkpt lat="47.4129789" lon="10.9793209"><ele>2583.0</ele></trkpt><trkpt lat="47.412949" lon="10.9791854"><ele>2583.0</ele></trkpt><trkpt lat="47.4129372" lon="10.9790754"><ele>2581.0</ele></trkpt><trkpt lat="47.4129562" lon="10.9786315"><ele>2581.0</ele></trkpt><trkpt lat="47.4128805" lon="10.9786182"><ele>2581.0</ele></trkpt><trkpt lat="47.4128581" lon="10.9785731"><ele>2581.0</ele></trkpt><trkpt lat="47.4128805" lon="10.9786182"><ele>2581.0</ele></trkpt><trkpt lat="47.4129562" lon="10.9786315"><ele>2581.0</ele></trkpt><trkpt lat="47.4129599" lon="10.978488"><ele>2581.0</ele></trkpt><trkpt lat="47.4129535" lon="10.9784089"><ele>2581.0</ele></trkpt><trkpt lat="47.4129172" lon="10.9783056"><ele>2577.0</ele></trkpt><trkpt lat="47.4128265" lon="10.9781997"><ele>2577.0</ele></trkpt><trkpt lat="47.4127412" lon="10.9781286"><ele>2577.0</ele></trkpt><trkpt lat="47.4126313" lon="10.9780468"><ele>2577.0</ele></trkpt><trkpt lat="47.412565" lon="10.977971"><ele>2577.0</ele></trkpt><trkpt lat="47.412494" lon="10.977828"><ele>2577.0</ele></trkpt><trkpt lat="47.412309" lon="10.977567"><ele>2598.0</ele></trkpt><trkpt lat="47.412241" lon="10.977503"><ele>2598.0</ele></trkpt><trkpt lat="47.412225" lon="10.977488"><ele>2597.0</ele></trkpt><trkpt lat="47.412121" lon="10.977354"><ele>2597.0</ele></trkpt><trkpt lat="47.411974" lon="10.976888"><ele>2597.0</ele></trkpt><trkpt lat="47.411932" lon="10.976781"><ele>2597.0</ele></trkpt><trkpt lat="47.411887" lon="10.976722"><ele>2597.0</ele></trkpt><trkpt lat="47.411843" lon="10.976614"><ele>2600.0</ele></trkpt><trkpt lat="47.411808" lon="10.97655"><ele>2600.0</ele></trkpt><trkpt lat="47.411771" lon="10.976434"><ele>2600.0</ele></trkpt><trkpt lat="47.411751" lon="10.976404"><ele>2600.0</ele></trkpt><trkpt lat="47.411713" lon="10.976264"><ele>2600.0</ele></trkpt><trkpt lat="47.411706" lon="10.976184"><ele>2600.0</ele></trkpt><trkpt lat="47.411685" lon="10.97612"><ele>2600.0</ele></trkpt><trkpt lat="47.411567" lon="10.975845"><ele>2618.0</ele></trkpt><trkpt lat="47.411518" lon="10.975775"><ele>2623.0</ele></trkpt><trkpt lat="47.411392" lon="10.975663"><ele>2623.0</ele></trkpt><trkpt lat="47.411257" lon="10.975594"><ele>2623.0</ele></trkpt><trkpt lat="47.411196" lon="10.975518"><ele>2623.0</ele></trkpt><trkpt lat="47.410963" lon="10.975296"><ele>2623.0</ele></trkpt><trkpt lat="47.410927" lon="10.975211"><ele>2623.0</ele></trkpt><trkpt lat="47.410898" lon="10.975069"><ele>2623.0</ele></trkpt><trkpt lat="47.410893" lon="10.974982"><ele>2629.0</ele></trkpt><trkpt lat="47.410913" lon="10.974802"><ele>2629.0</ele></trkpt><trkpt lat="47.410913" lon="10.974705"><ele>2629.0</ele></trkpt><trkpt lat="47.410925" lon="10.974645"><ele>2629.0</ele></trkpt><trkpt lat="47.410974" lon="10.974584"><ele>2629.0</ele></trkpt><trkpt lat="47.411002" lon="10.974522"><ele>2629.0</ele></trkpt><trkpt lat="47.411071" lon="10.974478"><ele>2629.0</ele></trkpt><trkpt lat="47.411186" lon="10.974381"><ele>2629.0</ele></trkpt><trkpt lat="47.411251" lon="10.974284"><ele>2629.0</ele></trkpt><trkpt lat="47.411286" lon="10.974216"><ele>2629.0</ele></trkpt><trkpt lat="47.411314" lon="10.974181"><ele>2629.0</ele></trkpt><trkpt lat="47.411351" lon="10.974157"><ele>2644.0</ele></trkpt><trkpt lat="47.41137" lon="10.974125"><ele>2644.0</ele></trkpt><trkpt lat="47.411372" lon="10.974087"><ele>2644.0</ele></trkpt><trkpt lat="47.411371" lon="10.974079"><ele>2644.0</ele></trkpt><trkpt lat="47.411357" lon="10.974047"><ele>2644.0</ele></trkpt><trkpt lat="47.41135" lon="10.973995"><ele>2644.0</ele></trkpt><trkpt lat="47.411384" lon="10.97379"><ele>2644.0</ele></trkpt><trkpt lat="47.411382" lon="10.973762"><ele>2644.0</ele></trkpt><trkpt lat="47.411351" lon="10.973667"><ele>2644.0</ele></trkpt><trkpt lat="47.411386" lon="10.973529"><ele>2644.0</ele></trkpt><trkpt lat="47.411393" lon="10.973463"><ele>2644.0</ele></trkpt><trkpt lat="47.411443" lon="10.973376"><ele>2644.0</ele></trkpt><trkpt lat="47.411483" lon="10.97333"><ele>2644.0</ele></trkpt><trkpt lat="47.411523" lon="10.973225"><ele>2662.0</ele></trkpt><trkpt lat="47.411618" lon="10.973075"><ele>2662.0</ele></trkpt><trkpt lat="47.41177" lon="10.972909"><ele>2652.0</ele></trkpt><trkpt lat="47.411889" lon="10.972563"><ele>2652.0</ele></trkpt><trkpt lat="47.41191" lon="10.972447"><ele>2670.0</ele></trkpt><trkpt lat="47.411954" lon="10.972341"><ele>2670.0</ele></trkpt><trkpt lat="47.411962" lon="10.972269"><ele>2670.0</ele></trkpt><trkpt lat="47.411991" lon="10.972221"><ele>2670.0</ele></trkpt><trkpt lat="47.412039" lon="10.972176"><ele>2670.0</ele></trkpt><trkpt lat="47.412069" lon="10.97212"><ele>2670.0</ele></trkpt><trkpt lat="47.412093" lon="10.972097"><ele>2670.0</ele></trkpt><trkpt lat="47.412207" lon="10.971801"><ele>2670.0</ele></trkpt><trkpt lat="47.412272" lon="10.971713"><ele>2670.0</ele></trkpt><trkpt lat="47.412296" lon="10.971644"><ele>2690.0</ele></trkpt><trkpt lat="47.412329" lon="10.971609"><ele>2690.0</ele></trkpt><trkpt lat="47.412366" lon="10.971546"><ele>2690.0</ele></trkpt><trkpt lat="47.412492" lon="10.971415"><ele>2690.0</ele></trkpt><trkpt lat="47.412518" lon="10.971347"><ele>2679.0</ele></trkpt><trkpt lat="47.412523" lon="10.971317"><ele>2679.0</ele></trkpt><trkpt lat="47.412498" lon="10.971305"><ele>2679.0</ele></trkpt><trkpt lat="47.412354" lon="10.97131"><ele>2690.0</ele></trkpt><trkpt lat="47.412318" lon="10.971338"><ele>2690.0</ele></trkpt><trkpt lat="47.412293" lon="10.971339"><ele>2690.0</ele></trkpt><trkpt lat="47.412257" lon="10.971357"><ele>2690.0</ele></trkpt><trkpt lat="47.412198" lon="10.971404"><ele>2690.0</ele></trkpt><trkpt lat="47.412147" lon="10.971419"><ele>2690.0</ele></trkpt><trkpt lat="47.412266" lon="10.971179"><ele>2690.0</ele></trkpt><trkpt lat="47.412301" lon="10.971092"><ele>2690.0</ele></trkpt><trkpt lat="47.412361" lon="10.971003"><ele>2690.0</ele></trkpt><trkpt lat="47.412378" lon="10.970915"><ele>2690.0</ele></trkpt><trkpt lat="47.412462" lon="10.970843"><ele>2690.0</ele></trkpt><trkpt lat="47.412508" lon="10.97079"><ele>2686.0</ele></trkpt><trkpt lat="47.412607" lon="10.970727"><ele>2686.0</ele></trkpt><trkpt lat="47.412712" lon="10.970731"><ele>2686.0</ele></trkpt><trkpt lat="47.412795" lon="10.970717"><ele>2686.0</ele></trkpt><trkpt lat="47.412882" lon="10.970672"><ele>2686.0</ele></trkpt><trkpt lat="47.412916" lon="10.970643"><ele>2686.0</ele></trkpt><trkpt lat="47.412944" lon="10.970603"><ele>2686.0</ele></trkpt><trkpt lat="47.413" lon="10.970571"><ele>2686.0</ele></trkpt><trkpt lat="47.413039" lon="10.970516"><ele>2686.0</ele></trkpt><trkpt lat="47.413091" lon="10.970467"><ele>2686.0</ele></trkpt><trkpt lat="47.413104" lon="10.97044"><ele>2686.0</ele></trkpt><trkpt lat="47.413148" lon="10.970406"><ele>2686.0</ele></trkpt><trkpt lat="47.413205" lon="10.970334"><ele>2686.0</ele></trkpt><trkpt lat="47.413234" lon="10.970281"><ele>2686.0</ele></trkpt><trkpt lat="47.413277" lon="10.970263"><ele>2686.0</ele></trkpt><trkpt lat="47.413234" lon="10.970281"><ele>2686.0</ele></trkpt><trkpt lat="47.413205" lon="10.970334"><ele>2686.0</ele></trkpt><trkpt lat="47.413148" lon="10.970406"><ele>2686.0</ele></trkpt><trkpt lat="47.413104" lon="10.97044"><ele>2686.0</ele></trkpt><trkpt lat="47.413091" lon="10.970467"><ele>2686.0</ele></trkpt><trkpt lat="47.413039" lon="10.970516"><ele>2686.0</ele></trkpt><trkpt lat="47.413" lon="10.970571"><ele>2686.0</ele></trkpt><trkpt lat="47.412944" lon="10.970603"><ele>2686.0</ele></trkpt><trkpt lat="47.412916" lon="10.970643"><ele>2686.0</ele></trkpt><trkpt lat="47.412882" lon="10.970672"><ele>2686.0</ele></trkpt><trkpt lat="47.412795" lon="10.970717"><ele>2686.0</ele></trkpt><trkpt lat="47.412712" lon="10.970731"><ele>2686.0</ele></trkpt><trkpt lat="47.412607" lon="10.970727"><ele>2686.0</ele></trkpt><trkpt lat="47.412508" lon="10.97079"><ele>2686.0</ele></trkpt><trkpt lat="47.412462" lon="10.970843"><ele>2690.0</ele></trkpt><trkpt lat="47.412378" lon="10.970915"><ele>2690.0</ele></trkpt><trkpt lat="47.412361" lon="10.971003"><ele>2690.0</ele></trkpt><trkpt lat="47.412301" lon="10.971092"><ele>2690.0</ele></trkpt><trkpt lat="47.412266" lon="10.971179"><ele>2690.0</ele></trkpt><trkpt lat="47.412147" lon="10.971419"><ele>2690.0</ele></trkpt><trkpt lat="47.412198" lon="10.971404"><ele>2690.0</ele></trkpt><trkpt lat="47.412257" lon="10.971357"><ele>2690.0</ele></trkpt><trkpt lat="47.412293" lon="10.971339"><ele>2690.0</ele></trkpt><trkpt lat="47.412318" lon="10.971338"><ele>2690.0</ele></trkpt><trkpt lat="47.412354" lon="10.97131"><ele>2690.0</ele></trkpt><trkpt lat="47.412498" lon="10.971305"><ele>2679.0</ele></trkpt><trkpt lat="47.412523" lon="10.971317"><ele>2679.0</ele></trkpt><trkpt lat="47.412518" lon="10.971347"><ele>2679.0</ele></trkpt><trkpt lat="47.412492" lon="10.971415"><ele>2690.0</ele></trkpt><trkpt lat="47.412366" lon="10.971546"><ele>2690.0</ele></trkpt><trkpt lat="47.412329" lon="10.971609"><ele>2690.0</ele></trkpt><trkpt lat="47.412296" lon="10.971644"><ele>2690.0</ele></trkpt><trkpt lat="47.412272" lon="10.971713"><ele>2670.0</ele></trkpt><trkpt lat="47.412207" lon="10.971801"><ele>2670.0</ele></trkpt><trkpt lat="47.412093" lon="10.972097"><ele>2670.0</ele></trkpt><trkpt lat="47.412069" lon="10.97212"><ele>2670.0</ele></trkpt><trkpt lat="47.412039" lon="10.972176"><ele>2670.0</ele></trkpt><trkpt lat="47.411991" lon="10.972221"><ele>2670.0</ele></trkpt><trkpt lat="47.411962" lon="10.972269"><ele>2670.0</ele></trkpt><trkpt lat="47.411954" lon="10.972341"><ele>2670.0</ele></trkpt><trkpt lat="47.41191" lon="10.972447"><ele>2670.0</ele></trkpt><trkpt lat="47.411889" lon="10.972563"><ele>2652.0</ele></trkpt><trkpt lat="47.41177" lon="10.972909"><ele>2652.0</ele></trkpt><trkpt lat="47.411618" lon="10.973075"><ele>2662.0</ele></trkpt><trkpt lat="47.411523" lon="10.973225"><ele>2662.0</ele></trkpt><trkpt lat="47.411483" lon="10.97333"><ele>2644.0</ele></trkpt><trkpt lat="47.411443" lon="10.973376"><ele>2644.0</ele></trkpt><trkpt lat="47.411393" lon="10.973463"><ele>2644.0</ele></trkpt><trkpt lat="47.411386" lon="10.973529"><ele>2644.0</ele></trkpt><trkpt lat="47.411351" lon="10.973667"><ele>2644.0</ele></trkpt><trkpt lat="47.411382" lon="10.973762"><ele>2644.0</ele></trkpt><trkpt lat="47.411384" lon="10.97379"><ele>2644.0</ele></trkpt><trkpt lat="47.41135" lon="10.973995"><ele>2644.0</ele></trkpt><trkpt lat="47.411357" lon="10.974047"><ele>2644.0</ele></trkpt><trkpt lat="47.411371" lon="10.974079"><ele>2644.0</ele></trkpt><trkpt lat="47.411372" lon="10.974087"><ele>2644.0</ele></trkpt><trkpt lat="47.41137" lon="10.974125"><ele>2644.0</ele></trkpt><trkpt lat="47.411351" lon="10.974157"><ele>2644.0</ele></trkpt><trkpt lat="47.411314" lon="10.974181"><ele>2629.0</ele></trkpt><trkpt lat="47.411286" lon="10.974216"><ele>2629.0</ele></trkpt><trkpt lat="47.411251" lon="10.974284"><ele>2629.0</ele></trkpt><trkpt lat="47.411186" lon="10.974381"><ele>2629.0</ele></trkpt><trkpt lat="47.411071" lon="10.974478"><ele>2629.0</ele></trkpt><trkpt lat="47.411002" lon="10.974522"><ele>2629.0</ele></trkpt><trkpt lat="47.410974" lon="10.974584"><ele>2629.0</ele></trkpt><trkpt lat="47.410925" lon="10.974645"><ele>2629.0</ele></trkpt><trkpt lat="47.410913" lon="10.974705"><ele>2629.0</ele></trkpt><trkpt lat="47.410913" lon="10.974802"><ele>2629.0</ele></trkpt><trkpt lat="47.410893" lon="10.974982"><ele>2629.0</ele></trkpt><trkpt lat="47.410898" lon="10.975069"><ele>2623.0</ele></trkpt><trkpt lat="47.410927" lon="10.975211"><ele>2623.0</ele></trkpt><trkpt lat="47.410963" lon="10.975296"><ele>2623.0</ele></trkpt><trkpt lat="47.411196" lon="10.975518"><ele>2623.0</ele></trkpt><trkpt lat="47.411257" lon="10.975594"><ele>2623.0</ele></trkpt><trkpt lat="47.411392" lon="10.975663"><ele>2623.0</ele></trkpt><trkpt lat="47.411518" lon="10.975775"><ele>2623.0</ele></trkpt><trkpt lat="47.411567" lon="10.975845"><ele>2618.0</ele></trkpt><trkpt lat="47.411685" lon="10.97612"><ele>2600.0</ele></trkpt><trkpt lat="47.411706" lon="10.976184"><ele>2600.0</ele></trkpt><trkpt lat="47.411713" lon="10.976264"><ele>2600.0</ele></trkpt><trkpt lat="47.411751" lon="10.976404"><ele>2600.0</ele></trkpt><trkpt lat="47.411771" lon="10.976434"><ele>2600.0</ele></trkpt><trkpt lat="47.411808" lon="10.97655"><ele>2600.0</ele></trkpt><trkpt lat="47.411843" lon="10.976614"><ele>2600.0</ele></trkpt><trkpt lat="47.411887" lon="10.976722"><ele>2597.0</ele></trkpt><trkpt lat="47.411932" lon="10.976781"><ele>2597.0</ele></trkpt><trkpt lat="47.411974" lon="10.976888"><ele>2597.0</ele></trkpt><trkpt lat="47.412121" lon="10.977354"><ele>2597.0</ele></trkpt><trkpt lat="47.4122588" lon="10.9780006"><ele>2598.0</ele></trkpt><trkpt lat="47.4123854" lon="10.9783754"><ele>2591.0</ele></trkpt><trkpt lat="47.4125146" lon="10.9787062"><ele>2581.0</ele></trkpt><trkpt lat="47.4126849" lon="10.979121"><ele>2581.0</ele></trkpt><trkpt lat="47.4127706" lon="10.979479"><ele>2583.0</ele></trkpt><trkpt lat="47.4129065" lon="10.9798412"><ele>2583.0</ele></trkpt><trkpt lat="47.4129624" lon="10.9796906"><ele>2583.0</ele></trkpt><trkpt lat="47.4130227" lon="10.9794962"><ele>2583.0</ele></trkpt></trkseg></trk>
</gpx>
