<?xml version="1.0" encoding="UTF-8"?>
<gpx version="1.1" creator="Garmisch 2026" xmlns="http://www.topografix.com/GPX/1/1">
<metadata><name>Pirmdiena - Ferrata (3,7 km)</name></metadata>
<wpt lat="47.43853" lon="11.04983"><name>Alpspitzbahn augšstacija Osterfelderkopf</name></wpt>
<wpt lat="47.45223" lon="11.06621"><name>Kreuzeckhaus + Kreuzeckbahn</name></wpt>
<wpt lat="47.507421" lon="11.144125"><name>Wankbahn augšstacija</name></wpt>
<wpt lat="47.495331" lon="11.129312"><name>Tannenhütte (P ciet)</name></wpt>
<wpt lat="47.49139" lon="11.08113"><name>WN alpin - ekipējums 9:00</name></wpt>
<wpt lat="47.47206" lon="11.06287"><name>Kreuzeck-/Alpspitzbahn lejas stacija</name></wpt>
<wpt lat="47.43916" lon="11.05031"><name>AlpspiX</name></wpt>
<wpt lat="47.5039" lon="11.10662"><name>Wankbahn lejas stacija</name></wpt>
<wpt lat="47.49458" lon="11.10533"><name>Vakariņas: Ristorante Renzo 20:00</name></wpt>
<trk><name>Pirmdiena - Ferrata (3,7 km)</name><trkseg><trkpt lat="47.438926" lon="11.050656"><ele>2018</ele></trkpt><trkpt lat="47.438720" lon="11.050208"><ele>2026</ele></trkpt><trkpt lat="47.438572" lon="11.049546"><ele>2024</ele></trkpt><trkpt lat="47.438105" lon="11.049870"><ele>2030</ele></trkpt><trkpt lat="47.437494" lon="11.049990"><ele>2035</ele></trkpt><trkpt lat="47.437160" lon="11.049706"><ele>2049</ele></trkpt><trkpt lat="47.436651" lon="11.049680"><ele>2068</ele></trkpt><trkpt lat="47.436296" lon="11.050259"><ele>2049</ele></trkpt><trkpt lat="47.435830" lon="11.050136"><ele>2070</ele></trkpt><trkpt lat="47.434911" lon="11.051284"><ele>2040</ele></trkpt><trkpt lat="47.434373" lon="11.050753"><ele>2065</ele></trkpt><trkpt lat="47.434365" lon="11.050050"><ele>2110</ele></trkpt><trkpt lat="47.434013" lon="11.049785"><ele>2145</ele></trkpt><trkpt lat="47.433923" lon="11.048940"><ele>2191</ele></trkpt><trkpt lat="47.433611" lon="11.048827"><ele>2211</ele></trkpt><trkpt lat="47.433600" lon="11.048556"><ele>2213</ele></trkpt><trkpt lat="47.433464" lon="11.048828"><ele>2216</ele></trkpt><trkpt lat="47.433299" lon="11.048543"><ele>2227</ele></trkpt><trkpt lat="47.432892" lon="11.048516"><ele>2260</ele></trkpt><trkpt lat="47.432573" lon="11.048747"><ele>2283</ele></trkpt><trkpt lat="47.432507" lon="11.048476"><ele>2286</ele></trkpt><trkpt lat="47.432126" lon="11.048555"><ele>2315</ele></trkpt><trkpt lat="47.431397" lon="11.047861"><ele>2391</ele></trkpt><trkpt lat="47.430806" lon="11.047619"><ele>2466</ele></trkpt><trkpt lat="47.430708" lon="11.047290"><ele>2473</ele></trkpt><trkpt lat="47.430290" lon="11.047648"><ele>2523</ele></trkpt><trkpt lat="47.430084" lon="11.047491"><ele>2538</ele></trkpt><trkpt lat="47.429849" lon="11.048063"><ele>2559</ele></trkpt><trkpt lat="47.429466" lon="11.047835"><ele>2576</ele></trkpt><trkpt lat="47.428998" lon="11.048173"><ele>2566</ele></trkpt><trkpt lat="47.428909" lon="11.049372"><ele>2529</ele></trkpt><trkpt lat="47.427708" lon="11.052703"><ele>2339</ele></trkpt><trkpt lat="47.427443" lon="11.056302"><ele>2238</ele></trkpt><trkpt lat="47.428755" lon="11.055838"><ele>2209</ele></trkpt><trkpt lat="47.429041" lon="11.055290"><ele>2213</ele></trkpt><trkpt lat="47.430392" lon="11.055919"><ele>2148</ele></trkpt><trkpt lat="47.430743" lon="11.055349"><ele>2144</ele></trkpt><trkpt lat="47.430920" lon="11.054521"><ele>2185</ele></trkpt><trkpt lat="47.431477" lon="11.054068"><ele>2126</ele></trkpt><trkpt lat="47.431696" lon="11.053410"><ele>2108</ele></trkpt><trkpt lat="47.431828" lon="11.052752"><ele>2121</ele></trkpt><trkpt lat="47.432092" lon="11.052789"><ele>2087</ele></trkpt><trkpt lat="47.432765" lon="11.051767"><ele>2075</ele></trkpt><trkpt lat="47.434111" lon="11.050839"><ele>2059</ele></trkpt><trkpt lat="47.435501" lon="11.050742"><ele>2058</ele></trkpt><trkpt lat="47.436515" lon="11.049750"><ele>2063</ele></trkpt><trkpt lat="47.436833" lon="11.049959"><ele>2041</ele></trkpt><trkpt lat="47.437970" lon="11.049825"><ele>2033</ele></trkpt><trkpt lat="47.438527" lon="11.050163"><ele>2026</ele></trkpt><trkpt lat="47.438852" lon="11.050458"><ele>2021</ele></trkpt><trkpt lat="47.438974" lon="11.051139"><ele>2012</ele></trkpt></trkseg></trk>
</gpx>
