<?xml version="1.0" encoding="UTF-8"?>
<gpx version="1.1" creator="Garmisch 2026" xmlns="http://www.topografix.com/GPX/1/1">
<metadata><name>Pirmdiena - Wank lejā kājām</name></metadata>
<wpt lat="47.43853" lon="11.04983"><name>Alpspitzbahn augšstacija Osterfelderkopf</name></wpt>
<wpt lat="47.45223" lon="11.06621"><name>Kreuzeckhaus + Kreuzeckbahn</name></wpt>
<wpt lat="47.507421" lon="11.144125"><name>Wankbahn augšstacija</name></wpt>
<wpt lat="47.495331" lon="11.129312"><name>Tannenhütte (P ciet)</name></wpt>
<trk><name>WANK: no augšstacijas kājām caur Eckenhütte un Tannenhütte uz mājām (5,9 km, -1040 m)</name><trkseg>
<trkpt lat="47.507454" lon="11.144316"><ele>1745.0</ele></trkpt>
<trkpt lat="47.507508" lon="11.144437"><ele>1746.0</ele></trkpt>
<trkpt lat="47.507562" lon="11.144564"><ele>1745.25</ele></trkpt>
<trkpt lat="47.507526" lon="11.144630"><ele>1744.5</ele></trkpt>
<trkpt lat="47.507410" lon="11.144644"><ele>1742.25</ele></trkpt>
<trkpt lat="47.507306" lon="11.144545"><ele>1739.5</ele></trkpt>
<trkpt lat="47.507203" lon="11.144329"><ele>1736.75</ele></trkpt>
<trkpt lat="47.507175" lon="11.144144"><ele>1735.75</ele></trkpt>
<trkpt lat="47.507172" lon="11.144047"><ele>1735.0</ele></trkpt>
<trkpt lat="47.507202" lon="11.143950"><ele>1736.25</ele></trkpt>
<trkpt lat="47.507240" lon="11.143790"><ele>1737.0</ele></trkpt>
<trkpt lat="47.507223" lon="11.143704"><ele>1735.5</ele></trkpt>
<trkpt lat="47.507213" lon="11.143527"><ele>1734.75</ele></trkpt>
<trkpt lat="47.507176" lon="11.143350"><ele>1733.75</ele></trkpt>
<trkpt lat="47.507161" lon="11.143330"><ele>1733.25</ele></trkpt>
<trkpt lat="47.507004" lon="11.143184"><ele>1729.25</ele></trkpt>
<trkpt lat="47.506881" lon="11.142997"><ele>1725.0</ele></trkpt>
<trkpt lat="47.506865" lon="11.142988"><ele>1724.0</ele></trkpt>
<trkpt lat="47.506861" lon="11.143018"><ele>1724.0</ele></trkpt>
<trkpt lat="47.506905" lon="11.143370"><ele>1720.75</ele></trkpt>
<trkpt lat="47.506896" lon="11.143373"><ele>1720.25</ele></trkpt>
<trkpt lat="47.506872" lon="11.143344"><ele>1719.25</ele></trkpt>
<trkpt lat="47.506783" lon="11.143197"><ele>1716.75</ele></trkpt>
<trkpt lat="47.506706" lon="11.143036"><ele>1715.0</ele></trkpt>
<trkpt lat="47.506693" lon="11.142965"><ele>1713.75</ele></trkpt>
<trkpt lat="47.506689" lon="11.142888"><ele>1713.0</ele></trkpt>
<trkpt lat="47.506721" lon="11.142703"><ele>1711.75</ele></trkpt>
<trkpt lat="47.506715" lon="11.142702"><ele>1711.25</ele></trkpt>
<trkpt lat="47.506654" lon="11.142773"><ele>1710.0</ele></trkpt>
<trkpt lat="47.506664" lon="11.142673"><ele>1707.25</ele></trkpt>
<trkpt lat="47.506660" lon="11.142662"><ele>1706.75</ele></trkpt>
<trkpt lat="47.506639" lon="11.142680"><ele>1706.0</ele></trkpt>
<trkpt lat="47.506539" lon="11.142836"><ele>1703.5</ele></trkpt>
<trkpt lat="47.506479" lon="11.143033"><ele>1701.25</ele></trkpt>
<trkpt lat="47.506468" lon="11.143040"><ele>1700.5</ele></trkpt>
<trkpt lat="47.506430" lon="11.142921"><ele>1697.5</ele></trkpt>
<trkpt lat="47.506449" lon="11.142760"><ele>1697.0</ele></trkpt>
<trkpt lat="47.506452" lon="11.142676"><ele>1695.0</ele></trkpt>
<trkpt lat="47.506352" lon="11.142848"><ele>1692.5</ele></trkpt>
<trkpt lat="47.506321" lon="11.142861"><ele>1691.25</ele></trkpt>
<trkpt lat="47.506312" lon="11.142811"><ele>1690.5</ele></trkpt>
<trkpt lat="47.506378" lon="11.142578"><ele>1688.25</ele></trkpt>
<trkpt lat="47.506373" lon="11.142559"><ele>1687.5</ele></trkpt>
<trkpt lat="47.506351" lon="11.142573"><ele>1686.75</ele></trkpt>
<trkpt lat="47.506031" lon="11.142930"><ele>1677.75</ele></trkpt>
<trkpt lat="47.506015" lon="11.142912"><ele>1677.0</ele></trkpt>
<trkpt lat="47.506012" lon="11.142878"><ele>1677.0</ele></trkpt>
<trkpt lat="47.506001" lon="11.142867"><ele>1676.5</ele></trkpt>
<trkpt lat="47.505948" lon="11.142913"><ele>1674.5</ele></trkpt>
<trkpt lat="47.505909" lon="11.142889"><ele>1672.75</ele></trkpt>
<trkpt lat="47.505865" lon="11.142922"><ele>1671.25</ele></trkpt>
<trkpt lat="47.505854" lon="11.142916"><ele>1670.75</ele></trkpt>
<trkpt lat="47.505830" lon="11.142872"><ele>1669.75</ele></trkpt>
<trkpt lat="47.505816" lon="11.142867"><ele>1669.5</ele></trkpt>
<trkpt lat="47.505762" lon="11.142887"><ele>1668.0</ele></trkpt>
<trkpt lat="47.505709" lon="11.142912"><ele>1666.5</ele></trkpt>
<trkpt lat="47.505660" lon="11.142925"><ele>1665.25</ele></trkpt>
<trkpt lat="47.505278" lon="11.142907"><ele>1655.5</ele></trkpt>
<trkpt lat="47.505187" lon="11.142822"><ele>1653.5</ele></trkpt>
<trkpt lat="47.505138" lon="11.142718"><ele>1650.75</ele></trkpt>
<trkpt lat="47.505050" lon="11.142731"><ele>1647.25</ele></trkpt>
<trkpt lat="47.504993" lon="11.142581"><ele>1642.75</ele></trkpt>
<trkpt lat="47.504881" lon="11.142650"><ele>1638.75</ele></trkpt>
<trkpt lat="47.504847" lon="11.142624"><ele>1636.75</ele></trkpt>
<trkpt lat="47.504813" lon="11.142268"><ele>1626.5</ele></trkpt>
<trkpt lat="47.504865" lon="11.142085"><ele>1620.5</ele></trkpt>
<trkpt lat="47.504851" lon="11.141987"><ele>1616.0</ele></trkpt>
<trkpt lat="47.504700" lon="11.142023"><ele>1612.75</ele></trkpt>
<trkpt lat="47.504726" lon="11.141958"><ele>1611.5</ele></trkpt>
<trkpt lat="47.504715" lon="11.141870"><ele>1607.0</ele></trkpt>
<trkpt lat="47.504787" lon="11.141740"><ele>1602.75</ele></trkpt>
<trkpt lat="47.504781" lon="11.141663"><ele>1599.0</ele></trkpt>
<trkpt lat="47.504681" lon="11.141679"><ele>1596.75</ele></trkpt>
<trkpt lat="47.504650" lon="11.141571"><ele>1590.25</ele></trkpt>
<trkpt lat="47.504540" lon="11.141564"><ele>1585.75</ele></trkpt>
<trkpt lat="47.504512" lon="11.141432"><ele>1579.5</ele></trkpt>
<trkpt lat="47.504374" lon="11.141476"><ele>1575.75</ele></trkpt>
<trkpt lat="47.504330" lon="11.141457"><ele>1572.75</ele></trkpt>
<trkpt lat="47.504329" lon="11.141293"><ele>1566.0</ele></trkpt>
<trkpt lat="47.504239" lon="11.141236"><ele>1560.25</ele></trkpt>
<trkpt lat="47.504127" lon="11.141354"><ele>1560.0</ele></trkpt>
<trkpt lat="47.503996" lon="11.141344"><ele>1553.5</ele></trkpt>
<trkpt lat="47.503953" lon="11.141288"><ele>1550.0</ele></trkpt>
<trkpt lat="47.503966" lon="11.141143"><ele>1546.25</ele></trkpt>
<trkpt lat="47.503937" lon="11.141035"><ele>1540.75</ele></trkpt>
<trkpt lat="47.503792" lon="11.141091"><ele>1537.0</ele></trkpt>
<trkpt lat="47.503776" lon="11.141004"><ele>1533.5</ele></trkpt>
<trkpt lat="47.503702" lon="11.141004"><ele>1530.5</ele></trkpt>
<trkpt lat="47.503662" lon="11.140844"><ele>1524.75</ele></trkpt>
<trkpt lat="47.503665" lon="11.140653"><ele>1516.5</ele></trkpt>
<trkpt lat="47.503571" lon="11.140610"><ele>1511.0</ele></trkpt>
<trkpt lat="47.503524" lon="11.140371"><ele>1496.5</ele></trkpt>
<trkpt lat="47.503641" lon="11.140198"><ele>1492.5</ele></trkpt>
<trkpt lat="47.503975" lon="11.139750"><ele>1480.0</ele></trkpt>
<trkpt lat="47.503985" lon="11.139662"><ele>1476.25</ele></trkpt>
<trkpt lat="47.503970" lon="11.139590"><ele>1472.5</ele></trkpt>
<trkpt lat="47.503854" lon="11.139538"><ele>1467.25</ele></trkpt>
<trkpt lat="47.503800" lon="11.139487"><ele>1463.25</ele></trkpt>
<trkpt lat="47.503765" lon="11.139479"><ele>1461.75</ele></trkpt>
<trkpt lat="47.503740" lon="11.139483"><ele>1461.25</ele></trkpt>
<trkpt lat="47.503686" lon="11.139511"><ele>1461.0</ele></trkpt>
<trkpt lat="47.503679" lon="11.139506"><ele>1460.5</ele></trkpt>
<trkpt lat="47.503722" lon="11.139439"><ele>1458.75</ele></trkpt>
<trkpt lat="47.503739" lon="11.139390"><ele>1457.25</ele></trkpt>
<trkpt lat="47.503773" lon="11.139340"><ele>1456.25</ele></trkpt>
<trkpt lat="47.503839" lon="11.139201"><ele>1452.0</ele></trkpt>
<trkpt lat="47.503889" lon="11.139134"><ele>1450.25</ele></trkpt>
<trkpt lat="47.503854" lon="11.139103"><ele>1448.0</ele></trkpt>
<trkpt lat="47.503703" lon="11.139092"><ele>1444.0</ele></trkpt>
<trkpt lat="47.503657" lon="11.139040"><ele>1440.75</ele></trkpt>
<trkpt lat="47.503606" lon="11.138948"><ele>1436.0</ele></trkpt>
<trkpt lat="47.503442" lon="11.138921"><ele>1430.75</ele></trkpt>
<trkpt lat="47.503428" lon="11.138916"><ele>1430.25</ele></trkpt>
<trkpt lat="47.503421" lon="11.138892"><ele>1429.25</ele></trkpt>
<trkpt lat="47.503422" lon="11.138863"><ele>1428.0</ele></trkpt>
<trkpt lat="47.503451" lon="11.138802"><ele>1426.5</ele></trkpt>
<trkpt lat="47.503531" lon="11.138552"><ele>1418.25</ele></trkpt>
<trkpt lat="47.503585" lon="11.138460"><ele>1416.0</ele></trkpt>
<trkpt lat="47.503612" lon="11.138271"><ele>1409.75</ele></trkpt>
<trkpt lat="47.503632" lon="11.138238"><ele>1408.75</ele></trkpt>
<trkpt lat="47.503640" lon="11.138175"><ele>1406.75</ele></trkpt>
<trkpt lat="47.503631" lon="11.138098"><ele>1404.25</ele></trkpt>
<trkpt lat="47.503614" lon="11.138028"><ele>1402.0</ele></trkpt>
<trkpt lat="47.503602" lon="11.137996"><ele>1400.75</ele></trkpt>
<trkpt lat="47.503583" lon="11.137969"><ele>1399.75</ele></trkpt>
<trkpt lat="47.503638" lon="11.137902"><ele>1397.75</ele></trkpt>
<trkpt lat="47.503619" lon="11.137866"><ele>1396.75</ele></trkpt>
<trkpt lat="47.503639" lon="11.137813"><ele>1394.75</ele></trkpt>
<trkpt lat="47.503609" lon="11.137712"><ele>1391.5</ele></trkpt>
<trkpt lat="47.503641" lon="11.137708"><ele>1390.75</ele></trkpt>
<trkpt lat="47.503645" lon="11.137698"><ele>1390.25</ele></trkpt>
<trkpt lat="47.503640" lon="11.137681"><ele>1389.75</ele></trkpt>
<trkpt lat="47.503613" lon="11.137647"><ele>1389.0</ele></trkpt>
<trkpt lat="47.503611" lon="11.137611"><ele>1387.75</ele></trkpt>
<trkpt lat="47.503666" lon="11.137553"><ele>1384.0</ele></trkpt>
<trkpt lat="47.503626" lon="11.137515"><ele>1384.0</ele></trkpt>
<trkpt lat="47.503492" lon="11.137509"><ele>1384.25</ele></trkpt>
<trkpt lat="47.503371" lon="11.137348"><ele>1377.0</ele></trkpt>
<trkpt lat="47.503227" lon="11.137002"><ele>1364.5</ele></trkpt>
<trkpt lat="47.503068" lon="11.136882"><ele>1362.75</ele></trkpt>
<trkpt lat="47.502926" lon="11.136822"><ele>1360.0</ele></trkpt>
<trkpt lat="47.502762" lon="11.136670"><ele>1354.5</ele></trkpt>
<trkpt lat="47.502732" lon="11.136662"><ele>1353.25</ele></trkpt>
<trkpt lat="47.502604" lon="11.136709"><ele>1350.25</ele></trkpt>
<trkpt lat="47.502474" lon="11.136830"><ele>1349.0</ele></trkpt>
<trkpt lat="47.502327" lon="11.136935"><ele>1343.5</ele></trkpt>
<trkpt lat="47.502250" lon="11.136952"><ele>1339.75</ele></trkpt>
<trkpt lat="47.502198" lon="11.136925"><ele>1336.0</ele></trkpt>
<trkpt lat="47.502069" lon="11.136952"><ele>1329.75</ele></trkpt>
<trkpt lat="47.501951" lon="11.137080"><ele>1326.75</ele></trkpt>
<trkpt lat="47.501795" lon="11.137505"><ele>1324.75</ele></trkpt>
<trkpt lat="47.501737" lon="11.137551"><ele>1322.5</ele></trkpt>
<trkpt lat="47.501691" lon="11.137563"><ele>1320.0</ele></trkpt>
<trkpt lat="47.501648" lon="11.137592"><ele>1318.25</ele></trkpt>
<trkpt lat="47.501573" lon="11.137696"><ele>1317.0</ele></trkpt>
<trkpt lat="47.501525" lon="11.137687"><ele>1314.25</ele></trkpt>
<trkpt lat="47.501506" lon="11.137703"><ele>1313.75</ele></trkpt>
<trkpt lat="47.501497" lon="11.137724"><ele>1313.75</ele></trkpt>
<trkpt lat="47.501402" lon="11.137724"><ele>1309.0</ele></trkpt>
<trkpt lat="47.501316" lon="11.137684"><ele>1307.25</ele></trkpt>
<trkpt lat="47.501245" lon="11.137604"><ele>1304.75</ele></trkpt>
<trkpt lat="47.501280" lon="11.137569"><ele>1303.75</ele></trkpt>
<trkpt lat="47.501313" lon="11.137474"><ele>1300.75</ele></trkpt>
<trkpt lat="47.501328" lon="11.137268"><ele>1294.5</ele></trkpt>
<trkpt lat="47.501315" lon="11.137151"><ele>1290.5</ele></trkpt>
<trkpt lat="47.501274" lon="11.137070"><ele>1286.75</ele></trkpt>
<trkpt lat="47.501275" lon="11.137014"><ele>1284.75</ele></trkpt>
<trkpt lat="47.501325" lon="11.136772"><ele>1279.0</ele></trkpt>
<trkpt lat="47.501341" lon="11.136587"><ele>1274.75</ele></trkpt>
<trkpt lat="47.501420" lon="11.135886"><ele>1261.25</ele></trkpt>
<trkpt lat="47.501466" lon="11.135680"><ele>1257.5</ele></trkpt>
<trkpt lat="47.501465" lon="11.135485"><ele>1251.75</ele></trkpt>
<trkpt lat="47.501384" lon="11.135465"><ele>1249.25</ele></trkpt>
<trkpt lat="47.501402" lon="11.135288"><ele>1244.5</ele></trkpt>
<trkpt lat="47.501453" lon="11.135200"><ele>1242.5</ele></trkpt>
<trkpt lat="47.501401" lon="11.135212"><ele>1242.0</ele></trkpt>
<trkpt lat="47.501312" lon="11.135186"><ele>1238.75</ele></trkpt>
<trkpt lat="47.501359" lon="11.135093"><ele>1237.0</ele></trkpt>
<trkpt lat="47.501362" lon="11.135037"><ele>1235.25</ele></trkpt>
<trkpt lat="47.501437" lon="11.134920"><ele>1232.0</ele></trkpt>
<trkpt lat="47.501605" lon="11.134738"><ele>1227.25</ele></trkpt>
<trkpt lat="47.501724" lon="11.134500"><ele>1223.0</ele></trkpt>
<trkpt lat="47.501794" lon="11.134296"><ele>1218.5</ele></trkpt>
<trkpt lat="47.501818" lon="11.134144"><ele>1214.25</ele></trkpt>
<trkpt lat="47.501892" lon="11.133943"><ele>1207.75</ele></trkpt>
<trkpt lat="47.501939" lon="11.133882"><ele>1206.5</ele></trkpt>
<trkpt lat="47.501997" lon="11.133791"><ele>1204.0</ele></trkpt>
<trkpt lat="47.502087" lon="11.133700"><ele>1202.0</ele></trkpt>
<trkpt lat="47.502112" lon="11.133635"><ele>1199.75</ele></trkpt>
<trkpt lat="47.502140" lon="11.133528"><ele>1197.5</ele></trkpt>
<trkpt lat="47.502146" lon="11.133465"><ele>1196.0</ele></trkpt>
<trkpt lat="47.502144" lon="11.133447"><ele>1195.5</ele></trkpt>
<trkpt lat="47.502134" lon="11.133431"><ele>1195.0</ele></trkpt>
<trkpt lat="47.502109" lon="11.133406"><ele>1193.75</ele></trkpt>
<trkpt lat="47.502116" lon="11.133332"><ele>1192.25</ele></trkpt>
<trkpt lat="47.502111" lon="11.133252"><ele>1190.5</ele></trkpt>
<trkpt lat="47.502001" lon="11.133116"><ele>1185.25</ele></trkpt>
<trkpt lat="47.501999" lon="11.133096"><ele>1184.75</ele></trkpt>
<trkpt lat="47.502022" lon="11.132917"><ele>1181.5</ele></trkpt>
<trkpt lat="47.501920" lon="11.132769"><ele>1176.5</ele></trkpt>
<trkpt lat="47.501912" lon="11.132659"><ele>1174.75</ele></trkpt>
<trkpt lat="47.501851" lon="11.132557"><ele>1172.25</ele></trkpt>
<trkpt lat="47.501814" lon="11.132343"><ele>1166.5</ele></trkpt>
<trkpt lat="47.501702" lon="11.132434"><ele>1167.75</ele></trkpt>
<trkpt lat="47.501670" lon="11.132386"><ele>1166.0</ele></trkpt>
<trkpt lat="47.501543" lon="11.132352"><ele>1162.75</ele></trkpt>
<trkpt lat="47.501415" lon="11.132207"><ele>1156.0</ele></trkpt>
<trkpt lat="47.501248" lon="11.132208"><ele>1151.0</ele></trkpt>
<trkpt lat="47.501183" lon="11.132168"><ele>1148.0</ele></trkpt>
<trkpt lat="47.501060" lon="11.132148"><ele>1144.5</ele></trkpt>
<trkpt lat="47.500970" lon="11.132082"><ele>1141.25</ele></trkpt>
<trkpt lat="47.500929" lon="11.132002"><ele>1139.0</ele></trkpt>
<trkpt lat="47.500712" lon="11.131934"><ele>1131.75</ele></trkpt>
<trkpt lat="47.500417" lon="11.131803"><ele>1120.5</ele></trkpt>
<trkpt lat="47.500357" lon="11.131822"><ele>1119.0</ele></trkpt>
<trkpt lat="47.500062" lon="11.131991"><ele>1112.25</ele></trkpt>
<trkpt lat="47.499937" lon="11.131942"><ele>1106.75</ele></trkpt>
<trkpt lat="47.500026" lon="11.131560"><ele>1100.0</ele></trkpt>
<trkpt lat="47.500029" lon="11.131430"><ele>1097.5</ele></trkpt>
<trkpt lat="47.499957" lon="11.131238"><ele>1092.5</ele></trkpt>
<trkpt lat="47.499953" lon="11.131173"><ele>1091.5</ele></trkpt>
<trkpt lat="47.499968" lon="11.131108"><ele>1091.0</ele></trkpt>
<trkpt lat="47.499952" lon="11.131053"><ele>1089.0</ele></trkpt>
<trkpt lat="47.499843" lon="11.130979"><ele>1084.75</ele></trkpt>
<trkpt lat="47.499777" lon="11.130629"><ele>1075.0</ele></trkpt>
<trkpt lat="47.499744" lon="11.130583"><ele>1074.25</ele></trkpt>
<trkpt lat="47.499615" lon="11.130554"><ele>1071.0</ele></trkpt>
<trkpt lat="47.499355" lon="11.130243"><ele>1058.25</ele></trkpt>
<trkpt lat="47.499338" lon="11.130106"><ele>1053.25</ele></trkpt>
<trkpt lat="47.499300" lon="11.130042"><ele>1051.0</ele></trkpt>
<trkpt lat="47.499208" lon="11.130042"><ele>1049.75</ele></trkpt>
<trkpt lat="47.499194" lon="11.130004"><ele>1049.25</ele></trkpt>
<trkpt lat="47.499207" lon="11.129938"><ele>1046.5</ele></trkpt>
<trkpt lat="47.499203" lon="11.129925"><ele>1046.0</ele></trkpt>
<trkpt lat="47.499124" lon="11.129919"><ele>1046.0</ele></trkpt>
<trkpt lat="47.498875" lon="11.130026"><ele>1050.5</ele></trkpt>
<trkpt lat="47.498709" lon="11.130083"><ele>1053.5</ele></trkpt>
<trkpt lat="47.498576" lon="11.130071"><ele>1054.5</ele></trkpt>
<trkpt lat="47.498492" lon="11.130100"><ele>1055.0</ele></trkpt>
<trkpt lat="47.498399" lon="11.130168"><ele>1056.0</ele></trkpt>
<trkpt lat="47.498368" lon="11.130236"><ele>1057.25</ele></trkpt>
<trkpt lat="47.498332" lon="11.130356"><ele>1059.0</ele></trkpt>
<trkpt lat="47.498283" lon="11.130427"><ele>1059.5</ele></trkpt>
<trkpt lat="47.498318" lon="11.130509"><ele>1063.0</ele></trkpt>
<trkpt lat="47.498283" lon="11.130427"><ele>1059.5</ele></trkpt>
<trkpt lat="47.498262" lon="11.130404"><ele>1058.75</ele></trkpt>
<trkpt lat="47.497959" lon="11.130261"><ele>1053.25</ele></trkpt>
<trkpt lat="47.497869" lon="11.130186"><ele>1050.5</ele></trkpt>
<trkpt lat="47.497753" lon="11.130110"><ele>1047.25</ele></trkpt>
<trkpt lat="47.497644" lon="11.130114"><ele>1044.25</ele></trkpt>
<trkpt lat="47.497619" lon="11.130091"><ele>1043.25</ele></trkpt>
<trkpt lat="47.497645" lon="11.129985"><ele>1041.75</ele></trkpt>
<trkpt lat="47.497664" lon="11.129838"><ele>1039.0</ele></trkpt>
<trkpt lat="47.497747" lon="11.129505"><ele>1033.5</ele></trkpt>
<trkpt lat="47.497825" lon="11.129301"><ele>1030.25</ele></trkpt>
<trkpt lat="47.497908" lon="11.129175"><ele>1027.5</ele></trkpt>
<trkpt lat="47.497969" lon="11.129142"><ele>1026.75</ele></trkpt>
<trkpt lat="47.497972" lon="11.129106"><ele>1025.25</ele></trkpt>
<trkpt lat="47.497929" lon="11.129053"><ele>1023.5</ele></trkpt>
<trkpt lat="47.497860" lon="11.129021"><ele>1022.75</ele></trkpt>
<trkpt lat="47.497736" lon="11.129059"><ele>1022.75</ele></trkpt>
<trkpt lat="47.497607" lon="11.129127"><ele>1020.25</ele></trkpt>
<trkpt lat="47.497513" lon="11.129191"><ele>1018.75</ele></trkpt>
<trkpt lat="47.497382" lon="11.129216"><ele>1014.75</ele></trkpt>
<trkpt lat="47.497255" lon="11.129302"><ele>1012.0</ele></trkpt>
<trkpt lat="47.497202" lon="11.129327"><ele>1010.25</ele></trkpt>
<trkpt lat="47.497136" lon="11.129388"><ele>1008.0</ele></trkpt>
<trkpt lat="47.497084" lon="11.129476"><ele>1007.75</ele></trkpt>
<trkpt lat="47.496984" lon="11.129554"><ele>1005.0</ele></trkpt>
<trkpt lat="47.496883" lon="11.129564"><ele>1000.75</ele></trkpt>
<trkpt lat="47.496648" lon="11.129756"><ele>996.75</ele></trkpt>
<trkpt lat="47.496382" lon="11.130047"><ele>990.25</ele></trkpt>
<trkpt lat="47.496369" lon="11.130042"><ele>989.5</ele></trkpt>
<trkpt lat="47.496370" lon="11.130015"><ele>989.25</ele></trkpt>
<trkpt lat="47.496418" lon="11.129874"><ele>988.0</ele></trkpt>
<trkpt lat="47.496449" lon="11.129719"><ele>985.75</ele></trkpt>
<trkpt lat="47.496476" lon="11.129497"><ele>982.0</ele></trkpt>
<trkpt lat="47.496430" lon="11.129488"><ele>980.0</ele></trkpt>
<trkpt lat="47.496309" lon="11.129611"><ele>977.5</ele></trkpt>
<trkpt lat="47.496240" lon="11.129658"><ele>975.5</ele></trkpt>
<trkpt lat="47.496116" lon="11.129823"><ele>973.25</ele></trkpt>
<trkpt lat="47.496059" lon="11.129843"><ele>970.75</ele></trkpt>
<trkpt lat="47.496075" lon="11.129702"><ele>969.75</ele></trkpt>
<trkpt lat="47.496140" lon="11.129502"><ele>967.75</ele></trkpt>
<trkpt lat="47.496132" lon="11.129457"><ele>966.25</ele></trkpt>
<trkpt lat="47.496071" lon="11.129480"><ele>964.0</ele></trkpt>
<trkpt lat="47.496007" lon="11.129585"><ele>964.0</ele></trkpt>
<trkpt lat="47.495890" lon="11.129610"><ele>959.5</ele></trkpt>
<trkpt lat="47.495825" lon="11.129657"><ele>958.0</ele></trkpt>
<trkpt lat="47.495710" lon="11.129830"><ele>956.0</ele></trkpt>
<trkpt lat="47.495372" lon="11.129984"><ele>947.0</ele></trkpt>
<trkpt lat="47.495465" lon="11.129906"><ele>948.25</ele></trkpt>
<trkpt lat="47.495522" lon="11.129810"><ele>948.75</ele></trkpt>
<trkpt lat="47.495589" lon="11.129739"><ele>950.25</ele></trkpt>
<trkpt lat="47.495605" lon="11.129689"><ele>950.5</ele></trkpt>
<trkpt lat="47.495609" lon="11.129560"><ele>949.25</ele></trkpt>
<trkpt lat="47.495586" lon="11.129476"><ele>947.75</ele></trkpt>
<trkpt lat="47.495618" lon="11.129396"><ele>946.75</ele></trkpt>
<trkpt lat="47.495631" lon="11.129308"><ele>944.0</ele></trkpt>
<trkpt lat="47.495531" lon="11.129322"><ele>942.75</ele></trkpt>
<trkpt lat="47.495496" lon="11.129286"><ele>941.25</ele></trkpt>
<trkpt lat="47.495515" lon="11.129129"><ele>937.75</ele></trkpt>
<trkpt lat="47.495447" lon="11.128974"><ele>933.5</ele></trkpt>
<trkpt lat="47.495413" lon="11.128991"><ele>934.0</ele></trkpt>
<trkpt lat="47.495350" lon="11.129075"><ele>936.0</ele></trkpt>
<trkpt lat="47.495261" lon="11.129220"><ele>936.25</ele></trkpt>
<trkpt lat="47.495350" lon="11.129075"><ele>936.0</ele></trkpt>
<trkpt lat="47.495413" lon="11.128991"><ele>934.0</ele></trkpt>
<trkpt lat="47.495447" lon="11.128974"><ele>933.5</ele></trkpt>
<trkpt lat="47.495533" lon="11.129062"><ele>935.75</ele></trkpt>
<trkpt lat="47.495627" lon="11.129105"><ele>937.5</ele></trkpt>
<trkpt lat="47.495697" lon="11.129089"><ele>937.25</ele></trkpt>
<trkpt lat="47.495733" lon="11.128988"><ele>934.25</ele></trkpt>
<trkpt lat="47.495809" lon="11.128912"><ele>931.75</ele></trkpt>
<trkpt lat="47.495894" lon="11.128558"><ele>922.0</ele></trkpt>
<trkpt lat="47.495921" lon="11.128418"><ele>918.75</ele></trkpt>
<trkpt lat="47.496087" lon="11.128420"><ele>925.0</ele></trkpt>
<trkpt lat="47.496112" lon="11.128344"><ele>923.25</ele></trkpt>
<trkpt lat="47.496072" lon="11.128077"><ele>920.25</ele></trkpt>
<trkpt lat="47.496052" lon="11.127784"><ele>912.25</ele></trkpt>
<trkpt lat="47.496056" lon="11.127647"><ele>910.25</ele></trkpt>
<trkpt lat="47.496148" lon="11.127498"><ele>909.5</ele></trkpt>
<trkpt lat="47.496422" lon="11.127307"><ele>902.25</ele></trkpt>
<trkpt lat="47.496489" lon="11.127097"><ele>898.25</ele></trkpt>
<trkpt lat="47.496313" lon="11.127006"><ele>892.5</ele></trkpt>
<trkpt lat="47.496263" lon="11.126935"><ele>890.0</ele></trkpt>
<trkpt lat="47.496341" lon="11.126809"><ele>886.5</ele></trkpt>
<trkpt lat="47.496486" lon="11.126662"><ele>887.0</ele></trkpt>
<trkpt lat="47.496517" lon="11.126457"><ele>882.25</ele></trkpt>
<trkpt lat="47.496429" lon="11.126425"><ele>877.75</ele></trkpt>
<trkpt lat="47.496377" lon="11.126452"><ele>876.25</ele></trkpt>
<trkpt lat="47.496309" lon="11.126506"><ele>875.75</ele></trkpt>
<trkpt lat="47.496215" lon="11.126378"><ele>867.5</ele></trkpt>
<trkpt lat="47.496283" lon="11.126205"><ele>863.0</ele></trkpt>
<trkpt lat="47.496424" lon="11.126065"><ele>862.75</ele></trkpt>
<trkpt lat="47.496207" lon="11.126015"><ele>854.5</ele></trkpt>
<trkpt lat="47.496174" lon="11.125931"><ele>851.25</ele></trkpt>
<trkpt lat="47.496246" lon="11.125888"><ele>851.5</ele></trkpt>
<trkpt lat="47.496346" lon="11.125734"><ele>848.25</ele></trkpt>
<trkpt lat="47.496136" lon="11.125624"><ele>839.25</ele></trkpt>
<trkpt lat="47.496089" lon="11.125546"><ele>836.0</ele></trkpt>
<trkpt lat="47.496093" lon="11.125466"><ele>832.0</ele></trkpt>
<trkpt lat="47.496033" lon="11.125436"><ele>832.5</ele></trkpt>
<trkpt lat="47.495950" lon="11.125266"><ele>827.5</ele></trkpt>
<trkpt lat="47.495909" lon="11.125223"><ele>826.5</ele></trkpt>
<trkpt lat="47.495944" lon="11.125162"><ele>821.75</ele></trkpt>
<trkpt lat="47.496008" lon="11.125105"><ele>816.25</ele></trkpt>
<trkpt lat="47.495964" lon="11.125079"><ele>816.25</ele></trkpt>
<trkpt lat="47.496009" lon="11.125032"><ele>812.25</ele></trkpt>
<trkpt lat="47.495950" lon="11.124850"><ele>805.25</ele></trkpt>
<trkpt lat="47.495783" lon="11.124853"><ele>806.25</ele></trkpt>
<trkpt lat="47.495595" lon="11.124966"><ele>804.5</ele></trkpt>
<trkpt lat="47.495547" lon="11.124923"><ele>801.75</ele></trkpt>
<trkpt lat="47.495470" lon="11.124985"><ele>798.75</ele></trkpt>
<trkpt lat="47.495461" lon="11.125112"><ele>801.75</ele></trkpt>
<trkpt lat="47.495399" lon="11.125228"><ele>801.5</ele></trkpt>
<trkpt lat="47.495417" lon="11.125079"><ele>798.25</ele></trkpt>
<trkpt lat="47.495292" lon="11.125098"><ele>791.5</ele></trkpt>
<trkpt lat="47.495211" lon="11.125168"><ele>797.5</ele></trkpt>
<trkpt lat="47.495303" lon="11.124985"><ele>789.0</ele></trkpt>
<trkpt lat="47.495328" lon="11.124834"><ele>788.25</ele></trkpt>
<trkpt lat="47.495388" lon="11.124798"><ele>790.75</ele></trkpt>
<trkpt lat="47.495540" lon="11.124534"><ele>789.25</ele></trkpt>
<trkpt lat="47.495611" lon="11.124378"><ele>790.0</ele></trkpt>
<trkpt lat="47.495502" lon="11.124322"><ele>789.5</ele></trkpt>
<trkpt lat="47.495352" lon="11.124270"><ele>786.0</ele></trkpt>
<trkpt lat="47.495242" lon="11.124179"><ele>785.0</ele></trkpt>
<trkpt lat="47.495078" lon="11.123951"><ele>781.75</ele></trkpt>
<trkpt lat="47.495015" lon="11.123725"><ele>776.0</ele></trkpt>
<trkpt lat="47.495037" lon="11.123478"><ele>776.75</ele></trkpt>
<trkpt lat="47.495092" lon="11.123347"><ele>778.25</ele></trkpt>
<trkpt lat="47.495206" lon="11.123144"><ele>779.0</ele></trkpt>
<trkpt lat="47.495219" lon="11.122809"><ele>775.0</ele></trkpt>
<trkpt lat="47.495172" lon="11.122587"><ele>774.5</ele></trkpt>
<trkpt lat="47.495168" lon="11.122100"><ele>771.5</ele></trkpt>
<trkpt lat="47.495152" lon="11.121393"><ele>770.25</ele></trkpt>
<trkpt lat="47.495183" lon="11.121250"><ele>768.0</ele></trkpt>
<trkpt lat="47.495137" lon="11.120708"><ele>763.0</ele></trkpt>
<trkpt lat="47.495029" lon="11.120364"><ele>760.25</ele></trkpt>
<trkpt lat="47.494944" lon="11.120164"><ele>761.25</ele></trkpt>
<trkpt lat="47.494880" lon="11.119948"><ele>762.0</ele></trkpt>
<trkpt lat="47.494860" lon="11.119725"><ele>761.0</ele></trkpt>
<trkpt lat="47.494842" lon="11.119616"><ele>760.0</ele></trkpt>
<trkpt lat="47.494781" lon="11.119519"><ele>758.25</ele></trkpt>
<trkpt lat="47.494610" lon="11.119532"><ele>755.25</ele></trkpt>
<trkpt lat="47.494491" lon="11.119586"><ele>754.25</ele></trkpt>
<trkpt lat="47.494449" lon="11.119597"><ele>753.75</ele></trkpt>
<trkpt lat="47.494393" lon="11.119585"><ele>754.0</ele></trkpt>
<trkpt lat="47.494290" lon="11.119471"><ele>750.75</ele></trkpt>
<trkpt lat="47.494245" lon="11.119376"><ele>749.75</ele></trkpt>
<trkpt lat="47.494256" lon="11.119106"><ele>750.0</ele></trkpt>
<trkpt lat="47.494254" lon="11.118618"><ele>747.75</ele></trkpt>
<trkpt lat="47.494217" lon="11.118516"><ele>745.5</ele></trkpt>
<trkpt lat="47.494189" lon="11.118193"><ele>743.75</ele></trkpt>
<trkpt lat="47.494188" lon="11.118002"><ele>743.5</ele></trkpt>
<trkpt lat="47.494342" lon="11.117579"><ele>743.75</ele></trkpt>
<trkpt lat="47.494378" lon="11.117502"><ele>742.5</ele></trkpt>
<trkpt lat="47.494425" lon="11.117335"><ele>741.0</ele></trkpt>
<trkpt lat="47.494434" lon="11.117262"><ele>740.25</ele></trkpt>
<trkpt lat="47.494422" lon="11.117033"><ele>738.0</ele></trkpt>
<trkpt lat="47.494407" lon="11.116922"><ele>737.0</ele></trkpt>
<trkpt lat="47.494405" lon="11.116651"><ele>736.75</ele></trkpt>
<trkpt lat="47.494396" lon="11.116552"><ele>736.5</ele></trkpt>
<trkpt lat="47.494389" lon="11.116528"><ele>736.5</ele></trkpt>
<trkpt lat="47.494336" lon="11.116431"><ele>736.0</ele></trkpt>
<trkpt lat="47.494306" lon="11.116318"><ele>735.25</ele></trkpt>
<trkpt lat="47.494307" lon="11.116246"><ele>734.75</ele></trkpt>
<trkpt lat="47.494318" lon="11.116194"><ele>734.5</ele></trkpt>
<trkpt lat="47.494344" lon="11.116123"><ele>734.0</ele></trkpt>
<trkpt lat="47.494450" lon="11.115872"><ele>732.25</ele></trkpt>
<trkpt lat="47.494519" lon="11.115730"><ele>731.5</ele></trkpt>
<trkpt lat="47.494776" lon="11.115315"><ele>730.0</ele></trkpt>
<trkpt lat="47.494807" lon="11.115245"><ele>730.25</ele></trkpt>
<trkpt lat="47.494826" lon="11.115181"><ele>730.5</ele></trkpt>
<trkpt lat="47.494884" lon="11.114915"><ele>729.5</ele></trkpt>
<trkpt lat="47.494974" lon="11.114396"><ele>726.75</ele></trkpt>
<trkpt lat="47.495008" lon="11.114188"><ele>726.0</ele></trkpt>
<trkpt lat="47.495100" lon="11.113744"><ele>726.0</ele></trkpt>
<trkpt lat="47.495083" lon="11.113603"><ele>725.5</ele></trkpt>
<trkpt lat="47.495094" lon="11.113456"><ele>724.75</ele></trkpt>
<trkpt lat="47.495120" lon="11.113291"><ele>724.25</ele></trkpt>
<trkpt lat="47.495150" lon="11.113105"><ele>723.5</ele></trkpt>
<trkpt lat="47.495204" lon="11.112722"><ele>723.0</ele></trkpt>
<trkpt lat="47.495215" lon="11.112576"><ele>722.25</ele></trkpt>
<trkpt lat="47.495208" lon="11.112363"><ele>721.5</ele></trkpt>
<trkpt lat="47.495178" lon="11.112275"><ele>721.25</ele></trkpt>
<trkpt lat="47.495146" lon="11.112151"><ele>720.75</ele></trkpt>
<trkpt lat="47.495139" lon="11.111985"><ele>720.5</ele></trkpt>
<trkpt lat="47.495044" lon="11.111802"><ele>719.5</ele></trkpt>
<trkpt lat="47.494914" lon="11.111567"><ele>718.75</ele></trkpt>
<trkpt lat="47.494841" lon="11.111436"><ele>718.5</ele></trkpt>
<trkpt lat="47.494723" lon="11.111191"><ele>717.25</ele></trkpt>
<trkpt lat="47.494678" lon="11.110951"><ele>716.75</ele></trkpt>
<trkpt lat="47.494614" lon="11.110735"><ele>716.25</ele></trkpt>
<trkpt lat="47.494598" lon="11.110642"><ele>715.75</ele></trkpt>
<trkpt lat="47.494561" lon="11.110470"><ele>715.25</ele></trkpt>
<trkpt lat="47.494496" lon="11.110292"><ele>715.0</ele></trkpt>
<trkpt lat="47.494483" lon="11.110159"><ele>714.5</ele></trkpt>
<trkpt lat="47.494786" lon="11.109655"><ele>712.75</ele></trkpt>
<trkpt lat="47.494817" lon="11.109601"><ele>712.5</ele></trkpt>
<trkpt lat="47.494937" lon="11.109403"><ele>712.0</ele></trkpt>
<trkpt lat="47.495045" lon="11.109250"><ele>711.25</ele></trkpt>
<trkpt lat="47.495195" lon="11.109042"><ele>710.5</ele></trkpt>
<trkpt lat="47.495229" lon="11.108997"><ele>710.25</ele></trkpt>
<trkpt lat="47.495268" lon="11.108959"><ele>710.25</ele></trkpt>
<trkpt lat="47.495251" lon="11.108916"><ele>710.0</ele></trkpt>
<trkpt lat="47.495215" lon="11.108830"><ele>709.75</ele></trkpt>
<trkpt lat="47.495193" lon="11.108669"><ele>709.75</ele></trkpt>
<trkpt lat="47.495180" lon="11.108506"><ele>709.25</ele></trkpt>
<trkpt lat="47.495285" lon="11.108288"><ele>709.0</ele></trkpt>
<trkpt lat="47.495340" lon="11.108059"><ele>709.0</ele></trkpt>
<trkpt lat="47.495421" lon="11.107841"><ele>708.5</ele></trkpt>
<trkpt lat="47.495491" lon="11.107656"><ele>708.25</ele></trkpt>
<trkpt lat="47.495637" lon="11.107373"><ele>708.0</ele></trkpt>
<trkpt lat="47.496001" lon="11.106496"><ele>706.25</ele></trkpt>
<trkpt lat="47.496080" lon="11.106308"><ele>706.0</ele></trkpt>
<trkpt lat="47.496547" lon="11.105294"><ele>704.25</ele></trkpt>
<trkpt lat="47.496683" lon="11.104859"><ele>704.0</ele></trkpt>
<trkpt lat="47.496543" lon="11.104668"><ele>704.0</ele></trkpt>
<trkpt lat="47.496371" lon="11.104467"><ele>704.0</ele></trkpt>
<trkpt lat="47.496321" lon="11.104381"><ele>703.5</ele></trkpt>
</trkseg></trk>
</gpx>
