<?xml version="1.0" encoding="UTF-8"?>
<gpx version="1.1" creator="Garmisch 2026" xmlns="http://www.topografix.com/GPX/1/1">
<metadata><name>Sestdiena - Kores aplis (10,1 km)</name></metadata>
<wpt lat="47.469496" lon="11.119331"><name>Partnachklamm kase</name></wpt>
<wpt lat="47.465695" lon="11.133035"><name>Eckbauerbahn augšstacija / Berggasthof Eckbauer</name></wpt>
<wpt lat="47.4743" lon="11.169"><name>Wamberg</name></wpt>
<wpt lat="47.48166" lon="11.11913"><name>Eckbauerbahn lejas stacija</name></wpt>
<wpt lat="47.49597" lon="11.10482"><name>Mājas</name></wpt>
<wpt lat="47.4914" lon="11.09759"><name>Garmisch-Partenkirchen stacija</name></wpt>
<wpt lat="47.49331" lon="11.08588"><name>Vakariņas: Gasthaus zur Schranne 19:15</name></wpt>
<trk><name>Sestdiena - Kores aplis (10,1 km)</name><trkseg><trkpt lat="47.465695" lon="11.133035"><ele>1217</ele></trkpt><trkpt lat="47.465703" lon="11.133251"><ele>1216</ele></trkpt><trkpt lat="47.465744" lon="11.133285"><ele>1216</ele></trkpt><trkpt lat="47.465894" lon="11.133302"><ele>1217</ele></trkpt><trkpt lat="47.465952" lon="11.133341"><ele>1218</ele></trkpt><trkpt lat="47.466062" lon="11.133478"><ele>1220</ele></trkpt><trkpt lat="47.466125" lon="11.134359"><ele>1223</ele></trkpt><trkpt lat="47.466175" lon="11.134540"><ele>1224</ele></trkpt><trkpt lat="47.466302" lon="11.134859"><ele>1225</ele></trkpt><trkpt lat="47.466404" lon="11.135050"><ele>1226</ele></trkpt><trkpt lat="47.466570" lon="11.135336"><ele>1226</ele></trkpt><trkpt lat="47.466600" lon="11.135412"><ele>1226</ele></trkpt><trkpt lat="47.466666" lon="11.135517"><ele>1225</ele></trkpt><trkpt lat="47.466929" lon="11.135725"><ele>1224</ele></trkpt><trkpt lat="47.467007" lon="11.135810"><ele>1224</ele></trkpt><trkpt lat="47.467007" lon="11.135810"><ele>1224</ele></trkpt><trkpt lat="47.466994" lon="11.135839"><ele>1223</ele></trkpt><trkpt lat="47.466921" lon="11.135996"><ele>1223</ele></trkpt><trkpt lat="47.466695" lon="11.136312"><ele>1222</ele></trkpt><trkpt lat="47.466767" lon="11.136620"><ele>1224</ele></trkpt><trkpt lat="47.466777" lon="11.136657"><ele>1226</ele></trkpt><trkpt lat="47.466847" lon="11.136901"><ele>1227</ele></trkpt><trkpt lat="47.466880" lon="11.136956"><ele>1227</ele></trkpt><trkpt lat="47.467017" lon="11.137085"><ele>1228</ele></trkpt><trkpt lat="47.467071" lon="11.137215"><ele>1229</ele></trkpt><trkpt lat="47.467090" lon="11.137305"><ele>1230</ele></trkpt><trkpt lat="47.467161" lon="11.137727"><ele>1227</ele></trkpt><trkpt lat="47.467200" lon="11.137958"><ele>1225</ele></trkpt><trkpt lat="47.467227" lon="11.138079"><ele>1224</ele></trkpt><trkpt lat="47.467328" lon="11.138359"><ele>1221</ele></trkpt><trkpt lat="47.467353" lon="11.138496"><ele>1220</ele></trkpt><trkpt lat="47.467365" lon="11.138708"><ele>1219</ele></trkpt><trkpt lat="47.467340" lon="11.138973"><ele>1217</ele></trkpt><trkpt lat="47.467315" lon="11.139609"><ele>1212</ele></trkpt><trkpt lat="47.467315" lon="11.139783"><ele>1211</ele></trkpt><trkpt lat="47.467341" lon="11.139993"><ele>1209</ele></trkpt><trkpt lat="47.467369" lon="11.140223"><ele>1207</ele></trkpt><trkpt lat="47.467545" lon="11.140886"><ele>1205</ele></trkpt><trkpt lat="47.467547" lon="11.140891"><ele>1202</ele></trkpt><trkpt lat="47.467574" lon="11.141338"><ele>1199</ele></trkpt><trkpt lat="47.467609" lon="11.141621"><ele>1196</ele></trkpt><trkpt lat="47.467584" lon="11.141879"><ele>1194</ele></trkpt><trkpt lat="47.467585" lon="11.141886"><ele>1193</ele></trkpt><trkpt lat="47.467662" lon="11.142204"><ele>1192</ele></trkpt><trkpt lat="47.467704" lon="11.142572"><ele>1189</ele></trkpt><trkpt lat="47.467750" lon="11.142706"><ele>1188</ele></trkpt><trkpt lat="47.467953" lon="11.142851"><ele>1190</ele></trkpt><trkpt lat="47.468029" lon="11.142984"><ele>1191</ele></trkpt><trkpt lat="47.468157" lon="11.143084"><ele>1192</ele></trkpt><trkpt lat="47.468193" lon="11.143151"><ele>1192</ele></trkpt><trkpt lat="47.468220" lon="11.143277"><ele>1193</ele></trkpt><trkpt lat="47.468337" lon="11.143528"><ele>1195</ele></trkpt><trkpt lat="47.468355" lon="11.143576"><ele>1196</ele></trkpt><trkpt lat="47.468355" lon="11.143576"><ele>1196</ele></trkpt><trkpt lat="47.468492" lon="11.143948"><ele>1198</ele></trkpt><trkpt lat="47.468580" lon="11.144123"><ele>1200</ele></trkpt><trkpt lat="47.468680" lon="11.144434"><ele>1202</ele></trkpt><trkpt lat="47.468760" lon="11.144591"><ele>1202</ele></trkpt><trkpt lat="47.469003" lon="11.144938"><ele>1197</ele></trkpt><trkpt lat="47.469035" lon="11.145163"><ele>1194</ele></trkpt><trkpt lat="47.469089" lon="11.145322"><ele>1193</ele></trkpt><trkpt lat="47.469206" lon="11.145472"><ele>1190</ele></trkpt><trkpt lat="47.469319" lon="11.145660"><ele>1188</ele></trkpt><trkpt lat="47.469344" lon="11.145767"><ele>1188</ele></trkpt><trkpt lat="47.469392" lon="11.145860"><ele>1187</ele></trkpt><trkpt lat="47.469473" lon="11.145958"><ele>1186</ele></trkpt><trkpt lat="47.469653" lon="11.146072"><ele>1184</ele></trkpt><trkpt lat="47.469702" lon="11.146138"><ele>1184</ele></trkpt><trkpt lat="47.469720" lon="11.146230"><ele>1183</ele></trkpt><trkpt lat="47.469725" lon="11.146480"><ele>1181</ele></trkpt><trkpt lat="47.469747" lon="11.146582"><ele>1180</ele></trkpt><trkpt lat="47.469783" lon="11.146656"><ele>1180</ele></trkpt><trkpt lat="47.469872" lon="11.146775"><ele>1178</ele></trkpt><trkpt lat="47.469988" lon="11.146841"><ele>1177</ele></trkpt><trkpt lat="47.470087" lon="11.146919"><ele>1176</ele></trkpt><trkpt lat="47.470191" lon="11.147000"><ele>1175</ele></trkpt><trkpt lat="47.470172" lon="11.147027"><ele>1173</ele></trkpt><trkpt lat="47.470070" lon="11.147175"><ele>1172</ele></trkpt><trkpt lat="47.469958" lon="11.147384"><ele>1169</ele></trkpt><trkpt lat="47.469811" lon="11.147845"><ele>1164</ele></trkpt><trkpt lat="47.469812" lon="11.147975"><ele>1162</ele></trkpt><trkpt lat="47.469812" lon="11.148050"><ele>1161</ele></trkpt><trkpt lat="47.469897" lon="11.148521"><ele>1153</ele></trkpt><trkpt lat="47.469922" lon="11.148794"><ele>1146</ele></trkpt><trkpt lat="47.470082" lon="11.149321"><ele>1143</ele></trkpt><trkpt lat="47.470087" lon="11.149363"><ele>1142</ele></trkpt><trkpt lat="47.470104" lon="11.149515"><ele>1142</ele></trkpt><trkpt lat="47.470090" lon="11.149705"><ele>1140</ele></trkpt><trkpt lat="47.470097" lon="11.149862"><ele>1140</ele></trkpt><trkpt lat="47.470170" lon="11.150132"><ele>1138</ele></trkpt><trkpt lat="47.470149" lon="11.150467"><ele>1136</ele></trkpt><trkpt lat="47.470192" lon="11.150670"><ele>1134</ele></trkpt><trkpt lat="47.470187" lon="11.150811"><ele>1134</ele></trkpt><trkpt lat="47.470141" lon="11.150934"><ele>1133</ele></trkpt><trkpt lat="47.470105" lon="11.151029"><ele>1133</ele></trkpt><trkpt lat="47.470259" lon="11.151568"><ele>1136</ele></trkpt><trkpt lat="47.470321" lon="11.152251"><ele>1143</ele></trkpt><trkpt lat="47.470312" lon="11.152318"><ele>1145</ele></trkpt><trkpt lat="47.470290" lon="11.152482"><ele>1146</ele></trkpt><trkpt lat="47.470207" lon="11.152661"><ele>1148</ele></trkpt><trkpt lat="47.470134" lon="11.152886"><ele>1151</ele></trkpt><trkpt lat="47.470082" lon="11.153323"><ele>1156</ele></trkpt><trkpt lat="47.470099" lon="11.153532"><ele>1158</ele></trkpt><trkpt lat="47.470103" lon="11.153551"><ele>1159</ele></trkpt><trkpt lat="47.470147" lon="11.153746"><ele>1161</ele></trkpt><trkpt lat="47.470256" lon="11.153991"><ele>1164</ele></trkpt><trkpt lat="47.470499" lon="11.154404"><ele>1170</ele></trkpt><trkpt lat="47.470571" lon="11.154656"><ele>1173</ele></trkpt><trkpt lat="47.470640" lon="11.155246"><ele>1174</ele></trkpt><trkpt lat="47.470647" lon="11.155300"><ele>1176</ele></trkpt><trkpt lat="47.470659" lon="11.156376"><ele>1180</ele></trkpt><trkpt lat="47.470662" lon="11.156632"><ele>1184</ele></trkpt><trkpt lat="47.470770" lon="11.157367"><ele>1188</ele></trkpt><trkpt lat="47.470922" lon="11.157814"><ele>1191</ele></trkpt><trkpt lat="47.470977" lon="11.158023"><ele>1192</ele></trkpt><trkpt lat="47.471001" lon="11.158310"><ele>1193</ele></trkpt><trkpt lat="47.471001" lon="11.158316"><ele>1194</ele></trkpt><trkpt lat="47.470988" lon="11.158762"><ele>1197</ele></trkpt><trkpt lat="47.470895" lon="11.159478"><ele>1199</ele></trkpt><trkpt lat="47.470884" lon="11.159557"><ele>1202</ele></trkpt><trkpt lat="47.470881" lon="11.159756"><ele>1202</ele></trkpt><trkpt lat="47.470901" lon="11.160222"><ele>1203</ele></trkpt><trkpt lat="47.470929" lon="11.160411"><ele>1203</ele></trkpt><trkpt lat="47.470950" lon="11.160557"><ele>1203</ele></trkpt><trkpt lat="47.471073" lon="11.161089"><ele>1203</ele></trkpt><trkpt lat="47.471201" lon="11.161487"><ele>1204</ele></trkpt><trkpt lat="47.471365" lon="11.161920"><ele>1204</ele></trkpt><trkpt lat="47.471437" lon="11.162273"><ele>1204</ele></trkpt><trkpt lat="47.471530" lon="11.162513"><ele>1205</ele></trkpt><trkpt lat="47.471680" lon="11.162766"><ele>1205</ele></trkpt><trkpt lat="47.471757" lon="11.162857"><ele>1205</ele></trkpt><trkpt lat="47.471886" lon="11.163008"><ele>1205</ele></trkpt><trkpt lat="47.471974" lon="11.163197"><ele>1206</ele></trkpt><trkpt lat="47.471978" lon="11.163206"><ele>1206</ele></trkpt><trkpt lat="47.472016" lon="11.163390"><ele>1206</ele></trkpt><trkpt lat="47.472030" lon="11.163684"><ele>1207</ele></trkpt><trkpt lat="47.472082" lon="11.164118"><ele>1208</ele></trkpt><trkpt lat="47.472204" lon="11.164731"><ele>1210</ele></trkpt><trkpt lat="47.472318" lon="11.165190"><ele>1211</ele></trkpt><trkpt lat="47.472336" lon="11.165405"><ele>1211</ele></trkpt><trkpt lat="47.472327" lon="11.165542"><ele>1212</ele></trkpt><trkpt lat="47.472289" lon="11.166107"><ele>1213</ele></trkpt><trkpt lat="47.472242" lon="11.166458"><ele>1214</ele></trkpt><trkpt lat="47.472247" lon="11.166850"><ele>1212</ele></trkpt><trkpt lat="47.472203" lon="11.167213"><ele>1209</ele></trkpt><trkpt lat="47.472016" lon="11.167962"><ele>1206</ele></trkpt><trkpt lat="47.471982" lon="11.168101"><ele>1203</ele></trkpt><trkpt lat="47.471953" lon="11.168404"><ele>1201</ele></trkpt><trkpt lat="47.471972" lon="11.169500"><ele>1196</ele></trkpt><trkpt lat="47.471984" lon="11.170205"><ele>1190</ele></trkpt><trkpt lat="47.471955" lon="11.170894"><ele>1186</ele></trkpt><trkpt lat="47.471910" lon="11.171269"><ele>1183</ele></trkpt><trkpt lat="47.471858" lon="11.171474"><ele>1183</ele></trkpt><trkpt lat="47.471487" lon="11.172511"><ele>1186</ele></trkpt><trkpt lat="47.471459" lon="11.172651"><ele>1187</ele></trkpt><trkpt lat="47.471452" lon="11.172783"><ele>1187</ele></trkpt><trkpt lat="47.471522" lon="11.173575"><ele>1190</ele></trkpt><trkpt lat="47.471523" lon="11.173590"><ele>1190</ele></trkpt><trkpt lat="47.471562" lon="11.173892"><ele>1191</ele></trkpt><trkpt lat="47.471649" lon="11.174209"><ele>1192</ele></trkpt><trkpt lat="47.471812" lon="11.174747"><ele>1193</ele></trkpt><trkpt lat="47.471827" lon="11.174797"><ele>1194</ele></trkpt><trkpt lat="47.472021" lon="11.175360"><ele>1196</ele></trkpt><trkpt lat="47.472129" lon="11.175591"><ele>1197</ele></trkpt><trkpt lat="47.472152" lon="11.175608"><ele>1196</ele></trkpt><trkpt lat="47.472228" lon="11.175665"><ele>1196</ele></trkpt><trkpt lat="47.472333" lon="11.175692"><ele>1196</ele></trkpt><trkpt lat="47.472493" lon="11.175706"><ele>1194</ele></trkpt><trkpt lat="47.472783" lon="11.175693"><ele>1193</ele></trkpt><trkpt lat="47.472833" lon="11.175726"><ele>1192</ele></trkpt><trkpt lat="47.472879" lon="11.175756"><ele>1192</ele></trkpt><trkpt lat="47.473150" lon="11.176184"><ele>1195</ele></trkpt><trkpt lat="47.473246" lon="11.176419"><ele>1197</ele></trkpt><trkpt lat="47.473294" lon="11.176614"><ele>1199</ele></trkpt><trkpt lat="47.473299" lon="11.176676"><ele>1200</ele></trkpt><trkpt lat="47.473311" lon="11.176843"><ele>1201</ele></trkpt><trkpt lat="47.473303" lon="11.177373"><ele>1205</ele></trkpt><trkpt lat="47.473383" lon="11.177957"><ele>1209</ele></trkpt><trkpt lat="47.473404" lon="11.178380"><ele>1213</ele></trkpt><trkpt lat="47.473448" lon="11.178673"><ele>1215</ele></trkpt><trkpt lat="47.473546" lon="11.178994"><ele>1218</ele></trkpt><trkpt lat="47.473614" lon="11.179282"><ele>1220</ele></trkpt><trkpt lat="47.473665" lon="11.179715"><ele>1224</ele></trkpt><trkpt lat="47.473691" lon="11.180107"><ele>1227</ele></trkpt><trkpt lat="47.473674" lon="11.180625"><ele>1231</ele></trkpt><trkpt lat="47.473698" lon="11.180875"><ele>1232</ele></trkpt><trkpt lat="47.473778" lon="11.181051"><ele>1234</ele></trkpt><trkpt lat="47.473785" lon="11.181068"><ele>1234</ele></trkpt><trkpt lat="47.473820" lon="11.181143"><ele>1235</ele></trkpt><trkpt lat="47.474169" lon="11.181925"><ele>1234</ele></trkpt><trkpt lat="47.474201" lon="11.181998"><ele>1232</ele></trkpt><trkpt lat="47.474295" lon="11.182168"><ele>1231</ele></trkpt><trkpt lat="47.474585" lon="11.182484"><ele>1230</ele></trkpt><trkpt lat="47.474929" lon="11.183001"><ele>1228</ele></trkpt><trkpt lat="47.475381" lon="11.183317"><ele>1225</ele></trkpt><trkpt lat="47.475481" lon="11.183472"><ele>1225</ele></trkpt><trkpt lat="47.475529" lon="11.183579"><ele>1224</ele></trkpt><trkpt lat="47.475538" lon="11.183624"><ele>1224</ele></trkpt><trkpt lat="47.475551" lon="11.183689"><ele>1224</ele></trkpt><trkpt lat="47.475590" lon="11.184183"><ele>1222</ele></trkpt><trkpt lat="47.475664" lon="11.184590"><ele>1222</ele></trkpt><trkpt lat="47.475590" lon="11.184648"><ele>1222</ele></trkpt><trkpt lat="47.475207" lon="11.184844"><ele>1220</ele></trkpt><trkpt lat="47.475036" lon="11.184954"><ele>1219</ele></trkpt><trkpt lat="47.474988" lon="11.185037"><ele>1218</ele></trkpt><trkpt lat="47.474966" lon="11.185100"><ele>1214</ele></trkpt><trkpt lat="47.474624" lon="11.186064"><ele>1209</ele></trkpt><trkpt lat="47.474621" lon="11.186075"><ele>1207</ele></trkpt><trkpt lat="47.474536" lon="11.186421"><ele>1206</ele></trkpt><trkpt lat="47.474533" lon="11.186516"><ele>1205</ele></trkpt><trkpt lat="47.474552" lon="11.186560"><ele>1204</ele></trkpt><trkpt lat="47.474679" lon="11.186837"><ele>1203</ele></trkpt><trkpt lat="47.474811" lon="11.187074"><ele>1200</ele></trkpt><trkpt lat="47.475062" lon="11.187239"><ele>1198</ele></trkpt><trkpt lat="47.475085" lon="11.187254"><ele>1195</ele></trkpt><trkpt lat="47.475152" lon="11.187325"><ele>1194</ele></trkpt><trkpt lat="47.475159" lon="11.187389"><ele>1194</ele></trkpt><trkpt lat="47.475140" lon="11.187444"><ele>1193</ele></trkpt><trkpt lat="47.475057" lon="11.187560"><ele>1191</ele></trkpt><trkpt lat="47.474921" lon="11.187667"><ele>1190</ele></trkpt><trkpt lat="47.474783" lon="11.187745"><ele>1190</ele></trkpt><trkpt lat="47.474781" lon="11.187746"><ele>1189</ele></trkpt><trkpt lat="47.474738" lon="11.187752"><ele>1189</ele></trkpt><trkpt lat="47.474584" lon="11.187839"><ele>1188</ele></trkpt><trkpt lat="47.474509" lon="11.187879"><ele>1187</ele></trkpt><trkpt lat="47.474451" lon="11.187857"><ele>1186</ele></trkpt><trkpt lat="47.474412" lon="11.187855"><ele>1185</ele></trkpt><trkpt lat="47.474401" lon="11.187861"><ele>1185</ele></trkpt><trkpt lat="47.474308" lon="11.187886"><ele>1184</ele></trkpt><trkpt lat="47.474293" lon="11.187903"><ele>1184</ele></trkpt><trkpt lat="47.474322" lon="11.188058"><ele>1181</ele></trkpt><trkpt lat="47.474331" lon="11.188108"><ele>1180</ele></trkpt><trkpt lat="47.474331" lon="11.188108"><ele>1181</ele></trkpt><trkpt lat="47.474333" lon="11.188122"><ele>1179</ele></trkpt><trkpt lat="47.474331" lon="11.188108"><ele>1181</ele></trkpt><trkpt lat="47.474293" lon="11.187903"><ele>1184</ele></trkpt><trkpt lat="47.474308" lon="11.187886"><ele>1184</ele></trkpt><trkpt lat="47.474401" lon="11.187861"><ele>1185</ele></trkpt><trkpt lat="47.474412" lon="11.187855"><ele>1185</ele></trkpt><trkpt lat="47.474451" lon="11.187857"><ele>1186</ele></trkpt><trkpt lat="47.474509" lon="11.187879"><ele>1186</ele></trkpt><trkpt lat="47.474584" lon="11.187839"><ele>1187</ele></trkpt><trkpt lat="47.474610" lon="11.187824"><ele>1189</ele></trkpt><trkpt lat="47.474584" lon="11.187839"><ele>1188</ele></trkpt><trkpt lat="47.474610" lon="11.187824"><ele>1189</ele></trkpt><trkpt lat="47.474738" lon="11.187752"><ele>1189</ele></trkpt><trkpt lat="47.474781" lon="11.187746"><ele>1189</ele></trkpt><trkpt lat="47.474921" lon="11.187667"><ele>1190</ele></trkpt><trkpt lat="47.475057" lon="11.187560"><ele>1191</ele></trkpt><trkpt lat="47.475140" lon="11.187444"><ele>1193</ele></trkpt><trkpt lat="47.475159" lon="11.187389"><ele>1194</ele></trkpt><trkpt lat="47.475157" lon="11.187370"><ele>1194</ele></trkpt><trkpt lat="47.475152" lon="11.187325"><ele>1194</ele></trkpt><trkpt lat="47.475085" lon="11.187254"><ele>1195</ele></trkpt><trkpt lat="47.474811" lon="11.187074"><ele>1200</ele></trkpt><trkpt lat="47.474679" lon="11.186837"><ele>1203</ele></trkpt><trkpt lat="47.474565" lon="11.186590"><ele>1204</ele></trkpt><trkpt lat="47.474552" lon="11.186560"><ele>1204</ele></trkpt><trkpt lat="47.474533" lon="11.186516"><ele>1205</ele></trkpt><trkpt lat="47.474536" lon="11.186421"><ele>1206</ele></trkpt><trkpt lat="47.474624" lon="11.186064"><ele>1209</ele></trkpt><trkpt lat="47.474968" lon="11.185093"><ele>1214</ele></trkpt><trkpt lat="47.474988" lon="11.185037"><ele>1218</ele></trkpt><trkpt lat="47.475036" lon="11.184954"><ele>1219</ele></trkpt><trkpt lat="47.475207" lon="11.184844"><ele>1220</ele></trkpt><trkpt lat="47.475576" lon="11.184655"><ele>1221</ele></trkpt><trkpt lat="47.475590" lon="11.184648"><ele>1222</ele></trkpt><trkpt lat="47.475664" lon="11.184590"><ele>1222</ele></trkpt><trkpt lat="47.475590" lon="11.184183"><ele>1222</ele></trkpt><trkpt lat="47.475551" lon="11.183689"><ele>1224</ele></trkpt><trkpt lat="47.475529" lon="11.183579"><ele>1224</ele></trkpt><trkpt lat="47.475481" lon="11.183472"><ele>1225</ele></trkpt><trkpt lat="47.475445" lon="11.183417"><ele>1225</ele></trkpt><trkpt lat="47.475381" lon="11.183317"><ele>1225</ele></trkpt><trkpt lat="47.474929" lon="11.183001"><ele>1228</ele></trkpt><trkpt lat="47.474886" lon="11.182937"><ele>1229</ele></trkpt><trkpt lat="47.474585" lon="11.182484"><ele>1230</ele></trkpt><trkpt lat="47.474295" lon="11.182168"><ele>1231</ele></trkpt><trkpt lat="47.474201" lon="11.181998"><ele>1232</ele></trkpt><trkpt lat="47.473892" lon="11.181306"><ele>1234</ele></trkpt><trkpt lat="47.473820" lon="11.181143"><ele>1235</ele></trkpt><trkpt lat="47.473867" lon="11.181084"><ele>1236</ele></trkpt><trkpt lat="47.473957" lon="11.181095"><ele>1237</ele></trkpt><trkpt lat="47.474131" lon="11.181117"><ele>1238</ele></trkpt><trkpt lat="47.474180" lon="11.181073"><ele>1239</ele></trkpt><trkpt lat="47.474294" lon="11.180837"><ele>1241</ele></trkpt><trkpt lat="47.474390" lon="11.180737"><ele>1242</ele></trkpt><trkpt lat="47.474676" lon="11.180588"><ele>1245</ele></trkpt><trkpt lat="47.474729" lon="11.180574"><ele>1246</ele></trkpt><trkpt lat="47.474860" lon="11.180540"><ele>1247</ele></trkpt><trkpt lat="47.475222" lon="11.180566"><ele>1251</ele></trkpt><trkpt lat="47.475475" lon="11.180791"><ele>1254</ele></trkpt><trkpt lat="47.475767" lon="11.180651"><ele>1256</ele></trkpt><trkpt lat="47.475884" lon="11.180595"><ele>1258</ele></trkpt><trkpt lat="47.476004" lon="11.180240"><ele>1258</ele></trkpt><trkpt lat="47.476025" lon="11.180187"><ele>1258</ele></trkpt><trkpt lat="47.476098" lon="11.180039"><ele>1259</ele></trkpt><trkpt lat="47.476649" lon="11.179797"><ele>1264</ele></trkpt><trkpt lat="47.476755" lon="11.179610"><ele>1266</ele></trkpt><trkpt lat="47.476789" lon="11.179551"><ele>1268</ele></trkpt><trkpt lat="47.476821" lon="11.179063"><ele>1274</ele></trkpt><trkpt lat="47.476780" lon="11.178565"><ele>1280</ele></trkpt><trkpt lat="47.476727" lon="11.178238"><ele>1282</ele></trkpt><trkpt lat="47.476717" lon="11.178171"><ele>1284</ele></trkpt><trkpt lat="47.476607" lon="11.177728"><ele>1283</ele></trkpt><trkpt lat="47.476394" lon="11.177119"><ele>1282</ele></trkpt><trkpt lat="47.476361" lon="11.177024"><ele>1280</ele></trkpt><trkpt lat="47.476168" lon="11.176639"><ele>1279</ele></trkpt><trkpt lat="47.475932" lon="11.176416"><ele>1272</ele></trkpt><trkpt lat="47.475800" lon="11.176319"><ele>1272</ele></trkpt><trkpt lat="47.475779" lon="11.176288"><ele>1272</ele></trkpt><trkpt lat="47.475698" lon="11.176164"><ele>1273</ele></trkpt><trkpt lat="47.475600" lon="11.175949"><ele>1274</ele></trkpt><trkpt lat="47.475476" lon="11.175824"><ele>1274</ele></trkpt><trkpt lat="47.475451" lon="11.175672"><ele>1275</ele></trkpt><trkpt lat="47.475324" lon="11.175413"><ele>1271</ele></trkpt><trkpt lat="47.475272" lon="11.175206"><ele>1268</ele></trkpt><trkpt lat="47.475199" lon="11.175116"><ele>1267</ele></trkpt><trkpt lat="47.475036" lon="11.174664"><ele>1261</ele></trkpt><trkpt lat="47.474893" lon="11.174343"><ele>1262</ele></trkpt><trkpt lat="47.474852" lon="11.174252"><ele>1263</ele></trkpt><trkpt lat="47.474802" lon="11.174025"><ele>1264</ele></trkpt><trkpt lat="47.474813" lon="11.173613"><ele>1266</ele></trkpt><trkpt lat="47.474736" lon="11.173238"><ele>1268</ele></trkpt><trkpt lat="47.474737" lon="11.173169"><ele>1268</ele></trkpt><trkpt lat="47.474740" lon="11.173038"><ele>1268</ele></trkpt><trkpt lat="47.474683" lon="11.172872"><ele>1269</ele></trkpt><trkpt lat="47.474522" lon="11.172521"><ele>1271</ele></trkpt><trkpt lat="47.474453" lon="11.172147"><ele>1279</ele></trkpt><trkpt lat="47.474480" lon="11.171997"><ele>1282</ele></trkpt><trkpt lat="47.474516" lon="11.171921"><ele>1284</ele></trkpt><trkpt lat="47.474643" lon="11.170916"><ele>1289</ele></trkpt><trkpt lat="47.474668" lon="11.170719"><ele>1295</ele></trkpt><trkpt lat="47.474676" lon="11.170439"><ele>1297</ele></trkpt><trkpt lat="47.474611" lon="11.170168"><ele>1299</ele></trkpt><trkpt lat="47.474594" lon="11.170035"><ele>1299</ele></trkpt><trkpt lat="47.474648" lon="11.169657"><ele>1300</ele></trkpt><trkpt lat="47.474471" lon="11.169008"><ele>1302</ele></trkpt><trkpt lat="47.474428" lon="11.168795"><ele>1303</ele></trkpt><trkpt lat="47.474334" lon="11.168586"><ele>1304</ele></trkpt><trkpt lat="47.474335" lon="11.168450"><ele>1304</ele></trkpt><trkpt lat="47.474297" lon="11.168153"><ele>1302</ele></trkpt><trkpt lat="47.474280" lon="11.168016"><ele>1301</ele></trkpt><trkpt lat="47.474340" lon="11.167762"><ele>1300</ele></trkpt><trkpt lat="47.474275" lon="11.167473"><ele>1299</ele></trkpt><trkpt lat="47.474150" lon="11.167262"><ele>1297</ele></trkpt><trkpt lat="47.474097" lon="11.167137"><ele>1296</ele></trkpt><trkpt lat="47.474114" lon="11.166702"><ele>1294</ele></trkpt><trkpt lat="47.474077" lon="11.166371"><ele>1293</ele></trkpt><trkpt lat="47.474114" lon="11.166057"><ele>1291</ele></trkpt><trkpt lat="47.474027" lon="11.165770"><ele>1290</ele></trkpt><trkpt lat="47.473942" lon="11.165624"><ele>1288</ele></trkpt><trkpt lat="47.473982" lon="11.165242"><ele>1281</ele></trkpt><trkpt lat="47.473978" lon="11.165060"><ele>1278</ele></trkpt><trkpt lat="47.473880" lon="11.164869"><ele>1274</ele></trkpt><trkpt lat="47.473859" lon="11.164763"><ele>1274</ele></trkpt><trkpt lat="47.473888" lon="11.164571"><ele>1275</ele></trkpt><trkpt lat="47.473892" lon="11.164420"><ele>1276</ele></trkpt><trkpt lat="47.473893" lon="11.164399"><ele>1276</ele></trkpt><trkpt lat="47.473863" lon="11.164243"><ele>1277</ele></trkpt><trkpt lat="47.473766" lon="11.163943"><ele>1278</ele></trkpt><trkpt lat="47.473727" lon="11.163830"><ele>1278</ele></trkpt><trkpt lat="47.473676" lon="11.163750"><ele>1279</ele></trkpt><trkpt lat="47.473610" lon="11.163541"><ele>1280</ele></trkpt><trkpt lat="47.473572" lon="11.163288"><ele>1281</ele></trkpt><trkpt lat="47.473486" lon="11.163127"><ele>1282</ele></trkpt><trkpt lat="47.473457" lon="11.163025"><ele>1282</ele></trkpt><trkpt lat="47.473408" lon="11.162923"><ele>1281</ele></trkpt><trkpt lat="47.473398" lon="11.162907"><ele>1280</ele></trkpt><trkpt lat="47.473398" lon="11.162907"><ele>1281</ele></trkpt><trkpt lat="47.473200" lon="11.162584"><ele>1278</ele></trkpt><trkpt lat="47.473123" lon="11.162363"><ele>1276</ele></trkpt><trkpt lat="47.473053" lon="11.162224"><ele>1275</ele></trkpt><trkpt lat="47.472953" lon="11.161802"><ele>1272</ele></trkpt><trkpt lat="47.472943" lon="11.161615"><ele>1270</ele></trkpt><trkpt lat="47.472897" lon="11.161480"><ele>1269</ele></trkpt><trkpt lat="47.472879" lon="11.161371"><ele>1268</ele></trkpt><trkpt lat="47.472811" lon="11.161098"><ele>1268</ele></trkpt><trkpt lat="47.472795" lon="11.161048"><ele>1268</ele></trkpt><trkpt lat="47.472786" lon="11.161019"><ele>1268</ele></trkpt><trkpt lat="47.472742" lon="11.160731"><ele>1269</ele></trkpt><trkpt lat="47.472750" lon="11.160617"><ele>1270</ele></trkpt><trkpt lat="47.472728" lon="11.160474"><ele>1270</ele></trkpt><trkpt lat="47.472703" lon="11.159693"><ele>1262</ele></trkpt><trkpt lat="47.472792" lon="11.159198"><ele>1257</ele></trkpt><trkpt lat="47.472796" lon="11.158962"><ele>1255</ele></trkpt><trkpt lat="47.472778" lon="11.158892"><ele>1253</ele></trkpt><trkpt lat="47.472733" lon="11.158714"><ele>1252</ele></trkpt><trkpt lat="47.472702" lon="11.158486"><ele>1248</ele></trkpt><trkpt lat="47.472602" lon="11.158402"><ele>1246</ele></trkpt><trkpt lat="47.472572" lon="11.158266"><ele>1244</ele></trkpt><trkpt lat="47.472419" lon="11.158001"><ele>1240</ele></trkpt><trkpt lat="47.472359" lon="11.157736"><ele>1236</ele></trkpt><trkpt lat="47.472336" lon="11.157390"><ele>1232</ele></trkpt><trkpt lat="47.472288" lon="11.157345"><ele>1231</ele></trkpt><trkpt lat="47.472249" lon="11.157307"><ele>1231</ele></trkpt><trkpt lat="47.472280" lon="11.157205"><ele>1230</ele></trkpt><trkpt lat="47.472310" lon="11.157107"><ele>1229</ele></trkpt><trkpt lat="47.472325" lon="11.156769"><ele>1227</ele></trkpt><trkpt lat="47.472389" lon="11.156420"><ele>1224</ele></trkpt><trkpt lat="47.472314" lon="11.156086"><ele>1222</ele></trkpt><trkpt lat="47.472228" lon="11.155753"><ele>1219</ele></trkpt><trkpt lat="47.472248" lon="11.155041"><ele>1216</ele></trkpt><trkpt lat="47.472188" lon="11.154929"><ele>1216</ele></trkpt><trkpt lat="47.472088" lon="11.154425"><ele>1219</ele></trkpt><trkpt lat="47.472122" lon="11.154210"><ele>1220</ele></trkpt><trkpt lat="47.472086" lon="11.153884"><ele>1218</ele></trkpt><trkpt lat="47.472087" lon="11.153873"><ele>1216</ele></trkpt><trkpt lat="47.472117" lon="11.153576"><ele>1215</ele></trkpt><trkpt lat="47.472357" lon="11.153107"><ele>1210</ele></trkpt><trkpt lat="47.472462" lon="11.152954"><ele>1209</ele></trkpt><trkpt lat="47.472482" lon="11.152926"><ele>1208</ele></trkpt><trkpt lat="47.472635" lon="11.152554"><ele>1204</ele></trkpt><trkpt lat="47.472673" lon="11.152374"><ele>1202</ele></trkpt><trkpt lat="47.472642" lon="11.152178"><ele>1202</ele></trkpt><trkpt lat="47.472563" lon="11.152031"><ele>1201</ele></trkpt><trkpt lat="47.472453" lon="11.151920"><ele>1200</ele></trkpt><trkpt lat="47.472298" lon="11.151837"><ele>1198</ele></trkpt><trkpt lat="47.472170" lon="11.151701"><ele>1196</ele></trkpt><trkpt lat="47.472114" lon="11.151589"><ele>1195</ele></trkpt><trkpt lat="47.472089" lon="11.151493"><ele>1194</ele></trkpt><trkpt lat="47.472034" lon="11.151286"><ele>1193</ele></trkpt><trkpt lat="47.471977" lon="11.150827"><ele>1192</ele></trkpt><trkpt lat="47.471916" lon="11.150661"><ele>1191</ele></trkpt><trkpt lat="47.471874" lon="11.150461"><ele>1190</ele></trkpt><trkpt lat="47.471846" lon="11.150430"><ele>1190</ele></trkpt><trkpt lat="47.471675" lon="11.150235"><ele>1189</ele></trkpt><trkpt lat="47.471514" lon="11.150225"><ele>1188</ele></trkpt><trkpt lat="47.471454" lon="11.150240"><ele>1188</ele></trkpt><trkpt lat="47.471282" lon="11.150185"><ele>1186</ele></trkpt><trkpt lat="47.471232" lon="11.150142"><ele>1186</ele></trkpt><trkpt lat="47.471181" lon="11.149971"><ele>1185</ele></trkpt><trkpt lat="47.471090" lon="11.149865"><ele>1185</ele></trkpt><trkpt lat="47.470980" lon="11.149662"><ele>1184</ele></trkpt><trkpt lat="47.470881" lon="11.149522"><ele>1183</ele></trkpt><trkpt lat="47.470766" lon="11.149247"><ele>1182</ele></trkpt><trkpt lat="47.470681" lon="11.149044"><ele>1180</ele></trkpt><trkpt lat="47.470634" lon="11.148767"><ele>1181</ele></trkpt><trkpt lat="47.470504" lon="11.148347"><ele>1183</ele></trkpt><trkpt lat="47.470465" lon="11.148129"><ele>1184</ele></trkpt><trkpt lat="47.470466" lon="11.147624"><ele>1184</ele></trkpt><trkpt lat="47.470509" lon="11.147448"><ele>1182</ele></trkpt><trkpt lat="47.470495" lon="11.147301"><ele>1180</ele></trkpt><trkpt lat="47.470481" lon="11.147277"><ele>1180</ele></trkpt><trkpt lat="47.470425" lon="11.147183"><ele>1179</ele></trkpt><trkpt lat="47.470191" lon="11.147000"><ele>1175</ele></trkpt><trkpt lat="47.469988" lon="11.146841"><ele>1177</ele></trkpt><trkpt lat="47.469872" lon="11.146775"><ele>1178</ele></trkpt><trkpt lat="47.469783" lon="11.146656"><ele>1180</ele></trkpt><trkpt lat="47.469747" lon="11.146582"><ele>1180</ele></trkpt><trkpt lat="47.469725" lon="11.146480"><ele>1181</ele></trkpt><trkpt lat="47.469720" lon="11.146230"><ele>1183</ele></trkpt><trkpt lat="47.469702" lon="11.146138"><ele>1184</ele></trkpt><trkpt lat="47.469653" lon="11.146072"><ele>1184</ele></trkpt><trkpt lat="47.469473" lon="11.145958"><ele>1186</ele></trkpt><trkpt lat="47.469392" lon="11.145860"><ele>1187</ele></trkpt><trkpt lat="47.469344" lon="11.145767"><ele>1188</ele></trkpt><trkpt lat="47.469319" lon="11.145660"><ele>1188</ele></trkpt><trkpt lat="47.469206" lon="11.145472"><ele>1190</ele></trkpt><trkpt lat="47.469089" lon="11.145322"><ele>1193</ele></trkpt><trkpt lat="47.469035" lon="11.145163"><ele>1194</ele></trkpt><trkpt lat="47.469003" lon="11.144938"><ele>1197</ele></trkpt><trkpt lat="47.468760" lon="11.144591"><ele>1202</ele></trkpt><trkpt lat="47.468680" lon="11.144434"><ele>1202</ele></trkpt><trkpt lat="47.468580" lon="11.144123"><ele>1200</ele></trkpt><trkpt lat="47.468492" lon="11.143948"><ele>1198</ele></trkpt><trkpt lat="47.468337" lon="11.143528"><ele>1195</ele></trkpt><trkpt lat="47.468220" lon="11.143277"><ele>1193</ele></trkpt><trkpt lat="47.468193" lon="11.143151"><ele>1192</ele></trkpt><trkpt lat="47.468191" lon="11.143147"><ele>1192</ele></trkpt><trkpt lat="47.468164" lon="11.143097"><ele>1192</ele></trkpt><trkpt lat="47.468164" lon="11.143097"><ele>1192</ele></trkpt><trkpt lat="47.468157" lon="11.143084"><ele>1192</ele></trkpt><trkpt lat="47.468029" lon="11.142984"><ele>1191</ele></trkpt><trkpt lat="47.467953" lon="11.142851"><ele>1190</ele></trkpt><trkpt lat="47.467750" lon="11.142706"><ele>1188</ele></trkpt><trkpt lat="47.467704" lon="11.142572"><ele>1189</ele></trkpt><trkpt lat="47.467662" lon="11.142204"><ele>1192</ele></trkpt><trkpt lat="47.467584" lon="11.141879"><ele>1194</ele></trkpt><trkpt lat="47.467609" lon="11.141621"><ele>1196</ele></trkpt><trkpt lat="47.467574" lon="11.141338"><ele>1199</ele></trkpt><trkpt lat="47.467547" lon="11.140891"><ele>1202</ele></trkpt><trkpt lat="47.467369" lon="11.140223"><ele>1207</ele></trkpt><trkpt lat="47.467331" lon="11.139909"><ele>1209</ele></trkpt><trkpt lat="47.467315" lon="11.139783"><ele>1211</ele></trkpt><trkpt lat="47.467315" lon="11.139609"><ele>1212</ele></trkpt><trkpt lat="47.467340" lon="11.138973"><ele>1217</ele></trkpt><trkpt lat="47.467365" lon="11.138708"><ele>1219</ele></trkpt><trkpt lat="47.467364" lon="11.138688"><ele>1220</ele></trkpt><trkpt lat="47.467353" lon="11.138496"><ele>1220</ele></trkpt><trkpt lat="47.467328" lon="11.138359"><ele>1221</ele></trkpt><trkpt lat="47.467227" lon="11.138079"><ele>1224</ele></trkpt><trkpt lat="47.467200" lon="11.137958"><ele>1225</ele></trkpt><trkpt lat="47.467090" lon="11.137305"><ele>1230</ele></trkpt><trkpt lat="47.467071" lon="11.137215"><ele>1229</ele></trkpt><trkpt lat="47.467017" lon="11.137085"><ele>1228</ele></trkpt><trkpt lat="47.466880" lon="11.136956"><ele>1227</ele></trkpt><trkpt lat="47.466847" lon="11.136901"><ele>1227</ele></trkpt><trkpt lat="47.466767" lon="11.136620"><ele>1226</ele></trkpt><trkpt lat="47.466695" lon="11.136312"><ele>1222</ele></trkpt><trkpt lat="47.466833" lon="11.136119"><ele>1222</ele></trkpt><trkpt lat="47.466844" lon="11.136103"><ele>1222</ele></trkpt><trkpt lat="47.466921" lon="11.135996"><ele>1223</ele></trkpt><trkpt lat="47.467007" lon="11.135810"><ele>1224</ele></trkpt><trkpt lat="47.467007" lon="11.135810"><ele>1224</ele></trkpt><trkpt lat="47.467007" lon="11.135810"><ele>1224</ele></trkpt><trkpt lat="47.466929" lon="11.135725"><ele>1224</ele></trkpt><trkpt lat="47.466666" lon="11.135517"><ele>1225</ele></trkpt><trkpt lat="47.466600" lon="11.135412"><ele>1226</ele></trkpt><trkpt lat="47.466570" lon="11.135336"><ele>1226</ele></trkpt><trkpt lat="47.466404" lon="11.135050"><ele>1226</ele></trkpt><trkpt lat="47.466302" lon="11.134859"><ele>1225</ele></trkpt><trkpt lat="47.466175" lon="11.134540"><ele>1224</ele></trkpt><trkpt lat="47.466125" lon="11.134359"><ele>1223</ele></trkpt><trkpt lat="47.466062" lon="11.133478"><ele>1220</ele></trkpt><trkpt lat="47.465952" lon="11.133341"><ele>1218</ele></trkpt><trkpt lat="47.465894" lon="11.133302"><ele>1217</ele></trkpt><trkpt lat="47.465744" lon="11.133285"><ele>1216</ele></trkpt><trkpt lat="47.465703" lon="11.133251"><ele>1216</ele></trkpt><trkpt lat="47.465695" lon="11.133035"><ele>1217</ele></trkpt><trkpt lat="47.465695" lon="11.133035"><ele>1217</ele></trkpt><trkpt lat="47.465695" lon="11.133035"><ele>1217</ele></trkpt></trkseg></trk>
</gpx>
