<?xml version="1.0" encoding="UTF-8"?>
<gpx version="1.1" creator="Garmisch 2026" xmlns="http://www.topografix.com/GPX/1/1">
<metadata><name>Sestdiena - Partnachklamm</name></metadata>
<wpt lat="47.469496" lon="11.119331"><name>Partnachklamm kase</name></wpt>
<wpt lat="47.465695" lon="11.133035"><name>Eckbauerbahn augšstacija / Berggasthof Eckbauer</name></wpt>
<wpt lat="47.4743" lon="11.169"><name>Wamberg</name></wpt>
<wpt lat="47.48166" lon="11.11913"><name>Eckbauerbahn lejas stacija</name></wpt>
<wpt lat="47.49597" lon="11.10482"><name>Mājas</name></wpt>
<trk><name>PARTNACHKLAMM: no Olimpiskā stadiona caur aizu un atpakaļ (6,1 km, +200 m)</name><trkseg>
<trkpt lat="47.481611" lon="11.119462"><ele>737.0</ele></trkpt>
<trkpt lat="47.481681" lon="11.119506"><ele>736.25</ele></trkpt>
<trkpt lat="47.481770" lon="11.119643"><ele>735.25</ele></trkpt>
<trkpt lat="47.481858" lon="11.119809"><ele>733.5</ele></trkpt>
<trkpt lat="47.481909" lon="11.119929"><ele>731.75</ele></trkpt>
<trkpt lat="47.481945" lon="11.120036"><ele>729.75</ele></trkpt>
<trkpt lat="47.481989" lon="11.120082"><ele>729.75</ele></trkpt>
<trkpt lat="47.482024" lon="11.120090"><ele>729.5</ele></trkpt>
<trkpt lat="47.482065" lon="11.120073"><ele>729.5</ele></trkpt>
<trkpt lat="47.482232" lon="11.120418"><ele>728.75</ele></trkpt>
<trkpt lat="47.482464" lon="11.120000"><ele>727.25</ele></trkpt>
<trkpt lat="47.482426" lon="11.119939"><ele>727.75</ele></trkpt>
<trkpt lat="47.482384" lon="11.119871"><ele>728.25</ele></trkpt>
<trkpt lat="47.482332" lon="11.119698"><ele>729.0</ele></trkpt>
<trkpt lat="47.482337" lon="11.118681"><ele>729.25</ele></trkpt>
<trkpt lat="47.482359" lon="11.118558"><ele>729.5</ele></trkpt>
<trkpt lat="47.482416" lon="11.118370"><ele>729.25</ele></trkpt>
<trkpt lat="47.482480" lon="11.118139"><ele>729.0</ele></trkpt>
<trkpt lat="47.482355" lon="11.118025"><ele>729.5</ele></trkpt>
<trkpt lat="47.482255" lon="11.118092"><ele>729.75</ele></trkpt>
<trkpt lat="47.482025" lon="11.117716"><ele>731.0</ele></trkpt>
<trkpt lat="47.482107" lon="11.117542"><ele>731.0</ele></trkpt>
<trkpt lat="47.482119" lon="11.117414"><ele>731.0</ele></trkpt>
<trkpt lat="47.482097" lon="11.117283"><ele>731.0</ele></trkpt>
<trkpt lat="47.482053" lon="11.117186"><ele>731.0</ele></trkpt>
<trkpt lat="47.481887" lon="11.116910"><ele>731.5</ele></trkpt>
<trkpt lat="47.481796" lon="11.116821"><ele>731.0</ele></trkpt>
<trkpt lat="47.481706" lon="11.116801"><ele>730.5</ele></trkpt>
<trkpt lat="47.481611" lon="11.116820"><ele>730.5</ele></trkpt>
<trkpt lat="47.481537" lon="11.116874"><ele>730.75</ele></trkpt>
<trkpt lat="47.481367" lon="11.116601"><ele>731.0</ele></trkpt>
<trkpt lat="47.481267" lon="11.116344"><ele>730.5</ele></trkpt>
<trkpt lat="47.481071" lon="11.116420"><ele>731.0</ele></trkpt>
<trkpt lat="47.480865" lon="11.116369"><ele>731.75</ele></trkpt>
<trkpt lat="47.480775" lon="11.116313"><ele>731.75</ele></trkpt>
<trkpt lat="47.480571" lon="11.116162"><ele>732.25</ele></trkpt>
<trkpt lat="47.480379" lon="11.115956"><ele>732.5</ele></trkpt>
<trkpt lat="47.480119" lon="11.115530"><ele>732.0</ele></trkpt>
<trkpt lat="47.480006" lon="11.115300"><ele>732.75</ele></trkpt>
<trkpt lat="47.479913" lon="11.115086"><ele>735.0</ele></trkpt>
<trkpt lat="47.479473" lon="11.114556"><ele>738.5</ele></trkpt>
<trkpt lat="47.479245" lon="11.114076"><ele>737.75</ele></trkpt>
<trkpt lat="47.479210" lon="11.114035"><ele>738.0</ele></trkpt>
<trkpt lat="47.478881" lon="11.113645"><ele>739.25</ele></trkpt>
<trkpt lat="47.478655" lon="11.113426"><ele>740.0</ele></trkpt>
<trkpt lat="47.478470" lon="11.113191"><ele>739.25</ele></trkpt>
<trkpt lat="47.478397" lon="11.113128"><ele>739.5</ele></trkpt>
<trkpt lat="47.478070" lon="11.113039"><ele>739.0</ele></trkpt>
<trkpt lat="47.477716" lon="11.112872"><ele>742.75</ele></trkpt>
<trkpt lat="47.477425" lon="11.112682"><ele>741.5</ele></trkpt>
<trkpt lat="47.477109" lon="11.112572"><ele>741.0</ele></trkpt>
<trkpt lat="47.477014" lon="11.112548"><ele>740.5</ele></trkpt>
<trkpt lat="47.476898" lon="11.112560"><ele>740.5</ele></trkpt>
<trkpt lat="47.476765" lon="11.112597"><ele>741.5</ele></trkpt>
<trkpt lat="47.476719" lon="11.112621"><ele>741.75</ele></trkpt>
<trkpt lat="47.476468" lon="11.112973"><ele>742.0</ele></trkpt>
<trkpt lat="47.476178" lon="11.113319"><ele>742.5</ele></trkpt>
<trkpt lat="47.475415" lon="11.114292"><ele>746.0</ele></trkpt>
<trkpt lat="47.475217" lon="11.114427"><ele>747.5</ele></trkpt>
<trkpt lat="47.475150" lon="11.114454"><ele>747.75</ele></trkpt>
<trkpt lat="47.475042" lon="11.114485"><ele>748.25</ele></trkpt>
<trkpt lat="47.474821" lon="11.114489"><ele>748.0</ele></trkpt>
<trkpt lat="47.474730" lon="11.114511"><ele>747.5</ele></trkpt>
<trkpt lat="47.474607" lon="11.114604"><ele>746.75</ele></trkpt>
<trkpt lat="47.474303" lon="11.115039"><ele>746.5</ele></trkpt>
<trkpt lat="47.474263" lon="11.115086"><ele>746.5</ele></trkpt>
<trkpt lat="47.474192" lon="11.115143"><ele>746.75</ele></trkpt>
<trkpt lat="47.473973" lon="11.115297"><ele>746.75</ele></trkpt>
<trkpt lat="47.473689" lon="11.115439"><ele>747.25</ele></trkpt>
<trkpt lat="47.473475" lon="11.115584"><ele>749.25</ele></trkpt>
<trkpt lat="47.473413" lon="11.115649"><ele>749.5</ele></trkpt>
<trkpt lat="47.473345" lon="11.115719"><ele>749.0</ele></trkpt>
<trkpt lat="47.473070" lon="11.116003"><ele>750.0</ele></trkpt>
<trkpt lat="47.472636" lon="11.116519"><ele>750.0</ele></trkpt>
<trkpt lat="47.472411" lon="11.116677"><ele>749.5</ele></trkpt>
<trkpt lat="47.471935" lon="11.117086"><ele>751.5</ele></trkpt>
<trkpt lat="47.471701" lon="11.117240"><ele>754.25</ele></trkpt>
<trkpt lat="47.471448" lon="11.117361"><ele>754.5</ele></trkpt>
<trkpt lat="47.471401" lon="11.117398"><ele>754.25</ele></trkpt>
<trkpt lat="47.471392" lon="11.117405"><ele>754.25</ele></trkpt>
<trkpt lat="47.471324" lon="11.117458"><ele>754.5</ele></trkpt>
<trkpt lat="47.470792" lon="11.118314"><ele>757.5</ele></trkpt>
<trkpt lat="47.470663" lon="11.118547"><ele>758.75</ele></trkpt>
<trkpt lat="47.470616" lon="11.118606"><ele>759.25</ele></trkpt>
<trkpt lat="47.470550" lon="11.118661"><ele>759.5</ele></trkpt>
<trkpt lat="47.470445" lon="11.118739"><ele>759.25</ele></trkpt>
<trkpt lat="47.470243" lon="11.118891"><ele>759.25</ele></trkpt>
<trkpt lat="47.470075" lon="11.119035"><ele>760.0</ele></trkpt>
<trkpt lat="47.470022" lon="11.119058"><ele>760.25</ele></trkpt>
<trkpt lat="47.469920" lon="11.119089"><ele>760.25</ele></trkpt>
<trkpt lat="47.469886" lon="11.119136"><ele>759.75</ele></trkpt>
<trkpt lat="47.469792" lon="11.119242"><ele>760.5</ele></trkpt>
<trkpt lat="47.469717" lon="11.119332"><ele>761.75</ele></trkpt>
<trkpt lat="47.469679" lon="11.119341"><ele>762.5</ele></trkpt>
<trkpt lat="47.469536" lon="11.119272"><ele>763.0</ele></trkpt>
<trkpt lat="47.469488" lon="11.119290"><ele>765.0</ele></trkpt>
<trkpt lat="47.469464" lon="11.119300"><ele>765.0</ele></trkpt>
<trkpt lat="47.469400" lon="11.119350"><ele>766.75</ele></trkpt>
<trkpt lat="47.469295" lon="11.119391"><ele>767.0</ele></trkpt>
<trkpt lat="47.469227" lon="11.119397"><ele>766.5</ele></trkpt>
<trkpt lat="47.469085" lon="11.119373"><ele>766.75</ele></trkpt>
<trkpt lat="47.468991" lon="11.119347"><ele>767.75</ele></trkpt>
<trkpt lat="47.468875" lon="11.119287"><ele>766.75</ele></trkpt>
<trkpt lat="47.468802" lon="11.119261"><ele>767.0</ele></trkpt>
<trkpt lat="47.468718" lon="11.119245"><ele>767.75</ele></trkpt>
<trkpt lat="47.468572" lon="11.119263"><ele>770.5</ele></trkpt>
<trkpt lat="47.468389" lon="11.119262"><ele>766.75</ele></trkpt>
<trkpt lat="47.468334" lon="11.119287"><ele>766.75</ele></trkpt>
<trkpt lat="47.468197" lon="11.119392"><ele>768.0</ele></trkpt>
<trkpt lat="47.468118" lon="11.119489"><ele>767.25</ele></trkpt>
<trkpt lat="47.468069" lon="11.119614"><ele>767.25</ele></trkpt>
<trkpt lat="47.468031" lon="11.119684"><ele>767.25</ele></trkpt>
<trkpt lat="47.467992" lon="11.119708"><ele>767.0</ele></trkpt>
<trkpt lat="47.467928" lon="11.119724"><ele>766.25</ele></trkpt>
<trkpt lat="47.467615" lon="11.119932"><ele>768.0</ele></trkpt>
<trkpt lat="47.467354" lon="11.120148"><ele>771.25</ele></trkpt>
<trkpt lat="47.467313" lon="11.120182"><ele>771.5</ele></trkpt>
<trkpt lat="47.467206" lon="11.120269"><ele>775.25</ele></trkpt>
<trkpt lat="47.467085" lon="11.120327"><ele>779.25</ele></trkpt>
<trkpt lat="47.466937" lon="11.120343"><ele>783.75</ele></trkpt>
<trkpt lat="47.466367" lon="11.120280"><ele>783.75</ele></trkpt>
<trkpt lat="47.466010" lon="11.120515"><ele>806.25</ele></trkpt>
<trkpt lat="47.465919" lon="11.120696"><ele>812.5</ele></trkpt>
<trkpt lat="47.465722" lon="11.121156"><ele>823.75</ele></trkpt>
<trkpt lat="47.465592" lon="11.121437"><ele>812.0</ele></trkpt>
<trkpt lat="47.465265" lon="11.121799"><ele>812.0</ele></trkpt>
<trkpt lat="47.464856" lon="11.122141"><ele>815.75</ele></trkpt>
<trkpt lat="47.464746" lon="11.122225"><ele>807.75</ele></trkpt>
<trkpt lat="47.464140" lon="11.122427"><ele>818.5</ele></trkpt>
<trkpt lat="47.463886" lon="11.122481"><ele>808.5</ele></trkpt>
<trkpt lat="47.463699" lon="11.122618"><ele>821.5</ele></trkpt>
<trkpt lat="47.463487" lon="11.122923"><ele>839.0</ele></trkpt>
<trkpt lat="47.463263" lon="11.123346"><ele>843.5</ele></trkpt>
<trkpt lat="47.463110" lon="11.123905"><ele>800.0</ele></trkpt>
<trkpt lat="47.462944" lon="11.124116"><ele>810.0</ele></trkpt>
<trkpt lat="47.462770" lon="11.124305"><ele>820.0</ele></trkpt>
<trkpt lat="47.462558" lon="11.124376"><ele>813.25</ele></trkpt>
<trkpt lat="47.462770" lon="11.124305"><ele>806.5</ele></trkpt>
<trkpt lat="47.462944" lon="11.124116"><ele>800.0</ele></trkpt>
<trkpt lat="47.463110" lon="11.123905"><ele>800.0</ele></trkpt>
<trkpt lat="47.463263" lon="11.123346"><ele>843.5</ele></trkpt>
<trkpt lat="47.463487" lon="11.122923"><ele>839.0</ele></trkpt>
<trkpt lat="47.463699" lon="11.122618"><ele>821.5</ele></trkpt>
<trkpt lat="47.463886" lon="11.122481"><ele>808.5</ele></trkpt>
<trkpt lat="47.464140" lon="11.122427"><ele>818.5</ele></trkpt>
<trkpt lat="47.464746" lon="11.122225"><ele>807.75</ele></trkpt>
<trkpt lat="47.464856" lon="11.122141"><ele>815.75</ele></trkpt>
<trkpt lat="47.465265" lon="11.121799"><ele>812.0</ele></trkpt>
<trkpt lat="47.465592" lon="11.121437"><ele>812.0</ele></trkpt>
<trkpt lat="47.465722" lon="11.121156"><ele>823.75</ele></trkpt>
<trkpt lat="47.465919" lon="11.120696"><ele>812.5</ele></trkpt>
<trkpt lat="47.466010" lon="11.120515"><ele>806.25</ele></trkpt>
<trkpt lat="47.466367" lon="11.120280"><ele>783.75</ele></trkpt>
<trkpt lat="47.466937" lon="11.120343"><ele>775.25</ele></trkpt>
<trkpt lat="47.467085" lon="11.120327"><ele>773.25</ele></trkpt>
<trkpt lat="47.467206" lon="11.120269"><ele>771.5</ele></trkpt>
<trkpt lat="47.467313" lon="11.120182"><ele>771.5</ele></trkpt>
<trkpt lat="47.467354" lon="11.120148"><ele>771.25</ele></trkpt>
<trkpt lat="47.467615" lon="11.119932"><ele>768.0</ele></trkpt>
<trkpt lat="47.467928" lon="11.119724"><ele>766.25</ele></trkpt>
<trkpt lat="47.467992" lon="11.119708"><ele>767.0</ele></trkpt>
<trkpt lat="47.468031" lon="11.119684"><ele>767.25</ele></trkpt>
<trkpt lat="47.468069" lon="11.119614"><ele>767.25</ele></trkpt>
<trkpt lat="47.468118" lon="11.119489"><ele>767.25</ele></trkpt>
<trkpt lat="47.468197" lon="11.119392"><ele>768.0</ele></trkpt>
<trkpt lat="47.468334" lon="11.119287"><ele>766.75</ele></trkpt>
<trkpt lat="47.468389" lon="11.119262"><ele>766.75</ele></trkpt>
<trkpt lat="47.468572" lon="11.119263"><ele>770.5</ele></trkpt>
<trkpt lat="47.468718" lon="11.119245"><ele>767.75</ele></trkpt>
<trkpt lat="47.468802" lon="11.119261"><ele>767.0</ele></trkpt>
<trkpt lat="47.468875" lon="11.119287"><ele>766.75</ele></trkpt>
<trkpt lat="47.468991" lon="11.119347"><ele>767.75</ele></trkpt>
<trkpt lat="47.469085" lon="11.119373"><ele>766.75</ele></trkpt>
<trkpt lat="47.469227" lon="11.119397"><ele>766.5</ele></trkpt>
<trkpt lat="47.469295" lon="11.119391"><ele>767.0</ele></trkpt>
<trkpt lat="47.469400" lon="11.119350"><ele>766.75</ele></trkpt>
<trkpt lat="47.469464" lon="11.119300"><ele>765.0</ele></trkpt>
<trkpt lat="47.469488" lon="11.119290"><ele>763.0</ele></trkpt>
<trkpt lat="47.469536" lon="11.119272"><ele>763.0</ele></trkpt>
<trkpt lat="47.469679" lon="11.119341"><ele>762.5</ele></trkpt>
<trkpt lat="47.469717" lon="11.119332"><ele>761.75</ele></trkpt>
<trkpt lat="47.469792" lon="11.119242"><ele>760.5</ele></trkpt>
<trkpt lat="47.469886" lon="11.119136"><ele>759.75</ele></trkpt>
<trkpt lat="47.469920" lon="11.119089"><ele>760.25</ele></trkpt>
<trkpt lat="47.470022" lon="11.119058"><ele>760.25</ele></trkpt>
<trkpt lat="47.470075" lon="11.119035"><ele>760.0</ele></trkpt>
<trkpt lat="47.470243" lon="11.118891"><ele>759.25</ele></trkpt>
<trkpt lat="47.470445" lon="11.118739"><ele>759.25</ele></trkpt>
<trkpt lat="47.470550" lon="11.118661"><ele>759.5</ele></trkpt>
<trkpt lat="47.470616" lon="11.118606"><ele>759.25</ele></trkpt>
<trkpt lat="47.470663" lon="11.118547"><ele>758.75</ele></trkpt>
<trkpt lat="47.470792" lon="11.118314"><ele>757.5</ele></trkpt>
<trkpt lat="47.471324" lon="11.117458"><ele>754.5</ele></trkpt>
<trkpt lat="47.471392" lon="11.117405"><ele>754.25</ele></trkpt>
<trkpt lat="47.471401" lon="11.117398"><ele>754.25</ele></trkpt>
<trkpt lat="47.471448" lon="11.117361"><ele>754.5</ele></trkpt>
<trkpt lat="47.471701" lon="11.117240"><ele>754.25</ele></trkpt>
<trkpt lat="47.471935" lon="11.117086"><ele>751.5</ele></trkpt>
<trkpt lat="47.472411" lon="11.116677"><ele>749.5</ele></trkpt>
<trkpt lat="47.472636" lon="11.116519"><ele>750.0</ele></trkpt>
<trkpt lat="47.473070" lon="11.116003"><ele>750.0</ele></trkpt>
<trkpt lat="47.473345" lon="11.115719"><ele>749.0</ele></trkpt>
<trkpt lat="47.473413" lon="11.115649"><ele>749.5</ele></trkpt>
<trkpt lat="47.473475" lon="11.115584"><ele>749.25</ele></trkpt>
<trkpt lat="47.473689" lon="11.115439"><ele>747.25</ele></trkpt>
<trkpt lat="47.473973" lon="11.115297"><ele>746.75</ele></trkpt>
<trkpt lat="47.474192" lon="11.115143"><ele>746.75</ele></trkpt>
<trkpt lat="47.474263" lon="11.115086"><ele>746.5</ele></trkpt>
<trkpt lat="47.474303" lon="11.115039"><ele>746.5</ele></trkpt>
<trkpt lat="47.474607" lon="11.114604"><ele>746.75</ele></trkpt>
<trkpt lat="47.474730" lon="11.114511"><ele>747.5</ele></trkpt>
<trkpt lat="47.474821" lon="11.114489"><ele>748.0</ele></trkpt>
<trkpt lat="47.475042" lon="11.114485"><ele>748.25</ele></trkpt>
<trkpt lat="47.475150" lon="11.114454"><ele>747.75</ele></trkpt>
<trkpt lat="47.475217" lon="11.114427"><ele>747.5</ele></trkpt>
<trkpt lat="47.475415" lon="11.114292"><ele>746.0</ele></trkpt>
<trkpt lat="47.476178" lon="11.113319"><ele>742.5</ele></trkpt>
<trkpt lat="47.476468" lon="11.112973"><ele>742.0</ele></trkpt>
<trkpt lat="47.476719" lon="11.112621"><ele>741.75</ele></trkpt>
<trkpt lat="47.476765" lon="11.112597"><ele>741.5</ele></trkpt>
<trkpt lat="47.476898" lon="11.112560"><ele>740.5</ele></trkpt>
<trkpt lat="47.477014" lon="11.112548"><ele>740.5</ele></trkpt>
<trkpt lat="47.477109" lon="11.112572"><ele>741.0</ele></trkpt>
<trkpt lat="47.477425" lon="11.112682"><ele>741.5</ele></trkpt>
<trkpt lat="47.477716" lon="11.112872"><ele>742.75</ele></trkpt>
<trkpt lat="47.478070" lon="11.113039"><ele>739.0</ele></trkpt>
<trkpt lat="47.478397" lon="11.113128"><ele>739.5</ele></trkpt>
<trkpt lat="47.478470" lon="11.113191"><ele>739.25</ele></trkpt>
<trkpt lat="47.478655" lon="11.113426"><ele>740.0</ele></trkpt>
<trkpt lat="47.478881" lon="11.113645"><ele>739.25</ele></trkpt>
<trkpt lat="47.479210" lon="11.114035"><ele>738.0</ele></trkpt>
<trkpt lat="47.479245" lon="11.114076"><ele>737.75</ele></trkpt>
<trkpt lat="47.479473" lon="11.114556"><ele>738.5</ele></trkpt>
<trkpt lat="47.479913" lon="11.115086"><ele>735.0</ele></trkpt>
<trkpt lat="47.480006" lon="11.115300"><ele>732.75</ele></trkpt>
<trkpt lat="47.480119" lon="11.115530"><ele>732.0</ele></trkpt>
<trkpt lat="47.480379" lon="11.115956"><ele>732.5</ele></trkpt>
<trkpt lat="47.480571" lon="11.116162"><ele>732.25</ele></trkpt>
<trkpt lat="47.480775" lon="11.116313"><ele>731.75</ele></trkpt>
<trkpt lat="47.480865" lon="11.116369"><ele>731.75</ele></trkpt>
<trkpt lat="47.481071" lon="11.116420"><ele>731.0</ele></trkpt>
<trkpt lat="47.481267" lon="11.116344"><ele>730.5</ele></trkpt>
<trkpt lat="47.481367" lon="11.116601"><ele>731.0</ele></trkpt>
<trkpt lat="47.481537" lon="11.116874"><ele>730.75</ele></trkpt>
<trkpt lat="47.481611" lon="11.116820"><ele>730.5</ele></trkpt>
<trkpt lat="47.481706" lon="11.116801"><ele>730.5</ele></trkpt>
<trkpt lat="47.481796" lon="11.116821"><ele>731.0</ele></trkpt>
<trkpt lat="47.481887" lon="11.116910"><ele>731.5</ele></trkpt>
<trkpt lat="47.482053" lon="11.117186"><ele>731.0</ele></trkpt>
<trkpt lat="47.482097" lon="11.117283"><ele>731.0</ele></trkpt>
<trkpt lat="47.482119" lon="11.117414"><ele>731.0</ele></trkpt>
<trkpt lat="47.482107" lon="11.117542"><ele>731.0</ele></trkpt>
<trkpt lat="47.482025" lon="11.117716"><ele>731.0</ele></trkpt>
<trkpt lat="47.482255" lon="11.118092"><ele>729.75</ele></trkpt>
<trkpt lat="47.482355" lon="11.118025"><ele>729.5</ele></trkpt>
<trkpt lat="47.482480" lon="11.118139"><ele>729.0</ele></trkpt>
<trkpt lat="47.482416" lon="11.118370"><ele>729.25</ele></trkpt>
<trkpt lat="47.482359" lon="11.118558"><ele>729.5</ele></trkpt>
<trkpt lat="47.482337" lon="11.118681"><ele>729.25</ele></trkpt>
<trkpt lat="47.482332" lon="11.119698"><ele>729.0</ele></trkpt>
<trkpt lat="47.482384" lon="11.119871"><ele>728.25</ele></trkpt>
<trkpt lat="47.482426" lon="11.119939"><ele>727.75</ele></trkpt>
<trkpt lat="47.482464" lon="11.120000"><ele>727.25</ele></trkpt>
<trkpt lat="47.482232" lon="11.120418"><ele>728.75</ele></trkpt>
<trkpt lat="47.482065" lon="11.120073"><ele>729.5</ele></trkpt>
<trkpt lat="47.482024" lon="11.120090"><ele>729.5</ele></trkpt>
<trkpt lat="47.481989" lon="11.120082"><ele>729.75</ele></trkpt>
<trkpt lat="47.481945" lon="11.120036"><ele>729.75</ele></trkpt>
<trkpt lat="47.481909" lon="11.119929"><ele>731.75</ele></trkpt>
<trkpt lat="47.481858" lon="11.119809"><ele>733.5</ele></trkpt>
<trkpt lat="47.481770" lon="11.119643"><ele>735.25</ele></trkpt>
<trkpt lat="47.481681" lon="11.119506"><ele>736.25</ele></trkpt>
<trkpt lat="47.481611" lon="11.119462"><ele>737.0</ele></trkpt>
</trkseg></trk>
</gpx>
