<?xml version="1.0" encoding="UTF-8"?>
<gpx version="1.1" creator="Garmisch 2026" xmlns="http://www.topografix.com/GPX/1/1">
<metadata><name>Svētdiena - Garais (11 km)</name></metadata>
<wpt lat="47.465061" lon="11.045062"><name>Hammersbach (vilciena pietura)</name></wpt>
<wpt lat="47.44839" lon="11.04449"><name>Höllentaleingangshütte</name></wpt>
<wpt lat="47.471821" lon="11.023778"><name>Grainau stacija (vilciens uz Garmisch)</name></wpt>
<wpt lat="47.47336" lon="11.01635"><name>Badersee</name></wpt>
<wpt lat="47.49296" lon="11.08806"><name>Vakariņas: Zum Wildschütz 17:30</name></wpt>
<trk><name>Svētdiena - Garais (11 km)</name><trkseg><trkpt lat="47.465061" lon="11.045062"><ele>770</ele></trkpt><trkpt lat="47.465061" lon="11.045082"><ele>770</ele></trkpt><trkpt lat="47.465063" lon="11.045149"><ele>770</ele></trkpt><trkpt lat="47.465077" lon="11.045255"><ele>771</ele></trkpt><trkpt lat="47.465096" lon="11.045377"><ele>771</ele></trkpt><trkpt lat="47.464864" lon="11.045243"><ele>772</ele></trkpt><trkpt lat="47.464633" lon="11.045110"><ele>774</ele></trkpt><trkpt lat="47.464426" lon="11.044884"><ele>775</ele></trkpt><trkpt lat="47.464312" lon="11.044706"><ele>775</ele></trkpt><trkpt lat="47.464261" lon="11.044638"><ele>775</ele></trkpt><trkpt lat="47.464014" lon="11.044321"><ele>777</ele></trkpt><trkpt lat="47.463965" lon="11.044260"><ele>777</ele></trkpt><trkpt lat="47.463813" lon="11.044127"><ele>778</ele></trkpt><trkpt lat="47.463654" lon="11.044041"><ele>780</ele></trkpt><trkpt lat="47.463464" lon="11.043967"><ele>782</ele></trkpt><trkpt lat="47.463292" lon="11.044002"><ele>785</ele></trkpt><trkpt lat="47.463093" lon="11.044014"><ele>787</ele></trkpt><trkpt lat="47.462946" lon="11.044082"><ele>789</ele></trkpt><trkpt lat="47.462746" lon="11.044144"><ele>791</ele></trkpt><trkpt lat="47.462579" lon="11.044236"><ele>793</ele></trkpt><trkpt lat="47.462421" lon="11.044273"><ele>794</ele></trkpt><trkpt lat="47.462264" lon="11.044347"><ele>795</ele></trkpt><trkpt lat="47.462175" lon="11.044498"><ele>797</ele></trkpt><trkpt lat="47.462190" lon="11.044717"><ele>801</ele></trkpt><trkpt lat="47.462181" lon="11.045105"><ele>811</ele></trkpt><trkpt lat="47.462151" lon="11.045273"><ele>815</ele></trkpt><trkpt lat="47.462039" lon="11.045459"><ele>815</ele></trkpt><trkpt lat="47.461822" lon="11.045563"><ele>812</ele></trkpt><trkpt lat="47.461649" lon="11.045589"><ele>808</ele></trkpt><trkpt lat="47.461410" lon="11.045597"><ele>805</ele></trkpt><trkpt lat="47.461333" lon="11.045600"><ele>805</ele></trkpt><trkpt lat="47.461266" lon="11.045606"><ele>806</ele></trkpt><trkpt lat="47.461170" lon="11.045614"><ele>808</ele></trkpt><trkpt lat="47.460954" lon="11.045664"><ele>809</ele></trkpt><trkpt lat="47.460686" lon="11.045937"><ele>809</ele></trkpt><trkpt lat="47.460588" lon="11.045973"><ele>810</ele></trkpt><trkpt lat="47.460389" lon="11.045882"><ele>815</ele></trkpt><trkpt lat="47.460311" lon="11.045840"><ele>819</ele></trkpt><trkpt lat="47.460232" lon="11.045768"><ele>824</ele></trkpt><trkpt lat="47.460176" lon="11.045699"><ele>829</ele></trkpt><trkpt lat="47.460137" lon="11.045637"><ele>834</ele></trkpt><trkpt lat="47.460118" lon="11.045592"><ele>836</ele></trkpt><trkpt lat="47.460124" lon="11.045524"><ele>840</ele></trkpt><trkpt lat="47.460137" lon="11.045500"><ele>841</ele></trkpt><trkpt lat="47.460168" lon="11.045476"><ele>842</ele></trkpt><trkpt lat="47.460203" lon="11.045462"><ele>842</ele></trkpt><trkpt lat="47.460374" lon="11.045454"><ele>840</ele></trkpt><trkpt lat="47.460435" lon="11.045437"><ele>840</ele></trkpt><trkpt lat="47.460488" lon="11.045406"><ele>841</ele></trkpt><trkpt lat="47.460554" lon="11.045355"><ele>843</ele></trkpt><trkpt lat="47.460609" lon="11.045298"><ele>845</ele></trkpt><trkpt lat="47.460708" lon="11.045154"><ele>851</ele></trkpt><trkpt lat="47.460828" lon="11.045107"><ele>851</ele></trkpt><trkpt lat="47.460925" lon="11.045095"><ele>850</ele></trkpt><trkpt lat="47.460991" lon="11.045092"><ele>849</ele></trkpt><trkpt lat="47.461037" lon="11.045051"><ele>849</ele></trkpt><trkpt lat="47.461056" lon="11.044976"><ele>852</ele></trkpt><trkpt lat="47.461052" lon="11.044873"><ele>858</ele></trkpt><trkpt lat="47.461025" lon="11.044787"><ele>864</ele></trkpt><trkpt lat="47.460960" lon="11.044632"><ele>870</ele></trkpt><trkpt lat="47.460948" lon="11.044553"><ele>870</ele></trkpt><trkpt lat="47.460945" lon="11.044495"><ele>870</ele></trkpt><trkpt lat="47.460971" lon="11.044310"><ele>869</ele></trkpt><trkpt lat="47.460956" lon="11.044221"><ele>869</ele></trkpt><trkpt lat="47.460938" lon="11.044170"><ele>870</ele></trkpt><trkpt lat="47.460884" lon="11.044101"><ele>870</ele></trkpt><trkpt lat="47.460832" lon="11.044052"><ele>872</ele></trkpt><trkpt lat="47.460778" lon="11.044014"><ele>872</ele></trkpt><trkpt lat="47.460684" lon="11.043972"><ele>874</ele></trkpt><trkpt lat="47.460504" lon="11.043879"><ele>878</ele></trkpt><trkpt lat="47.460398" lon="11.043816"><ele>880</ele></trkpt><trkpt lat="47.460280" lon="11.043726"><ele>883</ele></trkpt><trkpt lat="47.460188" lon="11.043671"><ele>884</ele></trkpt><trkpt lat="47.460112" lon="11.043640"><ele>885</ele></trkpt><trkpt lat="47.460025" lon="11.043625"><ele>886</ele></trkpt><trkpt lat="47.459882" lon="11.043645"><ele>887</ele></trkpt><trkpt lat="47.459707" lon="11.043644"><ele>888</ele></trkpt><trkpt lat="47.459639" lon="11.043668"><ele>888</ele></trkpt><trkpt lat="47.459589" lon="11.043683"><ele>889</ele></trkpt><trkpt lat="47.459515" lon="11.043734"><ele>889</ele></trkpt><trkpt lat="47.459481" lon="11.043762"><ele>889</ele></trkpt><trkpt lat="47.459428" lon="11.043831"><ele>889</ele></trkpt><trkpt lat="47.459327" lon="11.044003"><ele>888</ele></trkpt><trkpt lat="47.459284" lon="11.044047"><ele>887</ele></trkpt><trkpt lat="47.459229" lon="11.044074"><ele>887</ele></trkpt><trkpt lat="47.459115" lon="11.044097"><ele>888</ele></trkpt><trkpt lat="47.458990" lon="11.044112"><ele>889</ele></trkpt><trkpt lat="47.458892" lon="11.044124"><ele>889</ele></trkpt><trkpt lat="47.458699" lon="11.044089"><ele>891</ele></trkpt><trkpt lat="47.458385" lon="11.044008"><ele>895</ele></trkpt><trkpt lat="47.458187" lon="11.043902"><ele>899</ele></trkpt><trkpt lat="47.457950" lon="11.043872"><ele>902</ele></trkpt><trkpt lat="47.457801" lon="11.043867"><ele>904</ele></trkpt><trkpt lat="47.457663" lon="11.043904"><ele>906</ele></trkpt><trkpt lat="47.457568" lon="11.043977"><ele>906</ele></trkpt><trkpt lat="47.457527" lon="11.044027"><ele>907</ele></trkpt><trkpt lat="47.457498" lon="11.044084"><ele>907</ele></trkpt><trkpt lat="47.457379" lon="11.044435"><ele>903</ele></trkpt><trkpt lat="47.457326" lon="11.044567"><ele>901</ele></trkpt><trkpt lat="47.457304" lon="11.044583"><ele>901</ele></trkpt><trkpt lat="47.457253" lon="11.044599"><ele>902</ele></trkpt><trkpt lat="47.457123" lon="11.044590"><ele>904</ele></trkpt><trkpt lat="47.457064" lon="11.044598"><ele>905</ele></trkpt><trkpt lat="47.456983" lon="11.044619"><ele>905</ele></trkpt><trkpt lat="47.456937" lon="11.044657"><ele>905</ele></trkpt><trkpt lat="47.456895" lon="11.044726"><ele>904</ele></trkpt><trkpt lat="47.456804" lon="11.044889"><ele>902</ele></trkpt><trkpt lat="47.456736" lon="11.045003"><ele>901</ele></trkpt><trkpt lat="47.456663" lon="11.045060"><ele>901</ele></trkpt><trkpt lat="47.456594" lon="11.045099"><ele>901</ele></trkpt><trkpt lat="47.456513" lon="11.045101"><ele>902</ele></trkpt><trkpt lat="47.456447" lon="11.045087"><ele>902</ele></trkpt><trkpt lat="47.456380" lon="11.045028"><ele>904</ele></trkpt><trkpt lat="47.456235" lon="11.044809"><ele>908</ele></trkpt><trkpt lat="47.456091" lon="11.044605"><ele>913</ele></trkpt><trkpt lat="47.455931" lon="11.044439"><ele>916</ele></trkpt><trkpt lat="47.455881" lon="11.044380"><ele>917</ele></trkpt><trkpt lat="47.455752" lon="11.044309"><ele>917</ele></trkpt><trkpt lat="47.455663" lon="11.044308"><ele>917</ele></trkpt><trkpt lat="47.455624" lon="11.044313"><ele>916</ele></trkpt><trkpt lat="47.455610" lon="11.044315"><ele>916</ele></trkpt><trkpt lat="47.455540" lon="11.044331"><ele>914</ele></trkpt><trkpt lat="47.455474" lon="11.044340"><ele>913</ele></trkpt><trkpt lat="47.455404" lon="11.044316"><ele>913</ele></trkpt><trkpt lat="47.455350" lon="11.044285"><ele>913</ele></trkpt><trkpt lat="47.455224" lon="11.044137"><ele>917</ele></trkpt><trkpt lat="47.454993" lon="11.044011"><ele>918</ele></trkpt><trkpt lat="47.454846" lon="11.043961"><ele>918</ele></trkpt><trkpt lat="47.454735" lon="11.043933"><ele>918</ele></trkpt><trkpt lat="47.454485" lon="11.043938"><ele>915</ele></trkpt><trkpt lat="47.454407" lon="11.043936"><ele>915</ele></trkpt><trkpt lat="47.454343" lon="11.043909"><ele>915</ele></trkpt><trkpt lat="47.454231" lon="11.043849"><ele>917</ele></trkpt><trkpt lat="47.454112" lon="11.043771"><ele>920</ele></trkpt><trkpt lat="47.454024" lon="11.043716"><ele>921</ele></trkpt><trkpt lat="47.453901" lon="11.043694"><ele>921</ele></trkpt><trkpt lat="47.453790" lon="11.043702"><ele>921</ele></trkpt><trkpt lat="47.453722" lon="11.043710"><ele>920</ele></trkpt><trkpt lat="47.453644" lon="11.043720"><ele>919</ele></trkpt><trkpt lat="47.453490" lon="11.043752"><ele>915</ele></trkpt><trkpt lat="47.453441" lon="11.043757"><ele>914</ele></trkpt><trkpt lat="47.453362" lon="11.043743"><ele>914</ele></trkpt><trkpt lat="47.453298" lon="11.043721"><ele>914</ele></trkpt><trkpt lat="47.453247" lon="11.043689"><ele>915</ele></trkpt><trkpt lat="47.453026" lon="11.043522"><ele>923</ele></trkpt><trkpt lat="47.452997" lon="11.043503"><ele>924</ele></trkpt><trkpt lat="47.452962" lon="11.043486"><ele>924</ele></trkpt><trkpt lat="47.452913" lon="11.043471"><ele>925</ele></trkpt><trkpt lat="47.452857" lon="11.043460"><ele>925</ele></trkpt><trkpt lat="47.452745" lon="11.043448"><ele>924</ele></trkpt><trkpt lat="47.452699" lon="11.043445"><ele>924</ele></trkpt><trkpt lat="47.452402" lon="11.043445"><ele>923</ele></trkpt><trkpt lat="47.452184" lon="11.043435"><ele>923</ele></trkpt><trkpt lat="47.452126" lon="11.043444"><ele>923</ele></trkpt><trkpt lat="47.452092" lon="11.043461"><ele>923</ele></trkpt><trkpt lat="47.452077" lon="11.043477"><ele>923</ele></trkpt><trkpt lat="47.452054" lon="11.043501"><ele>922</ele></trkpt><trkpt lat="47.451995" lon="11.043578"><ele>920</ele></trkpt><trkpt lat="47.451936" lon="11.043635"><ele>918</ele></trkpt><trkpt lat="47.451859" lon="11.043699"><ele>918</ele></trkpt><trkpt lat="47.451789" lon="11.043712"><ele>919</ele></trkpt><trkpt lat="47.451695" lon="11.043721"><ele>920</ele></trkpt><trkpt lat="47.451538" lon="11.043688"><ele>926</ele></trkpt><trkpt lat="47.451412" lon="11.043696"><ele>928</ele></trkpt><trkpt lat="47.451334" lon="11.043726"><ele>929</ele></trkpt><trkpt lat="47.451248" lon="11.043749"><ele>929</ele></trkpt><trkpt lat="47.451163" lon="11.043737"><ele>931</ele></trkpt><trkpt lat="47.451067" lon="11.043716"><ele>932</ele></trkpt><trkpt lat="47.450971" lon="11.043687"><ele>934</ele></trkpt><trkpt lat="47.450876" lon="11.043690"><ele>935</ele></trkpt><trkpt lat="47.450744" lon="11.043725"><ele>937</ele></trkpt><trkpt lat="47.450685" lon="11.043731"><ele>939</ele></trkpt><trkpt lat="47.450629" lon="11.043724"><ele>940</ele></trkpt><trkpt lat="47.450565" lon="11.043624"><ele>940</ele></trkpt><trkpt lat="47.450476" lon="11.043559"><ele>942</ele></trkpt><trkpt lat="47.450153" lon="11.043710"><ele>952</ele></trkpt><trkpt lat="47.450262" lon="11.043484"><ele>952</ele></trkpt><trkpt lat="47.449923" lon="11.043464"><ele>976</ele></trkpt><trkpt lat="47.450085" lon="11.043228"><ele>976</ele></trkpt><trkpt lat="47.449681" lon="11.043193"><ele>1003</ele></trkpt><trkpt lat="47.449944" lon="11.042862"><ele>1004</ele></trkpt><trkpt lat="47.449952" lon="11.042793"><ele>1007</ele></trkpt><trkpt lat="47.449681" lon="11.042806"><ele>1022</ele></trkpt><trkpt lat="47.449409" lon="11.042819"><ele>1040</ele></trkpt><trkpt lat="47.449240" lon="11.042891"><ele>1051</ele></trkpt><trkpt lat="47.448977" lon="11.043222"><ele>1056</ele></trkpt><trkpt lat="47.448883" lon="11.043557"><ele>1056</ele></trkpt><trkpt lat="47.448761" lon="11.043989"><ele>1057</ele></trkpt><trkpt lat="47.448746" lon="11.044042"><ele>1057</ele></trkpt><trkpt lat="47.448714" lon="11.044456"><ele>1061</ele></trkpt><trkpt lat="47.448690" lon="11.044359"><ele>1062</ele></trkpt><trkpt lat="47.448623" lon="11.044035"><ele>1068</ele></trkpt><trkpt lat="47.448532" lon="11.044269"><ele>1075</ele></trkpt><trkpt lat="47.448511" lon="11.044288"><ele>1077</ele></trkpt><trkpt lat="47.448384" lon="11.044408"><ele>1091</ele></trkpt><trkpt lat="47.448363" lon="11.044427"><ele>1093</ele></trkpt><trkpt lat="47.448271" lon="11.044398"><ele>1101</ele></trkpt><trkpt lat="47.448259" lon="11.044382"><ele>1102</ele></trkpt><trkpt lat="47.448203" lon="11.044327"><ele>1106</ele></trkpt><trkpt lat="47.448028" lon="11.044158"><ele>1118</ele></trkpt><trkpt lat="47.447862" lon="11.043920"><ele>1129</ele></trkpt><trkpt lat="47.447696" lon="11.043683"><ele>1138</ele></trkpt><trkpt lat="47.447415" lon="11.043360"><ele>1152</ele></trkpt><trkpt lat="47.447133" lon="11.043037"><ele>1164</ele></trkpt><trkpt lat="47.447075" lon="11.043132"><ele>1168</ele></trkpt><trkpt lat="47.447017" lon="11.043220"><ele>1172</ele></trkpt><trkpt lat="47.446813" lon="11.042991"><ele>1177</ele></trkpt><trkpt lat="47.446549" lon="11.042759"><ele>1183</ele></trkpt><trkpt lat="47.446370" lon="11.042641"><ele>1186</ele></trkpt><trkpt lat="47.446328" lon="11.042602"><ele>1186</ele></trkpt><trkpt lat="47.446359" lon="11.042483"><ele>1182</ele></trkpt><trkpt lat="47.446390" lon="11.042364"><ele>1180</ele></trkpt><trkpt lat="47.446216" lon="11.042198"><ele>1180</ele></trkpt><trkpt lat="47.445910" lon="11.042023"><ele>1187</ele></trkpt><trkpt lat="47.445605" lon="11.041847"><ele>1197</ele></trkpt><trkpt lat="47.445380" lon="11.041781"><ele>1205</ele></trkpt><trkpt lat="47.445354" lon="11.041785"><ele>1206</ele></trkpt><trkpt lat="47.444993" lon="11.041862"><ele>1218</ele></trkpt><trkpt lat="47.444631" lon="11.041939"><ele>1238</ele></trkpt><trkpt lat="47.444512" lon="11.041910"><ele>1244</ele></trkpt><trkpt lat="47.444410" lon="11.041805"><ele>1247</ele></trkpt><trkpt lat="47.444353" lon="11.041672"><ele>1247</ele></trkpt><trkpt lat="47.444312" lon="11.041462"><ele>1245</ele></trkpt><trkpt lat="47.444312" lon="11.041262"><ele>1243</ele></trkpt><trkpt lat="47.444317" lon="11.041224"><ele>1243</ele></trkpt><trkpt lat="47.444348" lon="11.040989"><ele>1242</ele></trkpt><trkpt lat="47.444358" lon="11.040942"><ele>1241</ele></trkpt><trkpt lat="47.444414" lon="11.040678"><ele>1241</ele></trkpt><trkpt lat="47.444569" lon="11.040428"><ele>1241</ele></trkpt><trkpt lat="47.444724" lon="11.040177"><ele>1243</ele></trkpt><trkpt lat="47.444740" lon="11.040152"><ele>1243</ele></trkpt><trkpt lat="47.444749" lon="11.040131"><ele>1244</ele></trkpt><trkpt lat="47.444754" lon="11.040107"><ele>1244</ele></trkpt><trkpt lat="47.444779" lon="11.039852"><ele>1247</ele></trkpt><trkpt lat="47.444776" lon="11.039819"><ele>1248</ele></trkpt><trkpt lat="47.444741" lon="11.039692"><ele>1248</ele></trkpt><trkpt lat="47.444733" lon="11.039673"><ele>1248</ele></trkpt><trkpt lat="47.444722" lon="11.039656"><ele>1248</ele></trkpt><trkpt lat="47.444611" lon="11.039536"><ele>1243</ele></trkpt><trkpt lat="47.444597" lon="11.039527"><ele>1242</ele></trkpt><trkpt lat="47.444261" lon="11.039388"><ele>1220</ele></trkpt><trkpt lat="47.444071" lon="11.039248"><ele>1206</ele></trkpt><trkpt lat="47.444024" lon="11.039174"><ele>1206</ele></trkpt><trkpt lat="47.444000" lon="11.038930"><ele>1206</ele></trkpt><trkpt lat="47.443996" lon="11.038909"><ele>1206</ele></trkpt><trkpt lat="47.443958" lon="11.038806"><ele>1204</ele></trkpt><trkpt lat="47.443950" lon="11.038790"><ele>1203</ele></trkpt><trkpt lat="47.443864" lon="11.038673"><ele>1199</ele></trkpt><trkpt lat="47.443854" lon="11.038663"><ele>1199</ele></trkpt><trkpt lat="47.443531" lon="11.038423"><ele>1194</ele></trkpt><trkpt lat="47.443302" lon="11.038357"><ele>1194</ele></trkpt><trkpt lat="47.443073" lon="11.038290"><ele>1224</ele></trkpt><trkpt lat="47.442996" lon="11.038246"><ele>1233</ele></trkpt><trkpt lat="47.442796" lon="11.037913"><ele>1261</ele></trkpt><trkpt lat="47.442739" lon="11.038006"><ele>1264</ele></trkpt><trkpt lat="47.442678" lon="11.038092"><ele>1269</ele></trkpt><trkpt lat="47.442459" lon="11.037867"><ele>1289</ele></trkpt><trkpt lat="47.442240" lon="11.037642"><ele>1304</ele></trkpt><trkpt lat="47.442089" lon="11.037433"><ele>1312</ele></trkpt><trkpt lat="47.442143" lon="11.037338"><ele>1312</ele></trkpt><trkpt lat="47.442196" lon="11.037240"><ele>1312</ele></trkpt><trkpt lat="47.442176" lon="11.037213"><ele>1312</ele></trkpt><trkpt lat="47.441956" lon="11.037032"><ele>1321</ele></trkpt><trkpt lat="47.441698" lon="11.036731"><ele>1329</ele></trkpt><trkpt lat="47.441581" lon="11.036653"><ele>1333</ele></trkpt><trkpt lat="47.441489" lon="11.036624"><ele>1335</ele></trkpt><trkpt lat="47.441491" lon="11.036519"><ele>1335</ele></trkpt><trkpt lat="47.441486" lon="11.036488"><ele>1335</ele></trkpt><trkpt lat="47.441460" lon="11.036414"><ele>1336</ele></trkpt><trkpt lat="47.441446" lon="11.036391"><ele>1336</ele></trkpt><trkpt lat="47.441429" lon="11.036374"><ele>1337</ele></trkpt><trkpt lat="47.441387" lon="11.036352"><ele>1338</ele></trkpt><trkpt lat="47.441333" lon="11.036269"><ele>1339</ele></trkpt><trkpt lat="47.441255" lon="11.036092"><ele>1340</ele></trkpt><trkpt lat="47.441258" lon="11.036010"><ele>1340</ele></trkpt><trkpt lat="47.441280" lon="11.035994"><ele>1339</ele></trkpt><trkpt lat="47.441323" lon="11.036049"><ele>1339</ele></trkpt><trkpt lat="47.441361" lon="11.036068"><ele>1338</ele></trkpt><trkpt lat="47.441374" lon="11.036004"><ele>1338</ele></trkpt><trkpt lat="47.441370" lon="11.035885"><ele>1338</ele></trkpt><trkpt lat="47.441324" lon="11.035509"><ele>1338</ele></trkpt><trkpt lat="47.441315" lon="11.035390"><ele>1338</ele></trkpt><trkpt lat="47.441341" lon="11.035239"><ele>1338</ele></trkpt><trkpt lat="47.441337" lon="11.035148"><ele>1338</ele></trkpt><trkpt lat="47.441296" lon="11.035093"><ele>1337</ele></trkpt><trkpt lat="47.441291" lon="11.035025"><ele>1337</ele></trkpt><trkpt lat="47.441311" lon="11.034934"><ele>1337</ele></trkpt><trkpt lat="47.441299" lon="11.034779"><ele>1337</ele></trkpt><trkpt lat="47.441279" lon="11.034657"><ele>1336</ele></trkpt><trkpt lat="47.441235" lon="11.034570"><ele>1334</ele></trkpt><trkpt lat="47.441200" lon="11.034519"><ele>1334</ele></trkpt><trkpt lat="47.441267" lon="11.034470"><ele>1335</ele></trkpt><trkpt lat="47.441280" lon="11.034419"><ele>1335</ele></trkpt><trkpt lat="47.441266" lon="11.034367"><ele>1334</ele></trkpt><trkpt lat="47.441190" lon="11.034289"><ele>1329</ele></trkpt><trkpt lat="47.441046" lon="11.034189"><ele>1320</ele></trkpt><trkpt lat="47.440939" lon="11.034151"><ele>1313</ele></trkpt><trkpt lat="47.440871" lon="11.034101"><ele>1308</ele></trkpt><trkpt lat="47.440800" lon="11.033979"><ele>1298</ele></trkpt><trkpt lat="47.440783" lon="11.033908"><ele>1292</ele></trkpt><trkpt lat="47.440788" lon="11.033844"><ele>1292</ele></trkpt><trkpt lat="47.440826" lon="11.033891"><ele>1297</ele></trkpt><trkpt lat="47.440934" lon="11.033953"><ele>1307</ele></trkpt><trkpt lat="47.441063" lon="11.033946"><ele>1318</ele></trkpt><trkpt lat="47.441201" lon="11.033936"><ele>1330</ele></trkpt><trkpt lat="47.441211" lon="11.033904"><ele>1330</ele></trkpt><trkpt lat="47.441189" lon="11.033881"><ele>1329</ele></trkpt><trkpt lat="47.441025" lon="11.033836"><ele>1314</ele></trkpt><trkpt lat="47.440911" lon="11.033731"><ele>1303</ele></trkpt><trkpt lat="47.440810" lon="11.033570"><ele>1301</ele></trkpt><trkpt lat="47.440760" lon="11.033428"><ele>1301</ele></trkpt><trkpt lat="47.440710" lon="11.033207"><ele>1303</ele></trkpt><trkpt lat="47.440701" lon="11.033088"><ele>1305</ele></trkpt><trkpt lat="47.440689" lon="11.032993"><ele>1307</ele></trkpt><trkpt lat="47.440664" lon="11.032890"><ele>1307</ele></trkpt><trkpt lat="47.440604" lon="11.032800"><ele>1307</ele></trkpt><trkpt lat="47.440595" lon="11.032725"><ele>1309</ele></trkpt><trkpt lat="47.440608" lon="11.032617"><ele>1313</ele></trkpt><trkpt lat="47.440536" lon="11.032357"><ele>1317</ele></trkpt><trkpt lat="47.440486" lon="11.032251"><ele>1317</ele></trkpt><trkpt lat="47.440458" lon="11.032128"><ele>1319</ele></trkpt><trkpt lat="47.440447" lon="11.031990"><ele>1321</ele></trkpt><trkpt lat="47.440411" lon="11.031899"><ele>1321</ele></trkpt><trkpt lat="47.440383" lon="11.031836"><ele>1321</ele></trkpt><trkpt lat="47.440355" lon="11.031686"><ele>1321</ele></trkpt><trkpt lat="47.440318" lon="11.031452"><ele>1321</ele></trkpt><trkpt lat="47.440273" lon="11.031247"><ele>1321</ele></trkpt><trkpt lat="47.440258" lon="11.031210"><ele>1320</ele></trkpt><trkpt lat="47.440207" lon="11.031089"><ele>1319</ele></trkpt><trkpt lat="47.440104" lon="11.030932"><ele>1319</ele></trkpt><trkpt lat="47.439972" lon="11.030657"><ele>1321</ele></trkpt><trkpt lat="47.439917" lon="11.030528"><ele>1322</ele></trkpt><trkpt lat="47.439889" lon="11.030357"><ele>1329</ele></trkpt><trkpt lat="47.439823" lon="11.030207"><ele>1331</ele></trkpt><trkpt lat="47.439768" lon="11.030158"><ele>1331</ele></trkpt><trkpt lat="47.439684" lon="11.030082"><ele>1331</ele></trkpt><trkpt lat="47.439686" lon="11.029872"><ele>1328</ele></trkpt><trkpt lat="47.439661" lon="11.029743"><ele>1328</ele></trkpt><trkpt lat="47.439609" lon="11.029476"><ele>1333</ele></trkpt><trkpt lat="47.439576" lon="11.029179"><ele>1334</ele></trkpt><trkpt lat="47.439501" lon="11.028853"><ele>1335</ele></trkpt><trkpt lat="47.439425" lon="11.028528"><ele>1336</ele></trkpt><trkpt lat="47.439388" lon="11.028432"><ele>1338</ele></trkpt><trkpt lat="47.439299" lon="11.027978"><ele>1344</ele></trkpt><trkpt lat="47.439292" lon="11.027942"><ele>1345</ele></trkpt><trkpt lat="47.439215" lon="11.027674"><ele>1350</ele></trkpt><trkpt lat="47.439174" lon="11.027564"><ele>1351</ele></trkpt><trkpt lat="47.439149" lon="11.027516"><ele>1351</ele></trkpt><trkpt lat="47.439097" lon="11.027410"><ele>1351</ele></trkpt><trkpt lat="47.439087" lon="11.027343"><ele>1353</ele></trkpt><trkpt lat="47.439078" lon="11.027251"><ele>1355</ele></trkpt><trkpt lat="47.439065" lon="11.027206"><ele>1355</ele></trkpt><trkpt lat="47.439005" lon="11.027060"><ele>1356</ele></trkpt><trkpt lat="47.438806" lon="11.026719"><ele>1356</ele></trkpt><trkpt lat="47.438719" lon="11.026599"><ele>1358</ele></trkpt><trkpt lat="47.438558" lon="11.026131"><ele>1369</ele></trkpt><trkpt lat="47.438507" lon="11.025958"><ele>1370</ele></trkpt><trkpt lat="47.438455" lon="11.025548"><ele>1373</ele></trkpt><trkpt lat="47.438403" lon="11.025414"><ele>1375</ele></trkpt><trkpt lat="47.438367" lon="11.025320"><ele>1377</ele></trkpt><trkpt lat="47.438284" lon="11.025200"><ele>1380</ele></trkpt><trkpt lat="47.438367" lon="11.025320"><ele>1377</ele></trkpt><trkpt lat="47.438403" lon="11.025414"><ele>1375</ele></trkpt><trkpt lat="47.438455" lon="11.025548"><ele>1373</ele></trkpt><trkpt lat="47.438507" lon="11.025958"><ele>1370</ele></trkpt><trkpt lat="47.438558" lon="11.026131"><ele>1369</ele></trkpt><trkpt lat="47.438719" lon="11.026599"><ele>1358</ele></trkpt><trkpt lat="47.438806" lon="11.026719"><ele>1357</ele></trkpt><trkpt lat="47.439005" lon="11.027060"><ele>1355</ele></trkpt><trkpt lat="47.439065" lon="11.027206"><ele>1355</ele></trkpt><trkpt lat="47.439078" lon="11.027251"><ele>1355</ele></trkpt><trkpt lat="47.439087" lon="11.027343"><ele>1353</ele></trkpt><trkpt lat="47.439097" lon="11.027410"><ele>1352</ele></trkpt><trkpt lat="47.439149" lon="11.027516"><ele>1351</ele></trkpt><trkpt lat="47.439174" lon="11.027564"><ele>1351</ele></trkpt><trkpt lat="47.439215" lon="11.027674"><ele>1350</ele></trkpt><trkpt lat="47.439292" lon="11.027942"><ele>1345</ele></trkpt><trkpt lat="47.439299" lon="11.027978"><ele>1344</ele></trkpt><trkpt lat="47.439388" lon="11.028432"><ele>1338</ele></trkpt><trkpt lat="47.439425" lon="11.028528"><ele>1336</ele></trkpt><trkpt lat="47.439501" lon="11.028853"><ele>1335</ele></trkpt><trkpt lat="47.439576" lon="11.029179"><ele>1334</ele></trkpt><trkpt lat="47.439609" lon="11.029476"><ele>1333</ele></trkpt><trkpt lat="47.439661" lon="11.029743"><ele>1328</ele></trkpt><trkpt lat="47.439686" lon="11.029872"><ele>1328</ele></trkpt><trkpt lat="47.439684" lon="11.030082"><ele>1331</ele></trkpt><trkpt lat="47.439768" lon="11.030158"><ele>1331</ele></trkpt><trkpt lat="47.439823" lon="11.030207"><ele>1331</ele></trkpt><trkpt lat="47.439889" lon="11.030357"><ele>1329</ele></trkpt><trkpt lat="47.439917" lon="11.030528"><ele>1322</ele></trkpt><trkpt lat="47.439972" lon="11.030657"><ele>1321</ele></trkpt><trkpt lat="47.440104" lon="11.030932"><ele>1320</ele></trkpt><trkpt lat="47.440207" lon="11.031089"><ele>1320</ele></trkpt><trkpt lat="47.440258" lon="11.031210"><ele>1320</ele></trkpt><trkpt lat="47.440273" lon="11.031247"><ele>1321</ele></trkpt><trkpt lat="47.440318" lon="11.031452"><ele>1321</ele></trkpt><trkpt lat="47.440355" lon="11.031686"><ele>1321</ele></trkpt><trkpt lat="47.440383" lon="11.031836"><ele>1321</ele></trkpt><trkpt lat="47.440411" lon="11.031899"><ele>1321</ele></trkpt><trkpt lat="47.440447" lon="11.031990"><ele>1321</ele></trkpt><trkpt lat="47.440458" lon="11.032128"><ele>1319</ele></trkpt><trkpt lat="47.440486" lon="11.032251"><ele>1317</ele></trkpt><trkpt lat="47.440536" lon="11.032357"><ele>1317</ele></trkpt><trkpt lat="47.440608" lon="11.032617"><ele>1313</ele></trkpt><trkpt lat="47.440595" lon="11.032725"><ele>1309</ele></trkpt><trkpt lat="47.440604" lon="11.032800"><ele>1308</ele></trkpt><trkpt lat="47.440664" lon="11.032890"><ele>1307</ele></trkpt><trkpt lat="47.440689" lon="11.032993"><ele>1307</ele></trkpt><trkpt lat="47.440701" lon="11.033088"><ele>1305</ele></trkpt><trkpt lat="47.440710" lon="11.033207"><ele>1303</ele></trkpt><trkpt lat="47.440760" lon="11.033428"><ele>1301</ele></trkpt><trkpt lat="47.440810" lon="11.033570"><ele>1301</ele></trkpt><trkpt lat="47.440911" lon="11.033731"><ele>1303</ele></trkpt><trkpt lat="47.441025" lon="11.033836"><ele>1314</ele></trkpt><trkpt lat="47.441189" lon="11.033881"><ele>1329</ele></trkpt><trkpt lat="47.441211" lon="11.033904"><ele>1330</ele></trkpt><trkpt lat="47.441201" lon="11.033936"><ele>1330</ele></trkpt><trkpt lat="47.441063" lon="11.033946"><ele>1318</ele></trkpt><trkpt lat="47.440934" lon="11.033953"><ele>1307</ele></trkpt><trkpt lat="47.440826" lon="11.033891"><ele>1297</ele></trkpt><trkpt lat="47.440788" lon="11.033844"><ele>1292</ele></trkpt><trkpt lat="47.440783" lon="11.033908"><ele>1292</ele></trkpt><trkpt lat="47.440800" lon="11.033979"><ele>1298</ele></trkpt><trkpt lat="47.440871" lon="11.034101"><ele>1308</ele></trkpt><trkpt lat="47.440939" lon="11.034151"><ele>1313</ele></trkpt><trkpt lat="47.441046" lon="11.034189"><ele>1320</ele></trkpt><trkpt lat="47.441190" lon="11.034289"><ele>1329</ele></trkpt><trkpt lat="47.441266" lon="11.034367"><ele>1334</ele></trkpt><trkpt lat="47.441280" lon="11.034419"><ele>1335</ele></trkpt><trkpt lat="47.441267" lon="11.034470"><ele>1335</ele></trkpt><trkpt lat="47.441200" lon="11.034519"><ele>1334</ele></trkpt><trkpt lat="47.441235" lon="11.034570"><ele>1334</ele></trkpt><trkpt lat="47.441279" lon="11.034657"><ele>1336</ele></trkpt><trkpt lat="47.441299" lon="11.034779"><ele>1337</ele></trkpt><trkpt lat="47.441311" lon="11.034934"><ele>1337</ele></trkpt><trkpt lat="47.441291" lon="11.035025"><ele>1337</ele></trkpt><trkpt lat="47.441296" lon="11.035093"><ele>1337</ele></trkpt><trkpt lat="47.441337" lon="11.035148"><ele>1338</ele></trkpt><trkpt lat="47.441341" lon="11.035239"><ele>1338</ele></trkpt><trkpt lat="47.441315" lon="11.035390"><ele>1338</ele></trkpt><trkpt lat="47.441324" lon="11.035509"><ele>1338</ele></trkpt><trkpt lat="47.441370" lon="11.035885"><ele>1338</ele></trkpt><trkpt lat="47.441374" lon="11.036004"><ele>1338</ele></trkpt><trkpt lat="47.441361" lon="11.036068"><ele>1338</ele></trkpt><trkpt lat="47.441323" lon="11.036049"><ele>1339</ele></trkpt><trkpt lat="47.441280" lon="11.035994"><ele>1339</ele></trkpt><trkpt lat="47.441258" lon="11.036010"><ele>1340</ele></trkpt><trkpt lat="47.441255" lon="11.036092"><ele>1340</ele></trkpt><trkpt lat="47.441118" lon="11.036070"><ele>1344</ele></trkpt><trkpt lat="47.441058" lon="11.036068"><ele>1346</ele></trkpt><trkpt lat="47.440990" lon="11.036072"><ele>1349</ele></trkpt><trkpt lat="47.440887" lon="11.036115"><ele>1355</ele></trkpt><trkpt lat="47.440789" lon="11.036156"><ele>1362</ele></trkpt><trkpt lat="47.440771" lon="11.036170"><ele>1364</ele></trkpt><trkpt lat="47.440741" lon="11.036211"><ele>1366</ele></trkpt><trkpt lat="47.440724" lon="11.036230"><ele>1368</ele></trkpt><trkpt lat="47.440731" lon="11.036272"><ele>1368</ele></trkpt><trkpt lat="47.440758" lon="11.036355"><ele>1368</ele></trkpt><trkpt lat="47.440804" lon="11.036494"><ele>1368</ele></trkpt><trkpt lat="47.440912" lon="11.036587"><ele>1363</ele></trkpt><trkpt lat="47.440923" lon="11.036596"><ele>1363</ele></trkpt><trkpt lat="47.440953" lon="11.036777"><ele>1363</ele></trkpt><trkpt lat="47.441114" lon="11.036760"><ele>1354</ele></trkpt><trkpt lat="47.441224" lon="11.037002"><ele>1354</ele></trkpt><trkpt lat="47.441207" lon="11.037170"><ele>1358</ele></trkpt><trkpt lat="47.441427" lon="11.037466"><ele>1352</ele></trkpt><trkpt lat="47.441533" lon="11.037652"><ele>1351</ele></trkpt><trkpt lat="47.441832" lon="11.037800"><ele>1335</ele></trkpt><trkpt lat="47.441881" lon="11.037939"><ele>1324</ele></trkpt><trkpt lat="47.442028" lon="11.037992"><ele>1324</ele></trkpt><trkpt lat="47.442292" lon="11.038447"><ele>1317</ele></trkpt><trkpt lat="47.442488" lon="11.038709"><ele>1310</ele></trkpt><trkpt lat="47.442656" lon="11.038943"><ele>1306</ele></trkpt><trkpt lat="47.442824" lon="11.039177"><ele>1303</ele></trkpt><trkpt lat="47.442899" lon="11.039181"><ele>1295</ele></trkpt><trkpt lat="47.443018" lon="11.039187"><ele>1284</ele></trkpt><trkpt lat="47.443279" lon="11.039350"><ele>1270</ele></trkpt><trkpt lat="47.443399" lon="11.039543"><ele>1270</ele></trkpt><trkpt lat="47.443481" lon="11.039764"><ele>1274</ele></trkpt><trkpt lat="47.443479" lon="11.039981"><ele>1274</ele></trkpt><trkpt lat="47.443643" lon="11.039880"><ele>1274</ele></trkpt><trkpt lat="47.443603" lon="11.040111"><ele>1276</ele></trkpt><trkpt lat="47.443638" lon="11.040354"><ele>1276</ele></trkpt><trkpt lat="47.443797" lon="11.040114"><ele>1268</ele></trkpt><trkpt lat="47.443819" lon="11.040546"><ele>1255</ele></trkpt><trkpt lat="47.444000" lon="11.040208"><ele>1255</ele></trkpt><trkpt lat="47.444156" lon="11.040115"><ele>1251</ele></trkpt><trkpt lat="47.444114" lon="11.040304"><ele>1249</ele></trkpt><trkpt lat="47.444177" lon="11.040373"><ele>1249</ele></trkpt><trkpt lat="47.444130" lon="11.040499"><ele>1251</ele></trkpt><trkpt lat="47.443994" lon="11.040669"><ele>1253</ele></trkpt><trkpt lat="47.444198" lon="11.040866"><ele>1248</ele></trkpt><trkpt lat="47.444278" lon="11.040906"><ele>1245</ele></trkpt><trkpt lat="47.444331" lon="11.040929"><ele>1242</ele></trkpt><trkpt lat="47.444358" lon="11.040942"><ele>1241</ele></trkpt><trkpt lat="47.444576" lon="11.040969"><ele>1234</ele></trkpt><trkpt lat="47.444658" lon="11.041233"><ele>1229</ele></trkpt><trkpt lat="47.444722" lon="11.041476"><ele>1226</ele></trkpt><trkpt lat="47.444767" lon="11.041252"><ele>1226</ele></trkpt><trkpt lat="47.444851" lon="11.041104"><ele>1227</ele></trkpt><trkpt lat="47.444741" lon="11.040980"><ele>1230</ele></trkpt><trkpt lat="47.444907" lon="11.040984"><ele>1230</ele></trkpt><trkpt lat="47.445124" lon="11.040890"><ele>1235</ele></trkpt><trkpt lat="47.445156" lon="11.040882"><ele>1236</ele></trkpt><trkpt lat="47.445337" lon="11.040837"><ele>1242</ele></trkpt><trkpt lat="47.445606" lon="11.040797"><ele>1248</ele></trkpt><trkpt lat="47.445875" lon="11.040758"><ele>1248</ele></trkpt><trkpt lat="47.446202" lon="11.040780"><ele>1246</ele></trkpt><trkpt lat="47.446464" lon="11.040921"><ele>1244</ele></trkpt><trkpt lat="47.446826" lon="11.041228"><ele>1228</ele></trkpt><trkpt lat="47.447156" lon="11.041634"><ele>1228</ele></trkpt><trkpt lat="47.447332" lon="11.041812"><ele>1221</ele></trkpt><trkpt lat="47.447527" lon="11.041941"><ele>1219</ele></trkpt><trkpt lat="47.447682" lon="11.042287"><ele>1208</ele></trkpt><trkpt lat="47.447816" lon="11.042487"><ele>1200</ele></trkpt><trkpt lat="47.447977" lon="11.042484"><ele>1200</ele></trkpt><trkpt lat="47.448094" lon="11.042314"><ele>1197</ele></trkpt><trkpt lat="47.448184" lon="11.042125"><ele>1194</ele></trkpt><trkpt lat="47.448353" lon="11.041940"><ele>1180</ele></trkpt><trkpt lat="47.448478" lon="11.041631"><ele>1173</ele></trkpt><trkpt lat="47.448518" lon="11.041572"><ele>1171</ele></trkpt><trkpt lat="47.448660" lon="11.041363"><ele>1165</ele></trkpt><trkpt lat="47.448884" lon="11.040982"><ele>1159</ele></trkpt><trkpt lat="47.449090" lon="11.040672"><ele>1159</ele></trkpt><trkpt lat="47.449120" lon="11.040623"><ele>1160</ele></trkpt><trkpt lat="47.449384" lon="11.040199"><ele>1176</ele></trkpt><trkpt lat="47.449619" lon="11.039943"><ele>1183</ele></trkpt><trkpt lat="47.449767" lon="11.039613"><ele>1205</ele></trkpt><trkpt lat="47.449872" lon="11.039365"><ele>1221</ele></trkpt><trkpt lat="47.449899" lon="11.039376"><ele>1221</ele></trkpt><trkpt lat="47.450028" lon="11.039404"><ele>1207</ele></trkpt><trkpt lat="47.450029" lon="11.039522"><ele>1194</ele></trkpt><trkpt lat="47.450133" lon="11.039547"><ele>1183</ele></trkpt><trkpt lat="47.450528" lon="11.039469"><ele>1161</ele></trkpt><trkpt lat="47.450307" lon="11.039674"><ele>1158</ele></trkpt><trkpt lat="47.450087" lon="11.039880"><ele>1154</ele></trkpt><trkpt lat="47.450318" lon="11.039813"><ele>1146</ele></trkpt><trkpt lat="47.450548" lon="11.039746"><ele>1138</ele></trkpt><trkpt lat="47.450247" lon="11.040109"><ele>1128</ele></trkpt><trkpt lat="47.449940" lon="11.040348"><ele>1126</ele></trkpt><trkpt lat="47.450324" lon="11.040484"><ele>1104</ele></trkpt><trkpt lat="47.450057" lon="11.040600"><ele>1104</ele></trkpt><trkpt lat="47.449936" lon="11.040652"><ele>1104</ele></trkpt><trkpt lat="47.450228" lon="11.040737"><ele>1090</ele></trkpt><trkpt lat="47.450538" lon="11.040749"><ele>1079</ele></trkpt><trkpt lat="47.450261" lon="11.041040"><ele>1079</ele></trkpt><trkpt lat="47.449918" lon="11.041205"><ele>1079</ele></trkpt><trkpt lat="47.450197" lon="11.041346"><ele>1067</ele></trkpt><trkpt lat="47.450477" lon="11.041413"><ele>1058</ele></trkpt><trkpt lat="47.450671" lon="11.041319"><ele>1052</ele></trkpt><trkpt lat="47.450864" lon="11.041164"><ele>1047</ele></trkpt><trkpt lat="47.450733" lon="11.041511"><ele>1043</ele></trkpt><trkpt lat="47.450549" lon="11.041737"><ele>1043</ele></trkpt><trkpt lat="47.450490" lon="11.041808"><ele>1043</ele></trkpt><trkpt lat="47.450286" lon="11.041855"><ele>1049</ele></trkpt><trkpt lat="47.450034" lon="11.041782"><ele>1057</ele></trkpt><trkpt lat="47.449923" lon="11.041746"><ele>1061</ele></trkpt><trkpt lat="47.449829" lon="11.041716"><ele>1065</ele></trkpt><trkpt lat="47.449499" lon="11.042076"><ele>1067</ele></trkpt><trkpt lat="47.449330" lon="11.042148"><ele>1077</ele></trkpt><trkpt lat="47.449151" lon="11.042400"><ele>1079</ele></trkpt><trkpt lat="47.449031" lon="11.042730"><ele>1079</ele></trkpt><trkpt lat="47.448992" lon="11.043088"><ele>1065</ele></trkpt><trkpt lat="47.448977" lon="11.043222"><ele>1059</ele></trkpt><trkpt lat="47.449240" lon="11.042891"><ele>1051</ele></trkpt><trkpt lat="47.449409" lon="11.042819"><ele>1040</ele></trkpt><trkpt lat="47.449681" lon="11.042806"><ele>1022</ele></trkpt><trkpt lat="47.449952" lon="11.042793"><ele>1007</ele></trkpt><trkpt lat="47.449944" lon="11.042862"><ele>1004</ele></trkpt><trkpt lat="47.449681" lon="11.043193"><ele>1003</ele></trkpt><trkpt lat="47.450085" lon="11.043228"><ele>978</ele></trkpt><trkpt lat="47.449923" lon="11.043464"><ele>952</ele></trkpt><trkpt lat="47.450262" lon="11.043484"><ele>952</ele></trkpt><trkpt lat="47.450153" lon="11.043710"><ele>952</ele></trkpt><trkpt lat="47.450476" lon="11.043559"><ele>942</ele></trkpt><trkpt lat="47.450565" lon="11.043624"><ele>940</ele></trkpt><trkpt lat="47.450629" lon="11.043724"><ele>940</ele></trkpt><trkpt lat="47.450685" lon="11.043731"><ele>939</ele></trkpt><trkpt lat="47.450744" lon="11.043725"><ele>937</ele></trkpt><trkpt lat="47.450876" lon="11.043690"><ele>935</ele></trkpt><trkpt lat="47.450971" lon="11.043687"><ele>934</ele></trkpt><trkpt lat="47.451067" lon="11.043716"><ele>932</ele></trkpt><trkpt lat="47.451163" lon="11.043737"><ele>931</ele></trkpt><trkpt lat="47.451248" lon="11.043749"><ele>929</ele></trkpt><trkpt lat="47.451334" lon="11.043726"><ele>929</ele></trkpt><trkpt lat="47.451412" lon="11.043696"><ele>928</ele></trkpt><trkpt lat="47.451538" lon="11.043688"><ele>926</ele></trkpt><trkpt lat="47.451695" lon="11.043721"><ele>920</ele></trkpt><trkpt lat="47.451789" lon="11.043712"><ele>919</ele></trkpt><trkpt lat="47.451859" lon="11.043699"><ele>918</ele></trkpt><trkpt lat="47.451936" lon="11.043635"><ele>918</ele></trkpt><trkpt lat="47.451995" lon="11.043578"><ele>920</ele></trkpt><trkpt lat="47.452054" lon="11.043501"><ele>922</ele></trkpt><trkpt lat="47.452077" lon="11.043477"><ele>923</ele></trkpt><trkpt lat="47.452092" lon="11.043461"><ele>923</ele></trkpt><trkpt lat="47.452126" lon="11.043444"><ele>923</ele></trkpt><trkpt lat="47.452184" lon="11.043435"><ele>923</ele></trkpt><trkpt lat="47.452402" lon="11.043445"><ele>923</ele></trkpt><trkpt lat="47.452699" lon="11.043445"><ele>924</ele></trkpt><trkpt lat="47.452745" lon="11.043448"><ele>924</ele></trkpt><trkpt lat="47.452857" lon="11.043460"><ele>925</ele></trkpt><trkpt lat="47.452913" lon="11.043471"><ele>925</ele></trkpt><trkpt lat="47.452962" lon="11.043486"><ele>924</ele></trkpt><trkpt lat="47.452997" lon="11.043503"><ele>924</ele></trkpt><trkpt lat="47.453026" lon="11.043522"><ele>923</ele></trkpt><trkpt lat="47.453247" lon="11.043689"><ele>915</ele></trkpt><trkpt lat="47.453298" lon="11.043721"><ele>914</ele></trkpt><trkpt lat="47.453362" lon="11.043743"><ele>914</ele></trkpt><trkpt lat="47.453441" lon="11.043757"><ele>914</ele></trkpt><trkpt lat="47.453490" lon="11.043752"><ele>915</ele></trkpt><trkpt lat="47.453644" lon="11.043720"><ele>919</ele></trkpt><trkpt lat="47.453722" lon="11.043710"><ele>920</ele></trkpt><trkpt lat="47.453790" lon="11.043702"><ele>921</ele></trkpt><trkpt lat="47.453901" lon="11.043694"><ele>921</ele></trkpt><trkpt lat="47.454024" lon="11.043716"><ele>921</ele></trkpt><trkpt lat="47.454112" lon="11.043771"><ele>920</ele></trkpt><trkpt lat="47.454231" lon="11.043849"><ele>917</ele></trkpt><trkpt lat="47.454343" lon="11.043909"><ele>915</ele></trkpt><trkpt lat="47.454407" lon="11.043936"><ele>915</ele></trkpt><trkpt lat="47.454485" lon="11.043938"><ele>915</ele></trkpt><trkpt lat="47.454735" lon="11.043933"><ele>918</ele></trkpt><trkpt lat="47.454846" lon="11.043961"><ele>918</ele></trkpt><trkpt lat="47.454993" lon="11.044011"><ele>918</ele></trkpt><trkpt lat="47.455224" lon="11.044137"><ele>917</ele></trkpt><trkpt lat="47.455350" lon="11.044285"><ele>913</ele></trkpt><trkpt lat="47.455404" lon="11.044316"><ele>913</ele></trkpt><trkpt lat="47.455474" lon="11.044340"><ele>913</ele></trkpt><trkpt lat="47.455540" lon="11.044331"><ele>914</ele></trkpt><trkpt lat="47.455610" lon="11.044315"><ele>916</ele></trkpt><trkpt lat="47.455624" lon="11.044313"><ele>916</ele></trkpt><trkpt lat="47.455663" lon="11.044308"><ele>917</ele></trkpt><trkpt lat="47.455752" lon="11.044309"><ele>917</ele></trkpt><trkpt lat="47.455881" lon="11.044380"><ele>917</ele></trkpt><trkpt lat="47.455931" lon="11.044439"><ele>916</ele></trkpt><trkpt lat="47.456091" lon="11.044605"><ele>913</ele></trkpt><trkpt lat="47.456235" lon="11.044809"><ele>908</ele></trkpt><trkpt lat="47.456380" lon="11.045028"><ele>904</ele></trkpt><trkpt lat="47.456447" lon="11.045087"><ele>902</ele></trkpt><trkpt lat="47.456513" lon="11.045101"><ele>902</ele></trkpt><trkpt lat="47.456594" lon="11.045099"><ele>901</ele></trkpt><trkpt lat="47.456663" lon="11.045060"><ele>901</ele></trkpt><trkpt lat="47.456736" lon="11.045003"><ele>901</ele></trkpt><trkpt lat="47.456804" lon="11.044889"><ele>902</ele></trkpt><trkpt lat="47.456895" lon="11.044726"><ele>904</ele></trkpt><trkpt lat="47.456937" lon="11.044657"><ele>905</ele></trkpt><trkpt lat="47.456983" lon="11.044619"><ele>905</ele></trkpt><trkpt lat="47.457064" lon="11.044598"><ele>905</ele></trkpt><trkpt lat="47.457123" lon="11.044590"><ele>904</ele></trkpt><trkpt lat="47.457253" lon="11.044599"><ele>902</ele></trkpt><trkpt lat="47.457304" lon="11.044583"><ele>901</ele></trkpt><trkpt lat="47.457326" lon="11.044567"><ele>901</ele></trkpt><trkpt lat="47.457379" lon="11.044435"><ele>903</ele></trkpt><trkpt lat="47.457498" lon="11.044084"><ele>907</ele></trkpt><trkpt lat="47.457527" lon="11.044027"><ele>907</ele></trkpt><trkpt lat="47.457568" lon="11.043977"><ele>906</ele></trkpt><trkpt lat="47.457663" lon="11.043904"><ele>906</ele></trkpt><trkpt lat="47.457801" lon="11.043867"><ele>904</ele></trkpt><trkpt lat="47.457950" lon="11.043872"><ele>902</ele></trkpt><trkpt lat="47.458187" lon="11.043902"><ele>899</ele></trkpt><trkpt lat="47.458385" lon="11.044008"><ele>895</ele></trkpt><trkpt lat="47.458699" lon="11.044089"><ele>891</ele></trkpt><trkpt lat="47.458892" lon="11.044124"><ele>889</ele></trkpt><trkpt lat="47.458990" lon="11.044112"><ele>889</ele></trkpt><trkpt lat="47.459115" lon="11.044097"><ele>888</ele></trkpt><trkpt lat="47.459229" lon="11.044074"><ele>887</ele></trkpt><trkpt lat="47.459284" lon="11.044047"><ele>887</ele></trkpt><trkpt lat="47.459327" lon="11.044003"><ele>888</ele></trkpt><trkpt lat="47.459428" lon="11.043831"><ele>889</ele></trkpt><trkpt lat="47.459481" lon="11.043762"><ele>889</ele></trkpt><trkpt lat="47.459515" lon="11.043734"><ele>889</ele></trkpt><trkpt lat="47.459589" lon="11.043683"><ele>889</ele></trkpt><trkpt lat="47.459639" lon="11.043668"><ele>888</ele></trkpt><trkpt lat="47.459707" lon="11.043644"><ele>888</ele></trkpt><trkpt lat="47.459882" lon="11.043645"><ele>887</ele></trkpt><trkpt lat="47.460025" lon="11.043625"><ele>886</ele></trkpt><trkpt lat="47.460112" lon="11.043640"><ele>885</ele></trkpt><trkpt lat="47.460188" lon="11.043671"><ele>884</ele></trkpt><trkpt lat="47.460280" lon="11.043726"><ele>883</ele></trkpt><trkpt lat="47.460398" lon="11.043816"><ele>880</ele></trkpt><trkpt lat="47.460504" lon="11.043879"><ele>878</ele></trkpt><trkpt lat="47.460684" lon="11.043972"><ele>874</ele></trkpt><trkpt lat="47.460778" lon="11.044014"><ele>872</ele></trkpt><trkpt lat="47.460832" lon="11.044052"><ele>872</ele></trkpt><trkpt lat="47.460884" lon="11.044101"><ele>870</ele></trkpt><trkpt lat="47.460938" lon="11.044170"><ele>870</ele></trkpt><trkpt lat="47.460956" lon="11.044221"><ele>869</ele></trkpt><trkpt lat="47.460971" lon="11.044310"><ele>869</ele></trkpt><trkpt lat="47.460945" lon="11.044495"><ele>870</ele></trkpt><trkpt lat="47.460948" lon="11.044553"><ele>870</ele></trkpt><trkpt lat="47.460960" lon="11.044632"><ele>870</ele></trkpt><trkpt lat="47.461025" lon="11.044787"><ele>864</ele></trkpt><trkpt lat="47.461052" lon="11.044873"><ele>858</ele></trkpt><trkpt lat="47.461056" lon="11.044976"><ele>852</ele></trkpt><trkpt lat="47.461037" lon="11.045051"><ele>849</ele></trkpt><trkpt lat="47.460991" lon="11.045092"><ele>849</ele></trkpt><trkpt lat="47.460925" lon="11.045095"><ele>850</ele></trkpt><trkpt lat="47.460828" lon="11.045107"><ele>851</ele></trkpt><trkpt lat="47.460708" lon="11.045154"><ele>851</ele></trkpt><trkpt lat="47.460609" lon="11.045298"><ele>845</ele></trkpt><trkpt lat="47.460554" lon="11.045355"><ele>843</ele></trkpt><trkpt lat="47.460488" lon="11.045406"><ele>841</ele></trkpt><trkpt lat="47.460435" lon="11.045437"><ele>840</ele></trkpt><trkpt lat="47.460374" lon="11.045454"><ele>840</ele></trkpt><trkpt lat="47.460203" lon="11.045462"><ele>842</ele></trkpt><trkpt lat="47.460168" lon="11.045476"><ele>842</ele></trkpt><trkpt lat="47.460137" lon="11.045500"><ele>841</ele></trkpt><trkpt lat="47.460124" lon="11.045524"><ele>840</ele></trkpt><trkpt lat="47.460118" lon="11.045592"><ele>836</ele></trkpt><trkpt lat="47.460137" lon="11.045637"><ele>834</ele></trkpt><trkpt lat="47.460176" lon="11.045699"><ele>829</ele></trkpt><trkpt lat="47.460232" lon="11.045768"><ele>824</ele></trkpt><trkpt lat="47.460311" lon="11.045840"><ele>819</ele></trkpt><trkpt lat="47.460389" lon="11.045882"><ele>815</ele></trkpt><trkpt lat="47.460588" lon="11.045973"><ele>810</ele></trkpt><trkpt lat="47.460686" lon="11.045937"><ele>810</ele></trkpt><trkpt lat="47.460954" lon="11.045664"><ele>810</ele></trkpt><trkpt lat="47.461170" lon="11.045614"><ele>808</ele></trkpt><trkpt lat="47.461266" lon="11.045606"><ele>806</ele></trkpt><trkpt lat="47.461333" lon="11.045600"><ele>805</ele></trkpt><trkpt lat="47.461410" lon="11.045597"><ele>805</ele></trkpt><trkpt lat="47.461649" lon="11.045589"><ele>808</ele></trkpt><trkpt lat="47.461822" lon="11.045563"><ele>812</ele></trkpt><trkpt lat="47.462039" lon="11.045459"><ele>815</ele></trkpt><trkpt lat="47.462151" lon="11.045273"><ele>815</ele></trkpt><trkpt lat="47.462181" lon="11.045105"><ele>811</ele></trkpt><trkpt lat="47.462190" lon="11.044717"><ele>801</ele></trkpt><trkpt lat="47.462175" lon="11.044498"><ele>797</ele></trkpt><trkpt lat="47.462264" lon="11.044347"><ele>795</ele></trkpt><trkpt lat="47.462421" lon="11.044273"><ele>794</ele></trkpt><trkpt lat="47.462579" lon="11.044236"><ele>793</ele></trkpt><trkpt lat="47.462746" lon="11.044144"><ele>791</ele></trkpt><trkpt lat="47.462946" lon="11.044082"><ele>789</ele></trkpt><trkpt lat="47.463093" lon="11.044014"><ele>787</ele></trkpt><trkpt lat="47.463292" lon="11.044002"><ele>785</ele></trkpt><trkpt lat="47.463464" lon="11.043967"><ele>782</ele></trkpt><trkpt lat="47.463654" lon="11.044041"><ele>780</ele></trkpt><trkpt lat="47.463813" lon="11.044127"><ele>778</ele></trkpt><trkpt lat="47.463965" lon="11.044260"><ele>777</ele></trkpt><trkpt lat="47.464014" lon="11.044321"><ele>777</ele></trkpt><trkpt lat="47.464261" lon="11.044638"><ele>775</ele></trkpt><trkpt lat="47.464312" lon="11.044706"><ele>775</ele></trkpt><trkpt lat="47.464426" lon="11.044884"><ele>774</ele></trkpt><trkpt lat="47.464633" lon="11.045110"><ele>774</ele></trkpt><trkpt lat="47.464864" lon="11.045243"><ele>772</ele></trkpt><trkpt lat="47.465096" lon="11.045377"><ele>772</ele></trkpt><trkpt lat="47.465128" lon="11.045481"><ele>772</ele></trkpt></trkseg></trk>
</gpx>
