<?xml version="1.0" encoding="UTF-8"?>
<gpx version="1.1" creator="Garmisch 2026" xmlns="http://www.topografix.com/GPX/1/1">
<metadata><name>Svētdiena - Īsais (8,8 km)</name></metadata>
<wpt lat="47.465061" lon="11.045062"><name>Hammersbach (vilciena pietura)</name></wpt>
<wpt lat="47.44839" lon="11.04449"><name>Höllentaleingangshütte</name></wpt>
<wpt lat="47.471821" lon="11.023778"><name>Grainau stacija (vilciens uz Garmisch)</name></wpt>
<wpt lat="47.47336" lon="11.01635"><name>Badersee</name></wpt>
<wpt lat="47.48962" lon="11.09672"><name>Zugspitzbahnhof Garmisch (vilciens 08:15)</name></wpt>
<wpt lat="47.49296" lon="11.08806"><name>Vakariņas: Zum Wildschütz 18:30</name></wpt>
<trk><name>Svētdiena - Īsais (8,8 km)</name><trkseg><trkpt lat="47.468288" lon="11.040581"><ele>758</ele></trkpt><trkpt lat="47.466789" lon="11.042061"><ele>765</ele></trkpt><trkpt lat="47.465679" lon="11.043563"><ele>773</ele></trkpt><trkpt lat="47.465454" lon="11.044293"><ele>772</ele></trkpt><trkpt lat="47.465076" lon="11.044936"><ele>774</ele></trkpt><trkpt lat="47.465050" lon="11.045301"><ele>773</ele></trkpt><trkpt lat="47.464832" lon="11.045215"><ele>778</ele></trkpt><trkpt lat="47.463642" lon="11.043971"><ele>790</ele></trkpt><trkpt lat="47.463322" lon="11.043863"><ele>793</ele></trkpt><trkpt lat="47.463089" lon="11.043885"><ele>793</ele></trkpt><trkpt lat="47.462830" lon="11.044057"><ele>799</ele></trkpt><trkpt lat="47.462448" lon="11.044167"><ele>799</ele></trkpt><trkpt lat="47.462234" lon="11.044403"><ele>800</ele></trkpt><trkpt lat="47.462124" lon="11.044618"><ele>805</ele></trkpt><trkpt lat="47.461987" lon="11.045262"><ele>812</ele></trkpt><trkpt lat="47.460838" lon="11.045755"><ele>825</ele></trkpt><trkpt lat="47.460564" lon="11.045970"><ele>829</ele></trkpt><trkpt lat="47.460361" lon="11.045862"><ele>830</ele></trkpt><trkpt lat="47.460186" lon="11.045669"><ele>835</ele></trkpt><trkpt lat="47.460377" lon="11.045412"><ele>840</ele></trkpt><trkpt lat="47.461071" lon="11.045047"><ele>829</ele></trkpt><trkpt lat="47.461071" lon="11.044210"><ele>840</ele></trkpt><trkpt lat="47.460419" lon="11.043631"><ele>874</ele></trkpt><trkpt lat="47.459824" lon="11.043674"><ele>888</ele></trkpt><trkpt lat="47.459511" lon="11.043787"><ele>888</ele></trkpt><trkpt lat="47.459274" lon="11.044045"><ele>881</ele></trkpt><trkpt lat="47.459045" lon="11.044131"><ele>881</ele></trkpt><trkpt lat="47.458363" lon="11.044002"><ele>895</ele></trkpt><trkpt lat="47.458149" lon="11.043890"><ele>899</ele></trkpt><trkpt lat="47.457802" lon="11.043911"><ele>901</ele></trkpt><trkpt lat="47.457466" lon="11.044147"><ele>907</ele></trkpt><trkpt lat="47.457363" lon="11.044577"><ele>893</ele></trkpt><trkpt lat="47.456959" lon="11.044641"><ele>898</ele></trkpt><trkpt lat="47.456829" lon="11.044920"><ele>890</ele></trkpt><trkpt lat="47.456596" lon="11.045113"><ele>891</ele></trkpt><trkpt lat="47.456364" lon="11.045049"><ele>890</ele></trkpt><trkpt lat="47.455776" lon="11.044288"><ele>908</ele></trkpt><trkpt lat="47.455357" lon="11.044223"><ele>904</ele></trkpt><trkpt lat="47.454948" lon="11.043901"><ele>907</ele></trkpt><trkpt lat="47.454674" lon="11.043837"><ele>910</ele></trkpt><trkpt lat="47.454353" lon="11.043901"><ele>905</ele></trkpt><trkpt lat="47.454079" lon="11.043708"><ele>911</ele></trkpt><trkpt lat="47.453815" lon="11.043644"><ele>911</ele></trkpt><trkpt lat="47.453297" lon="11.043773"><ele>914</ele></trkpt><trkpt lat="47.452759" lon="11.043451"><ele>924</ele></trkpt><trkpt lat="47.452278" lon="11.043386"><ele>929</ele></trkpt><trkpt lat="47.452019" lon="11.043601"><ele>929</ele></trkpt><trkpt lat="47.451683" lon="11.043708"><ele>934</ele></trkpt><trkpt lat="47.451019" lon="11.043759"><ele>945</ele></trkpt><trkpt lat="47.450253" lon="11.043673"><ele>957</ele></trkpt><trkpt lat="47.450340" lon="11.043544"><ele>956</ele></trkpt><trkpt lat="47.449993" lon="11.043566"><ele>966</ele></trkpt><trkpt lat="47.450066" lon="11.043437"><ele>966</ele></trkpt><trkpt lat="47.449818" lon="11.043437"><ele>975</ele></trkpt><trkpt lat="47.449993" lon="11.043201"><ele>973</ele></trkpt><trkpt lat="47.449783" lon="11.043212"><ele>980</ele></trkpt><trkpt lat="47.449657" lon="11.043137"><ele>988</ele></trkpt><trkpt lat="47.449905" lon="11.042879"><ele>987</ele></trkpt><trkpt lat="47.449341" lon="11.042793"><ele>1023</ele></trkpt><trkpt lat="47.448906" lon="11.043223"><ele>1043</ele></trkpt><trkpt lat="47.448425" lon="11.044446"><ele>1040</ele></trkpt><trkpt lat="47.448166" lon="11.044274"><ele>1077</ele></trkpt><trkpt lat="47.447598" lon="11.043540"><ele>1128</ele></trkpt><trkpt lat="47.447365" lon="11.043411"><ele>1142</ele></trkpt><trkpt lat="47.447102" lon="11.043154"><ele>1148</ele></trkpt><trkpt lat="47.447002" lon="11.043154"><ele>1152</ele></trkpt><trkpt lat="47.445927" lon="11.042210"><ele>1185</ele></trkpt><trkpt lat="47.445301" lon="11.042234"><ele>1199</ele></trkpt><trkpt lat="47.444706" lon="11.042362"><ele>1211</ele></trkpt><trkpt lat="47.444344" lon="11.042126"><ele>1206</ele></trkpt><trkpt lat="47.444214" lon="11.041354"><ele>1182</ele></trkpt><trkpt lat="47.444271" lon="11.040860"><ele>1186</ele></trkpt><trkpt lat="47.444576" lon="11.040150"><ele>1196</ele></trkpt><trkpt lat="47.444721" lon="11.039957"><ele>1211</ele></trkpt><trkpt lat="47.444546" lon="11.039635"><ele>1208</ele></trkpt><trkpt lat="47.443981" lon="11.039335"><ele>1201</ele></trkpt><trkpt lat="47.443645" lon="11.038605"><ele>1219</ele></trkpt><trkpt lat="47.443035" lon="11.038283"><ele>1234</ele></trkpt><trkpt lat="47.442745" lon="11.038047"><ele>1234</ele></trkpt><trkpt lat="47.442589" lon="11.038112"><ele>1236</ele></trkpt><trkpt lat="47.442078" lon="11.037468"><ele>1236</ele></trkpt><trkpt lat="47.442078" lon="11.037232"><ele>1239</ele></trkpt><trkpt lat="47.441978" lon="11.037060"><ele>1245</ele></trkpt><trkpt lat="47.441399" lon="11.036545"><ele>1244</ele></trkpt><trkpt lat="47.441414" lon="11.036374"><ele>1242</ele></trkpt><trkpt lat="47.441280" lon="11.036095"><ele>1245</ele></trkpt><trkpt lat="47.441311" lon="11.035129"><ele>1266</ele></trkpt><trkpt lat="47.441181" lon="11.035022"><ele>1260</ele></trkpt><trkpt lat="47.441078" lon="11.034678"><ele>1267</ele></trkpt><trkpt lat="47.441078" lon="11.034678"><ele>1267</ele></trkpt><trkpt lat="47.441181" lon="11.035022"><ele>1260</ele></trkpt><trkpt lat="47.441311" lon="11.035129"><ele>1266</ele></trkpt><trkpt lat="47.441280" lon="11.036095"><ele>1245</ele></trkpt><trkpt lat="47.441414" lon="11.036374"><ele>1242</ele></trkpt><trkpt lat="47.441399" lon="11.036545"><ele>1244</ele></trkpt><trkpt lat="47.441978" lon="11.037060"><ele>1245</ele></trkpt><trkpt lat="47.442078" lon="11.037232"><ele>1239</ele></trkpt><trkpt lat="47.442078" lon="11.037468"><ele>1236</ele></trkpt><trkpt lat="47.442589" lon="11.038112"><ele>1236</ele></trkpt><trkpt lat="47.442745" lon="11.038047"><ele>1234</ele></trkpt><trkpt lat="47.443035" lon="11.038283"><ele>1234</ele></trkpt><trkpt lat="47.443645" lon="11.038605"><ele>1219</ele></trkpt><trkpt lat="47.443981" lon="11.039335"><ele>1201</ele></trkpt><trkpt lat="47.444546" lon="11.039635"><ele>1208</ele></trkpt><trkpt lat="47.444721" lon="11.039957"><ele>1211</ele></trkpt><trkpt lat="47.444576" lon="11.040150"><ele>1196</ele></trkpt><trkpt lat="47.444271" lon="11.040860"><ele>1186</ele></trkpt><trkpt lat="47.444214" lon="11.041354"><ele>1182</ele></trkpt><trkpt lat="47.444344" lon="11.042126"><ele>1206</ele></trkpt><trkpt lat="47.444706" lon="11.042362"><ele>1211</ele></trkpt><trkpt lat="47.445301" lon="11.042234"><ele>1199</ele></trkpt><trkpt lat="47.445927" lon="11.042210"><ele>1185</ele></trkpt><trkpt lat="47.447002" lon="11.043154"><ele>1152</ele></trkpt><trkpt lat="47.447102" lon="11.043154"><ele>1148</ele></trkpt><trkpt lat="47.447365" lon="11.043411"><ele>1142</ele></trkpt><trkpt lat="47.447598" lon="11.043540"><ele>1128</ele></trkpt><trkpt lat="47.448166" lon="11.044274"><ele>1077</ele></trkpt><trkpt lat="47.448425" lon="11.044446"><ele>1040</ele></trkpt><trkpt lat="47.448906" lon="11.043223"><ele>1043</ele></trkpt><trkpt lat="47.449341" lon="11.042793"><ele>1023</ele></trkpt><trkpt lat="47.449905" lon="11.042879"><ele>987</ele></trkpt><trkpt lat="47.449657" lon="11.043137"><ele>988</ele></trkpt><trkpt lat="47.449783" lon="11.043212"><ele>980</ele></trkpt><trkpt lat="47.449993" lon="11.043201"><ele>973</ele></trkpt><trkpt lat="47.449818" lon="11.043437"><ele>975</ele></trkpt><trkpt lat="47.450066" lon="11.043437"><ele>966</ele></trkpt><trkpt lat="47.449993" lon="11.043566"><ele>966</ele></trkpt><trkpt lat="47.450340" lon="11.043544"><ele>956</ele></trkpt><trkpt lat="47.450253" lon="11.043673"><ele>957</ele></trkpt><trkpt lat="47.451019" lon="11.043759"><ele>945</ele></trkpt><trkpt lat="47.451683" lon="11.043708"><ele>934</ele></trkpt><trkpt lat="47.452019" lon="11.043601"><ele>929</ele></trkpt><trkpt lat="47.452278" lon="11.043386"><ele>929</ele></trkpt><trkpt lat="47.452759" lon="11.043451"><ele>924</ele></trkpt><trkpt lat="47.453297" lon="11.043773"><ele>914</ele></trkpt><trkpt lat="47.453815" lon="11.043644"><ele>911</ele></trkpt><trkpt lat="47.454079" lon="11.043708"><ele>911</ele></trkpt><trkpt lat="47.454353" lon="11.043901"><ele>905</ele></trkpt><trkpt lat="47.454674" lon="11.043837"><ele>910</ele></trkpt><trkpt lat="47.454948" lon="11.043901"><ele>907</ele></trkpt><trkpt lat="47.455357" lon="11.044223"><ele>904</ele></trkpt><trkpt lat="47.455776" lon="11.044288"><ele>908</ele></trkpt><trkpt lat="47.456364" lon="11.045049"><ele>890</ele></trkpt><trkpt lat="47.456596" lon="11.045113"><ele>891</ele></trkpt><trkpt lat="47.456829" lon="11.044920"><ele>890</ele></trkpt><trkpt lat="47.456959" lon="11.044641"><ele>898</ele></trkpt><trkpt lat="47.457363" lon="11.044577"><ele>893</ele></trkpt><trkpt lat="47.457466" lon="11.044147"><ele>907</ele></trkpt><trkpt lat="47.457802" lon="11.043911"><ele>901</ele></trkpt><trkpt lat="47.458149" lon="11.043890"><ele>899</ele></trkpt><trkpt lat="47.458363" lon="11.044002"><ele>895</ele></trkpt><trkpt lat="47.459045" lon="11.044131"><ele>881</ele></trkpt><trkpt lat="47.459274" lon="11.044045"><ele>881</ele></trkpt><trkpt lat="47.459511" lon="11.043787"><ele>888</ele></trkpt><trkpt lat="47.459824" lon="11.043674"><ele>888</ele></trkpt><trkpt lat="47.460419" lon="11.043631"><ele>874</ele></trkpt><trkpt lat="47.461071" lon="11.044210"><ele>840</ele></trkpt><trkpt lat="47.461071" lon="11.045047"><ele>829</ele></trkpt><trkpt lat="47.460377" lon="11.045412"><ele>840</ele></trkpt><trkpt lat="47.460186" lon="11.045669"><ele>835</ele></trkpt><trkpt lat="47.460361" lon="11.045862"><ele>830</ele></trkpt><trkpt lat="47.460564" lon="11.045970"><ele>829</ele></trkpt><trkpt lat="47.460838" lon="11.045755"><ele>825</ele></trkpt><trkpt lat="47.461987" lon="11.045262"><ele>812</ele></trkpt><trkpt lat="47.462124" lon="11.044618"><ele>805</ele></trkpt><trkpt lat="47.462234" lon="11.044403"><ele>800</ele></trkpt><trkpt lat="47.462448" lon="11.044167"><ele>799</ele></trkpt><trkpt lat="47.462830" lon="11.044057"><ele>799</ele></trkpt><trkpt lat="47.463089" lon="11.043885"><ele>793</ele></trkpt><trkpt lat="47.463322" lon="11.043863"><ele>793</ele></trkpt><trkpt lat="47.463642" lon="11.043971"><ele>790</ele></trkpt><trkpt lat="47.464832" lon="11.045215"><ele>778</ele></trkpt><trkpt lat="47.465050" lon="11.045301"><ele>773</ele></trkpt><trkpt lat="47.465076" lon="11.044936"><ele>774</ele></trkpt><trkpt lat="47.465454" lon="11.044293"><ele>772</ele></trkpt><trkpt lat="47.465679" lon="11.043563"><ele>773</ele></trkpt><trkpt lat="47.466789" lon="11.042061"><ele>765</ele></trkpt><trkpt lat="47.468288" lon="11.040581"><ele>758</ele></trkpt></trkseg></trk>
</gpx>
