<?xml version="1.0" encoding="UTF-8"?>
<gpx version="1.1" creator="Garmisch 2026" xmlns="http://www.topografix.com/GPX/1/1">
<metadata><name>Svētdiena - Papildus kājām (3,6 km)</name></metadata>
<wpt lat="47.465061" lon="11.045062"><name>Hammersbach (vilciena pietura)</name></wpt>
<wpt lat="47.44839" lon="11.04449"><name>Höllentaleingangshütte</name></wpt>
<wpt lat="47.471821" lon="11.023778"><name>Grainau stacija (vilciens uz Garmisch)</name></wpt>
<wpt lat="47.47336" lon="11.01635"><name>Badersee</name></wpt>
<wpt lat="47.49296" lon="11.08806"><name>Vakariņas: Zum Wildschütz 17:30</name></wpt>
<trk><name>Svētdiena - Papildus kājām (3,6 km)</name><trkseg><trkpt lat="47.465059" lon="11.045061"><ele>771</ele></trkpt><trkpt lat="47.465058" lon="11.045022"><ele>771</ele></trkpt><trkpt lat="47.465066" lon="11.044951"><ele>771</ele></trkpt><trkpt lat="47.465091" lon="11.044865"><ele>771</ele></trkpt><trkpt lat="47.465107" lon="11.044828"><ele>772</ele></trkpt><trkpt lat="47.465072" lon="11.044780"><ele>772</ele></trkpt><trkpt lat="47.465075" lon="11.044722"><ele>772</ele></trkpt><trkpt lat="47.465108" lon="11.044704"><ele>772</ele></trkpt><trkpt lat="47.465167" lon="11.044613"><ele>776</ele></trkpt><trkpt lat="47.465268" lon="11.044505"><ele>776</ele></trkpt><trkpt lat="47.465327" lon="11.044417"><ele>776</ele></trkpt><trkpt lat="47.465376" lon="11.044314"><ele>777</ele></trkpt><trkpt lat="47.465434" lon="11.044163"><ele>776</ele></trkpt><trkpt lat="47.465491" lon="11.043984"><ele>773</ele></trkpt><trkpt lat="47.465510" lon="11.043899"><ele>772</ele></trkpt><trkpt lat="47.465514" lon="11.043801"><ele>772</ele></trkpt><trkpt lat="47.465536" lon="11.043752"><ele>770</ele></trkpt><trkpt lat="47.465565" lon="11.043717"><ele>770</ele></trkpt><trkpt lat="47.465591" lon="11.043728"><ele>770</ele></trkpt><trkpt lat="47.465618" lon="11.043652"><ele>770</ele></trkpt><trkpt lat="47.465643" lon="11.043602"><ele>769</ele></trkpt><trkpt lat="47.465687" lon="11.043536"><ele>770</ele></trkpt><trkpt lat="47.465816" lon="11.043362"><ele>768</ele></trkpt><trkpt lat="47.466107" lon="11.043022"><ele>767</ele></trkpt><trkpt lat="47.466349" lon="11.042630"><ele>766</ele></trkpt><trkpt lat="47.466534" lon="11.042366"><ele>765</ele></trkpt><trkpt lat="47.466807" lon="11.042027"><ele>762</ele></trkpt><trkpt lat="47.467011" lon="11.041817"><ele>762</ele></trkpt><trkpt lat="47.467063" lon="11.041765"><ele>762</ele></trkpt><trkpt lat="47.467567" lon="11.041250"><ele>760</ele></trkpt><trkpt lat="47.467606" lon="11.041207"><ele>760</ele></trkpt><trkpt lat="47.467806" lon="11.041027"><ele>759</ele></trkpt><trkpt lat="47.468001" lon="11.040866"><ele>759</ele></trkpt><trkpt lat="47.468202" lon="11.040574"><ele>758</ele></trkpt><trkpt lat="47.468332" lon="11.040390"><ele>757</ele></trkpt><trkpt lat="47.468517" lon="11.040131"><ele>756</ele></trkpt><trkpt lat="47.468526" lon="11.040118"><ele>756</ele></trkpt><trkpt lat="47.468835" lon="11.039652"><ele>755</ele></trkpt><trkpt lat="47.469048" lon="11.039335"><ele>754</ele></trkpt><trkpt lat="47.469199" lon="11.039084"><ele>754</ele></trkpt><trkpt lat="47.469373" lon="11.038737"><ele>754</ele></trkpt><trkpt lat="47.469452" lon="11.038489"><ele>754</ele></trkpt><trkpt lat="47.469534" lon="11.038119"><ele>752</ele></trkpt><trkpt lat="47.469622" lon="11.037650"><ele>752</ele></trkpt><trkpt lat="47.469641" lon="11.037432"><ele>752</ele></trkpt><trkpt lat="47.469593" lon="11.036278"><ele>751</ele></trkpt><trkpt lat="47.469611" lon="11.036112"><ele>751</ele></trkpt><trkpt lat="47.469642" lon="11.035949"><ele>751</ele></trkpt><trkpt lat="47.469804" lon="11.035610"><ele>751</ele></trkpt><trkpt lat="47.469879" lon="11.035205"><ele>750</ele></trkpt><trkpt lat="47.469864" lon="11.034811"><ele>750</ele></trkpt><trkpt lat="47.469846" lon="11.034675"><ele>750</ele></trkpt><trkpt lat="47.469866" lon="11.034284"><ele>750</ele></trkpt><trkpt lat="47.469847" lon="11.033899"><ele>750</ele></trkpt><trkpt lat="47.469899" lon="11.033813"><ele>750</ele></trkpt><trkpt lat="47.469807" lon="11.033584"><ele>750</ele></trkpt><trkpt lat="47.469789" lon="11.033491"><ele>750</ele></trkpt><trkpt lat="47.469781" lon="11.033387"><ele>750</ele></trkpt><trkpt lat="47.469838" lon="11.033063"><ele>750</ele></trkpt><trkpt lat="47.469890" lon="11.032661"><ele>751</ele></trkpt><trkpt lat="47.469913" lon="11.032400"><ele>752</ele></trkpt><trkpt lat="47.469923" lon="11.032298"><ele>751</ele></trkpt><trkpt lat="47.469878" lon="11.032253"><ele>752</ele></trkpt><trkpt lat="47.469864" lon="11.032035"><ele>751</ele></trkpt><trkpt lat="47.469889" lon="11.031772"><ele>751</ele></trkpt><trkpt lat="47.469914" lon="11.031624"><ele>751</ele></trkpt><trkpt lat="47.469953" lon="11.031549"><ele>750</ele></trkpt><trkpt lat="47.469966" lon="11.031328"><ele>750</ele></trkpt><trkpt lat="47.469972" lon="11.031066"><ele>750</ele></trkpt><trkpt lat="47.469956" lon="11.030865"><ele>750</ele></trkpt><trkpt lat="47.469936" lon="11.030688"><ele>750</ele></trkpt><trkpt lat="47.469881" lon="11.030439"><ele>750</ele></trkpt><trkpt lat="47.469850" lon="11.030259"><ele>750</ele></trkpt><trkpt lat="47.469867" lon="11.030203"><ele>749</ele></trkpt><trkpt lat="47.469866" lon="11.030196"><ele>749</ele></trkpt><trkpt lat="47.469823" lon="11.030033"><ele>749</ele></trkpt><trkpt lat="47.469802" lon="11.029918"><ele>749</ele></trkpt><trkpt lat="47.469797" lon="11.029798"><ele>748</ele></trkpt><trkpt lat="47.469802" lon="11.029735"><ele>748</ele></trkpt><trkpt lat="47.469809" lon="11.029668"><ele>748</ele></trkpt><trkpt lat="47.469836" lon="11.029574"><ele>748</ele></trkpt><trkpt lat="47.469882" lon="11.029474"><ele>748</ele></trkpt><trkpt lat="47.469926" lon="11.029403"><ele>748</ele></trkpt><trkpt lat="47.470025" lon="11.029280"><ele>748</ele></trkpt><trkpt lat="47.470102" lon="11.029260"><ele>748</ele></trkpt><trkpt lat="47.470171" lon="11.029242"><ele>748</ele></trkpt><trkpt lat="47.470489" lon="11.029240"><ele>748</ele></trkpt><trkpt lat="47.470569" lon="11.029239"><ele>748</ele></trkpt><trkpt lat="47.470622" lon="11.029222"><ele>748</ele></trkpt><trkpt lat="47.470665" lon="11.029176"><ele>748</ele></trkpt><trkpt lat="47.470709" lon="11.029103"><ele>748</ele></trkpt><trkpt lat="47.470748" lon="11.028990"><ele>748</ele></trkpt><trkpt lat="47.470841" lon="11.029104"><ele>747</ele></trkpt><trkpt lat="47.470919" lon="11.029180"><ele>747</ele></trkpt><trkpt lat="47.471010" lon="11.029248"><ele>747</ele></trkpt><trkpt lat="47.471178" lon="11.029305"><ele>747</ele></trkpt><trkpt lat="47.471294" lon="11.029335"><ele>746</ele></trkpt><trkpt lat="47.471467" lon="11.029378"><ele>746</ele></trkpt><trkpt lat="47.471511" lon="11.029377"><ele>747</ele></trkpt><trkpt lat="47.471533" lon="11.029363"><ele>747</ele></trkpt><trkpt lat="47.471548" lon="11.029354"><ele>747</ele></trkpt><trkpt lat="47.471680" lon="11.029087"><ele>747</ele></trkpt><trkpt lat="47.471811" lon="11.028871"><ele>748</ele></trkpt><trkpt lat="47.471952" lon="11.028702"><ele>747</ele></trkpt><trkpt lat="47.472030" lon="11.028581"><ele>747</ele></trkpt><trkpt lat="47.472080" lon="11.028522"><ele>747</ele></trkpt><trkpt lat="47.472175" lon="11.028429"><ele>747</ele></trkpt><trkpt lat="47.472253" lon="11.028369"><ele>746</ele></trkpt><trkpt lat="47.472200" lon="11.028173"><ele>746</ele></trkpt><trkpt lat="47.472151" lon="11.027904"><ele>746</ele></trkpt><trkpt lat="47.472153" lon="11.027768"><ele>746</ele></trkpt><trkpt lat="47.472158" lon="11.027232"><ele>746</ele></trkpt><trkpt lat="47.472139" lon="11.027047"><ele>746</ele></trkpt><trkpt lat="47.472134" lon="11.026851"><ele>747</ele></trkpt><trkpt lat="47.472201" lon="11.026738"><ele>747</ele></trkpt><trkpt lat="47.472186" lon="11.026696"><ele>747</ele></trkpt><trkpt lat="47.472271" lon="11.026616"><ele>747</ele></trkpt><trkpt lat="47.472336" lon="11.026508"><ele>748</ele></trkpt><trkpt lat="47.472375" lon="11.026426"><ele>750</ele></trkpt><trkpt lat="47.472364" lon="11.026349"><ele>750</ele></trkpt><trkpt lat="47.472347" lon="11.026237"><ele>750</ele></trkpt><trkpt lat="47.472325" lon="11.026234"><ele>750</ele></trkpt><trkpt lat="47.472297" lon="11.026207"><ele>750</ele></trkpt><trkpt lat="47.472285" lon="11.026163"><ele>750</ele></trkpt><trkpt lat="47.472290" lon="11.026138"><ele>750</ele></trkpt><trkpt lat="47.472304" lon="11.026126"><ele>751</ele></trkpt><trkpt lat="47.472274" lon="11.026036"><ele>750</ele></trkpt><trkpt lat="47.472282" lon="11.025928"><ele>750</ele></trkpt><trkpt lat="47.472272" lon="11.025901"><ele>750</ele></trkpt><trkpt lat="47.472234" lon="11.025807"><ele>749</ele></trkpt><trkpt lat="47.472162" lon="11.025742"><ele>748</ele></trkpt><trkpt lat="47.472082" lon="11.025664"><ele>748</ele></trkpt><trkpt lat="47.472016" lon="11.025472"><ele>748</ele></trkpt><trkpt lat="47.472101" lon="11.025399"><ele>747</ele></trkpt><trkpt lat="47.472083" lon="11.025348"><ele>748</ele></trkpt><trkpt lat="47.472049" lon="11.025248"><ele>748</ele></trkpt><trkpt lat="47.472005" lon="11.025077"><ele>748</ele></trkpt><trkpt lat="47.471989" lon="11.024955"><ele>749</ele></trkpt><trkpt lat="47.471987" lon="11.024606"><ele>750</ele></trkpt><trkpt lat="47.471995" lon="11.024178"><ele>752</ele></trkpt><trkpt lat="47.471913" lon="11.023262"><ele>752</ele></trkpt><trkpt lat="47.471910" lon="11.023133"><ele>752</ele></trkpt><trkpt lat="47.471848" lon="11.022544"><ele>753</ele></trkpt><trkpt lat="47.471774" lon="11.021933"><ele>754</ele></trkpt><trkpt lat="47.471699" lon="11.021044"><ele>755</ele></trkpt><trkpt lat="47.471621" lon="11.020566"><ele>757</ele></trkpt><trkpt lat="47.471684" lon="11.020497"><ele>757</ele></trkpt><trkpt lat="47.471666" lon="11.019789"><ele>758</ele></trkpt><trkpt lat="47.471735" lon="11.019744"><ele>759</ele></trkpt><trkpt lat="47.471749" lon="11.019670"><ele>760</ele></trkpt><trkpt lat="47.471741" lon="11.019132"><ele>768</ele></trkpt><trkpt lat="47.471866" lon="11.018631"><ele>766</ele></trkpt><trkpt lat="47.471922" lon="11.018436"><ele>764</ele></trkpt><trkpt lat="47.471926" lon="11.018249"><ele>766</ele></trkpt><trkpt lat="47.471989" lon="11.018031"><ele>770</ele></trkpt><trkpt lat="47.472058" lon="11.017667"><ele>776</ele></trkpt><trkpt lat="47.472088" lon="11.017300"><ele>778</ele></trkpt><trkpt lat="47.472117" lon="11.017072"><ele>779</ele></trkpt><trkpt lat="47.472187" lon="11.016946"><ele>779</ele></trkpt><trkpt lat="47.472382" lon="11.016845"><ele>780</ele></trkpt><trkpt lat="47.472563" lon="11.016826"><ele>778</ele></trkpt><trkpt lat="47.472771" lon="11.016779"><ele>773</ele></trkpt><trkpt lat="47.472844" lon="11.016708"><ele>770</ele></trkpt><trkpt lat="47.472910" lon="11.016704"><ele>769</ele></trkpt><trkpt lat="47.472962" lon="11.016720"><ele>768</ele></trkpt><trkpt lat="47.472940" lon="11.016644"><ele>768</ele></trkpt><trkpt lat="47.472938" lon="11.016441"><ele>768</ele></trkpt><trkpt lat="47.473000" lon="11.016170"><ele>768</ele></trkpt><trkpt lat="47.472938" lon="11.016441"><ele>768</ele></trkpt><trkpt lat="47.472940" lon="11.016644"><ele>768</ele></trkpt><trkpt lat="47.472962" lon="11.016720"><ele>768</ele></trkpt><trkpt lat="47.472910" lon="11.016704"><ele>769</ele></trkpt><trkpt lat="47.472844" lon="11.016708"><ele>770</ele></trkpt><trkpt lat="47.472771" lon="11.016779"><ele>773</ele></trkpt><trkpt lat="47.472563" lon="11.016826"><ele>778</ele></trkpt><trkpt lat="47.472382" lon="11.016845"><ele>780</ele></trkpt><trkpt lat="47.472187" lon="11.016946"><ele>779</ele></trkpt><trkpt lat="47.472117" lon="11.017072"><ele>779</ele></trkpt><trkpt lat="47.472088" lon="11.017300"><ele>778</ele></trkpt><trkpt lat="47.472058" lon="11.017667"><ele>776</ele></trkpt><trkpt lat="47.471989" lon="11.018031"><ele>770</ele></trkpt><trkpt lat="47.471926" lon="11.018249"><ele>766</ele></trkpt><trkpt lat="47.471922" lon="11.018436"><ele>764</ele></trkpt><trkpt lat="47.471866" lon="11.018631"><ele>766</ele></trkpt><trkpt lat="47.471741" lon="11.019132"><ele>768</ele></trkpt><trkpt lat="47.471749" lon="11.019670"><ele>760</ele></trkpt><trkpt lat="47.471735" lon="11.019744"><ele>759</ele></trkpt><trkpt lat="47.471666" lon="11.019789"><ele>758</ele></trkpt><trkpt lat="47.471684" lon="11.020497"><ele>757</ele></trkpt><trkpt lat="47.471621" lon="11.020566"><ele>757</ele></trkpt><trkpt lat="47.471699" lon="11.021044"><ele>755</ele></trkpt><trkpt lat="47.471774" lon="11.021933"><ele>754</ele></trkpt><trkpt lat="47.471848" lon="11.022544"><ele>753</ele></trkpt><trkpt lat="47.471910" lon="11.023133"><ele>752</ele></trkpt><trkpt lat="47.471913" lon="11.023262"><ele>752</ele></trkpt><trkpt lat="47.471995" lon="11.024178"><ele>752</ele></trkpt><trkpt lat="47.471987" lon="11.024606"><ele>750</ele></trkpt><trkpt lat="47.471905" lon="11.024588"><ele>750</ele></trkpt><trkpt lat="47.471934" lon="11.024271"><ele>750</ele></trkpt><trkpt lat="47.471931" lon="11.024252"><ele>751</ele></trkpt><trkpt lat="47.471911" lon="11.024252"><ele>751</ele></trkpt><trkpt lat="47.471896" lon="11.024467"><ele>750</ele></trkpt><trkpt lat="47.471881" lon="11.024463"><ele>750</ele></trkpt><trkpt lat="47.471850" lon="11.024456"><ele>750</ele></trkpt><trkpt lat="47.471862" lon="11.024421"><ele>750</ele></trkpt><trkpt lat="47.471852" lon="11.024408"><ele>750</ele></trkpt><trkpt lat="47.471812" lon="11.024413"><ele>750</ele></trkpt><trkpt lat="47.471788" lon="11.024386"><ele>750</ele></trkpt><trkpt lat="47.471771" lon="11.024163"><ele>753</ele></trkpt><trkpt lat="47.471765" lon="11.023938"><ele>754</ele></trkpt><trkpt lat="47.471750" lon="11.023792"><ele>753</ele></trkpt></trkseg></trk>
</gpx>
