<?xml version="1.0" encoding="UTF-8"?>
<gpx version="1.1" creator="Garmisch 2026" xmlns="http://www.topografix.com/GPX/1/1">
<metadata><name>Svētdiena - Partenkirchen (5,1 km)</name></metadata>
<wpt lat="47.48166" lon="11.11913"><name>Olympia-Skistadion - busiņa stāvvieta</name></wpt>
<wpt lat="47.4695" lon="11.11933"><name>Partnachklamm kase</name></wpt>
<wpt lat="47.49275" lon="11.11273"><name>Ludwigstraße - pusdienas (Fraundorfer, Nr. 24)</name></wpt>
<wpt lat="47.49837" lon="11.11144"><name>St. Anton baznīca</name></wpt>
<wpt lat="47.47336" lon="11.01635"><name>Badersee</name></wpt>
<wpt lat="47.49296" lon="11.08806"><name>Vakariņas: Zum Wildschütz 17:30</name></wpt>
<trk><name>Svētdiena - Partenkirchen (5,1 km)</name><trkseg><trkpt lat="47.481611" lon="11.119462"><ele>734.0</ele></trkpt><trkpt lat="47.481770" lon="11.119643"><ele>728.0</ele></trkpt><trkpt lat="47.481909" lon="11.119929"><ele>728.0</ele></trkpt><trkpt lat="47.481989" lon="11.120082"><ele>729.0</ele></trkpt><trkpt lat="47.482065" lon="11.120073"><ele>729.0</ele></trkpt><trkpt lat="47.482232" lon="11.120418"><ele>729.0</ele></trkpt><trkpt lat="47.482464" lon="11.120000"><ele>729.0</ele></trkpt><trkpt lat="47.482462" lon="11.119893"><ele>728.0</ele></trkpt><trkpt lat="47.482540" lon="11.119849"><ele>728.0</ele></trkpt><trkpt lat="47.482739" lon="11.119768"><ele>728.0</ele></trkpt><trkpt lat="47.482823" lon="11.119697"><ele>728.0</ele></trkpt><trkpt lat="47.482958" lon="11.119399"><ele>728.0</ele></trkpt><trkpt lat="47.483011" lon="11.118937"><ele>729.0</ele></trkpt><trkpt lat="47.483273" lon="11.118178"><ele>730.0</ele></trkpt><trkpt lat="47.483803" lon="11.117184"><ele>729.0</ele></trkpt><trkpt lat="47.484115" lon="11.116774"><ele>729.0</ele></trkpt><trkpt lat="47.484331" lon="11.116732"><ele>727.0</ele></trkpt><trkpt lat="47.484755" lon="11.116573"><ele>727.0</ele></trkpt><trkpt lat="47.485562" lon="11.116275"><ele>727.0</ele></trkpt><trkpt lat="47.485713" lon="11.116231"><ele>727.0</ele></trkpt><trkpt lat="47.485864" lon="11.116057"><ele>726.0</ele></trkpt><trkpt lat="47.486184" lon="11.115789"><ele>723.0</ele></trkpt><trkpt lat="47.487062" lon="11.115279"><ele>722.0</ele></trkpt><trkpt lat="47.487657" lon="11.114936"><ele>722.0</ele></trkpt><trkpt lat="47.487877" lon="11.114745"><ele>722.0</ele></trkpt><trkpt lat="47.488125" lon="11.114480"><ele>722.0</ele></trkpt><trkpt lat="47.488256" lon="11.114390"><ele>722.0</ele></trkpt><trkpt lat="47.488357" lon="11.114334"><ele>721.0</ele></trkpt><trkpt lat="47.488710" lon="11.114028"><ele>719.0</ele></trkpt><trkpt lat="47.488862" lon="11.114146"><ele>719.0</ele></trkpt><trkpt lat="47.488969" lon="11.114050"><ele>719.0</ele></trkpt><trkpt lat="47.489337" lon="11.113647"><ele>718.0</ele></trkpt><trkpt lat="47.489621" lon="11.113333"><ele>718.0</ele></trkpt><trkpt lat="47.489760" lon="11.113351"><ele>718.0</ele></trkpt><trkpt lat="47.489877" lon="11.113478"><ele>718.0</ele></trkpt><trkpt lat="47.489964" lon="11.113490"><ele>718.0</ele></trkpt><trkpt lat="47.490309" lon="11.113465"><ele>719.0</ele></trkpt><trkpt lat="47.490554" lon="11.113454"><ele>719.0</ele></trkpt><trkpt lat="47.490874" lon="11.113460"><ele>720.0</ele></trkpt><trkpt lat="47.491062" lon="11.113477"><ele>720.0</ele></trkpt><trkpt lat="47.491267" lon="11.113524"><ele>720.0</ele></trkpt><trkpt lat="47.491479" lon="11.113572"><ele>720.0</ele></trkpt><trkpt lat="47.491828" lon="11.113580"><ele>723.0</ele></trkpt><trkpt lat="47.492037" lon="11.113430"><ele>723.0</ele></trkpt><trkpt lat="47.492150" lon="11.113282"><ele>718.0</ele></trkpt><trkpt lat="47.492486" lon="11.112879"><ele>718.0</ele></trkpt><trkpt lat="47.492562" lon="11.112746"><ele>721.0</ele></trkpt><trkpt lat="47.492638" lon="11.112597"><ele>721.0</ele></trkpt><trkpt lat="47.492732" lon="11.112483"><ele>722.0</ele></trkpt><trkpt lat="47.492934" lon="11.112254"><ele>722.0</ele></trkpt><trkpt lat="47.492987" lon="11.112187"><ele>722.0</ele></trkpt><trkpt lat="47.493165" lon="11.111973"><ele>722.0</ele></trkpt><trkpt lat="47.493364" lon="11.111680"><ele>721.0</ele></trkpt><trkpt lat="47.493460" lon="11.111555"><ele>722.0</ele></trkpt><trkpt lat="47.493646" lon="11.111309"><ele>722.0</ele></trkpt><trkpt lat="47.493783" lon="11.111118"><ele>722.0</ele></trkpt><trkpt lat="47.494146" lon="11.111550"><ele>722.0</ele></trkpt><trkpt lat="47.494241" lon="11.111647"><ele>719.0</ele></trkpt><trkpt lat="47.494340" lon="11.111690"><ele>722.0</ele></trkpt><trkpt lat="47.494433" lon="11.111562"><ele>719.0</ele></trkpt><trkpt lat="47.494570" lon="11.111402"><ele>719.0</ele></trkpt><trkpt lat="47.494723" lon="11.111191"><ele>719.0</ele></trkpt><trkpt lat="47.494914" lon="11.111567"><ele>719.0</ele></trkpt><trkpt lat="47.495139" lon="11.111985"><ele>721.0</ele></trkpt><trkpt lat="47.495192" lon="11.112061"><ele>721.0</ele></trkpt><trkpt lat="47.495383" lon="11.111970"><ele>721.0</ele></trkpt><trkpt lat="47.495428" lon="11.111962"><ele>721.0</ele></trkpt><trkpt lat="47.495490" lon="11.111982"><ele>721.0</ele></trkpt><trkpt lat="47.495696" lon="11.112114"><ele>721.0</ele></trkpt><trkpt lat="47.495999" lon="11.112317"><ele>719.0</ele></trkpt><trkpt lat="47.496413" lon="11.112711"><ele>727.0</ele></trkpt><trkpt lat="47.496617" lon="11.112909"><ele>727.0</ele></trkpt><trkpt lat="47.496683" lon="11.112939"><ele>764.0</ele></trkpt><trkpt lat="47.496829" lon="11.112649"><ele>764.0</ele></trkpt><trkpt lat="47.497059" lon="11.112223"><ele>741.0</ele></trkpt><trkpt lat="47.497143" lon="11.112020"><ele>741.0</ele></trkpt><trkpt lat="47.497356" lon="11.111236"><ele>726.0</ele></trkpt><trkpt lat="47.497541" lon="11.111051"><ele>754.0</ele></trkpt><trkpt lat="47.497582" lon="11.110973"><ele>754.0</ele></trkpt><trkpt lat="47.497696" lon="11.110320"><ele>744.0</ele></trkpt><trkpt lat="47.497771" lon="11.110306"><ele>744.0</ele></trkpt><trkpt lat="47.497893" lon="11.110266"><ele>744.0</ele></trkpt><trkpt lat="47.497994" lon="11.110389"><ele>744.0</ele></trkpt><trkpt lat="47.497985" lon="11.110640"><ele>744.0</ele></trkpt><trkpt lat="47.498099" lon="11.110501"><ele>744.0</ele></trkpt><trkpt lat="47.498211" lon="11.110584"><ele>744.0</ele></trkpt><trkpt lat="47.498121" lon="11.110838"><ele>754.0</ele></trkpt><trkpt lat="47.498039" lon="11.111102"><ele>754.0</ele></trkpt><trkpt lat="47.498137" lon="11.111056"><ele>754.0</ele></trkpt><trkpt lat="47.498105" lon="11.111238"><ele>754.0</ele></trkpt><trkpt lat="47.498168" lon="11.111210"><ele>754.0</ele></trkpt><trkpt lat="47.498179" lon="11.111235"><ele>754.0</ele></trkpt><trkpt lat="47.498194" lon="11.111373"><ele>754.0</ele></trkpt><trkpt lat="47.498214" lon="11.111437"><ele>754.0</ele></trkpt><trkpt lat="47.498297" lon="11.111371"><ele>754.0</ele></trkpt><trkpt lat="47.498230" lon="11.111423"><ele>754.0</ele></trkpt><trkpt lat="47.498193" lon="11.111458"><ele>754.0</ele></trkpt><trkpt lat="47.498190" lon="11.111330"><ele>754.0</ele></trkpt><trkpt lat="47.498177" lon="11.111220"><ele>754.0</ele></trkpt><trkpt lat="47.498131" lon="11.111225"><ele>754.0</ele></trkpt><trkpt lat="47.498053" lon="11.111234"><ele>754.0</ele></trkpt><trkpt lat="47.498078" lon="11.111091"><ele>754.0</ele></trkpt><trkpt lat="47.498094" lon="11.110964"><ele>754.0</ele></trkpt><trkpt lat="47.498160" lon="11.110695"><ele>744.0</ele></trkpt><trkpt lat="47.498232" lon="11.110539"><ele>744.0</ele></trkpt><trkpt lat="47.498046" lon="11.110534"><ele>744.0</ele></trkpt><trkpt lat="47.497992" lon="11.110488"><ele>744.0</ele></trkpt><trkpt lat="47.497954" lon="11.110316"><ele>744.0</ele></trkpt><trkpt lat="47.497825" lon="11.110277"><ele>744.0</ele></trkpt><trkpt lat="47.497742" lon="11.110299"><ele>744.0</ele></trkpt><trkpt lat="47.497605" lon="11.110857"><ele>754.0</ele></trkpt><trkpt lat="47.497553" lon="11.111028"><ele>754.0</ele></trkpt><trkpt lat="47.497482" lon="11.111001"><ele>726.0</ele></trkpt><trkpt lat="47.497283" lon="11.111456"><ele>726.0</ele></trkpt><trkpt lat="47.497072" lon="11.112167"><ele>741.0</ele></trkpt><trkpt lat="47.496979" lon="11.112445"><ele>741.0</ele></trkpt><trkpt lat="47.496716" lon="11.112837"><ele>764.0</ele></trkpt><trkpt lat="47.496637" lon="11.112940"><ele>727.0</ele></trkpt><trkpt lat="47.496570" lon="11.112865"><ele>727.0</ele></trkpt><trkpt lat="47.496215" lon="11.112532"><ele>727.0</ele></trkpt><trkpt lat="47.495821" lon="11.112192"><ele>721.0</ele></trkpt><trkpt lat="47.495630" lon="11.112065"><ele>721.0</ele></trkpt><trkpt lat="47.495453" lon="11.111969"><ele>721.0</ele></trkpt><trkpt lat="47.495405" lon="11.111959"><ele>721.0</ele></trkpt><trkpt lat="47.495211" lon="11.112103"><ele>721.0</ele></trkpt><trkpt lat="47.495169" lon="11.112023"><ele>721.0</ele></trkpt><trkpt lat="47.495044" lon="11.111802"><ele>721.0</ele></trkpt><trkpt lat="47.494841" lon="11.111436"><ele>719.0</ele></trkpt><trkpt lat="47.494609" lon="11.111347"><ele>719.0</ele></trkpt><trkpt lat="47.494516" lon="11.111466"><ele>719.0</ele></trkpt><trkpt lat="47.494379" lon="11.111655"><ele>722.0</ele></trkpt><trkpt lat="47.494287" lon="11.111687"><ele>722.0</ele></trkpt><trkpt lat="47.494178" lon="11.111583"><ele>719.0</ele></trkpt><trkpt lat="47.493952" lon="11.111322"><ele>722.0</ele></trkpt><trkpt lat="47.493743" lon="11.111170"><ele>722.0</ele></trkpt><trkpt lat="47.493617" lon="11.111351"><ele>722.0</ele></trkpt><trkpt lat="47.493440" lon="11.111581"><ele>722.0</ele></trkpt><trkpt lat="47.493298" lon="11.111776"><ele>722.0</ele></trkpt><trkpt lat="47.493142" lon="11.112001"><ele>722.0</ele></trkpt><trkpt lat="47.492982" lon="11.112192"><ele>722.0</ele></trkpt><trkpt lat="47.492802" lon="11.112404"><ele>722.0</ele></trkpt><trkpt lat="47.492638" lon="11.112597"><ele>721.0</ele></trkpt><trkpt lat="47.492562" lon="11.112746"><ele>721.0</ele></trkpt><trkpt lat="47.492486" lon="11.112879"><ele>718.0</ele></trkpt><trkpt lat="47.492150" lon="11.113282"><ele>718.0</ele></trkpt><trkpt lat="47.492037" lon="11.113430"><ele>723.0</ele></trkpt><trkpt lat="47.491828" lon="11.113580"><ele>723.0</ele></trkpt><trkpt lat="47.491479" lon="11.113572"><ele>720.0</ele></trkpt><trkpt lat="47.491267" lon="11.113524"><ele>720.0</ele></trkpt><trkpt lat="47.491062" lon="11.113477"><ele>720.0</ele></trkpt><trkpt lat="47.490874" lon="11.113460"><ele>720.0</ele></trkpt><trkpt lat="47.490554" lon="11.113454"><ele>719.0</ele></trkpt><trkpt lat="47.490309" lon="11.113465"><ele>719.0</ele></trkpt><trkpt lat="47.489964" lon="11.113490"><ele>718.0</ele></trkpt><trkpt lat="47.489877" lon="11.113478"><ele>718.0</ele></trkpt><trkpt lat="47.489760" lon="11.113351"><ele>718.0</ele></trkpt><trkpt lat="47.489621" lon="11.113333"><ele>718.0</ele></trkpt><trkpt lat="47.489337" lon="11.113647"><ele>718.0</ele></trkpt><trkpt lat="47.488969" lon="11.114050"><ele>719.0</ele></trkpt><trkpt lat="47.488862" lon="11.114146"><ele>719.0</ele></trkpt><trkpt lat="47.488710" lon="11.114028"><ele>719.0</ele></trkpt><trkpt lat="47.488357" lon="11.114334"><ele>721.0</ele></trkpt><trkpt lat="47.488256" lon="11.114390"><ele>722.0</ele></trkpt><trkpt lat="47.488125" lon="11.114480"><ele>722.0</ele></trkpt><trkpt lat="47.487877" lon="11.114745"><ele>722.0</ele></trkpt><trkpt lat="47.487657" lon="11.114936"><ele>722.0</ele></trkpt><trkpt lat="47.487062" lon="11.115279"><ele>722.0</ele></trkpt><trkpt lat="47.486184" lon="11.115789"><ele>723.0</ele></trkpt><trkpt lat="47.485864" lon="11.116057"><ele>726.0</ele></trkpt><trkpt lat="47.485713" lon="11.116231"><ele>727.0</ele></trkpt><trkpt lat="47.485562" lon="11.116275"><ele>727.0</ele></trkpt><trkpt lat="47.484755" lon="11.116573"><ele>727.0</ele></trkpt><trkpt lat="47.484331" lon="11.116732"><ele>727.0</ele></trkpt><trkpt lat="47.484115" lon="11.116774"><ele>729.0</ele></trkpt><trkpt lat="47.483803" lon="11.117184"><ele>729.0</ele></trkpt><trkpt lat="47.483273" lon="11.118178"><ele>730.0</ele></trkpt><trkpt lat="47.483011" lon="11.118937"><ele>729.0</ele></trkpt><trkpt lat="47.482958" lon="11.119399"><ele>728.0</ele></trkpt><trkpt lat="47.482823" lon="11.119697"><ele>728.0</ele></trkpt><trkpt lat="47.482739" lon="11.119768"><ele>728.0</ele></trkpt><trkpt lat="47.482540" lon="11.119849"><ele>728.0</ele></trkpt><trkpt lat="47.482462" lon="11.119893"><ele>728.0</ele></trkpt><trkpt lat="47.482464" lon="11.120000"><ele>729.0</ele></trkpt><trkpt lat="47.482232" lon="11.120418"><ele>729.0</ele></trkpt><trkpt lat="47.482065" lon="11.120073"><ele>729.0</ele></trkpt><trkpt lat="47.481989" lon="11.120082"><ele>729.0</ele></trkpt><trkpt lat="47.481909" lon="11.119929"><ele>728.0</ele></trkpt><trkpt lat="47.481770" lon="11.119643"><ele>728.0</ele></trkpt><trkpt lat="47.481611" lon="11.119462"><ele>734.0</ele></trkpt></trkseg></trk>
</gpx>
